[
  {
    "TenantName": "O'Neill, Kris",
    "UnitNumber": "1013",
    "BuildingNumber": 1.0,
    "Address": "24 Myola Court",
    "City": "Coombabah",
    "Region": "Qld",
    "PostalCode": "4216",
    "Longitude": 153.37364,
    "Latitude": -27.897559
  },
  {
    "TenantName": "Ley, Emma",
    "UnitNumber": "2111",
    "BuildingNumber": 1.0,
    "Address": "2 Fig Tree Court",
    "City": "Oxenford",
    "Region": "QLD",
    "PostalCode": "4210",
    "Longitude": 153.313233,
    "Latitude": -27.898468
  },
  {
    "TenantName": "Lipar, Igor",
    "UnitNumber": "1093",
    "BuildingNumber": 1.0,
    "Address": "28 Alison Road",
    "City": "Carrara",
    "Region": "QLD",
    "PostalCode": "4211",
    "Longitude": 153.352678,
    "Latitude": -28.021284
  },
  {
    "TenantName": "Dawson, Glenn",
    "UnitNumber": "2038",
    "BuildingNumber": 1.0,
    "Address": "PO Box 761",
    "City": "Helensvale",
    "Region": "QLD",
    "PostalCode": "4212",
    "Longitude": 153.339389,
    "Latitude": -27.891731
  },
  {
    "TenantName": "Baker, Pip",
    "UnitNumber": "2057",
    "BuildingNumber": 1.0,
    "Address": "6/14 Fonda Place",
    "City": "Oxenford",
    "Region": "QLD",
    "PostalCode": "4210",
    "Longitude": 153.319082,
    "Latitude": -27.922093
  },
  {
    "TenantName": "Cherop, Henry",
    "UnitNumber": "2066",
    "BuildingNumber": 1.0,
    "Address": "1 Principal Drive",
    "City": "Upper Coomera",
    "Region": "QLD",
    "PostalCode": "4209",
    "Longitude": 153.301385,
    "Latitude": -27.87335
  },
  {
    "TenantName": "Tanner, Allan",
    "UnitNumber": "2165",
    "BuildingNumber": 1.0,
    "Address": "2 Forest Court",
    "City": "Helensvale",
    "Region": "Qld",
    "PostalCode": "4212",
    "Longitude": 153.344468,
    "Latitude": -27.933011
  },
  {
    "TenantName": "Day, Matt",
    "UnitNumber": "1011",
    "BuildingNumber": 1.0,
    "Address": "41 Salvado Drive",
    "City": "Pacific Pines",
    "Region": "Qld",
    "PostalCode": "4211",
    "Longitude": 153.314467,
    "Latitude": -27.935554
  },
  {
    "TenantName": "Brown, Olivia",
    "UnitNumber": "2131",
    "BuildingNumber": 1.0,
    "Address": "2/8 Fortune Street",
    "City": "Coomera",
    "Region": "QLD",
    "PostalCode": "4209",
    "Longitude": 153.317538,
    "Latitude": -27.873903
  },
  {
    "TenantName": "Bargery, Steven",
    "UnitNumber": "3052",
    "BuildingNumber": 1.0,
    "Address": "12 Willunga Street",
    "City": "Pacific Pines",
    "Region": "Qld",
    "PostalCode": "4211",
    "Longitude": 153.302705,
    "Latitude": -27.948556
  },
  {
    "TenantName": "Dietrich, Dominik",
    "UnitNumber": "2074",
    "BuildingNumber": 1.0,
    "Address": "2/18 Atlantic Avenue",
    "City": "Mermaid Beach",
    "Region": "Qld",
    "PostalCode": "4218",
    "Longitude": 153.433085,
    "Latitude": -28.044414
  },
  {
    "TenantName": "Nolan, Megan",
    "UnitNumber": "1060",
    "BuildingNumber": 1.0,
    "Address": "105 Tiger Drive",
    "City": "ARUNDEL",
    "Region": "Queensland",
    "PostalCode": "4214",
    "Longitude": 153.355106,
    "Latitude": -27.933247
  },
  {
    "TenantName": "Matryoshka, Angel",
    "UnitNumber": "1001",
    "BuildingNumber": 1.0,
    "Address": "73 Rivina Cct",
    "City": "Coomera",
    "Region": "Qld",
    "PostalCode": "4209",
    "Longitude": 153.32351,
    "Latitude": -27.845366
  },
  {
    "TenantName": "Bowering, Ross",
    "UnitNumber": "2029",
    "BuildingNumber": 1.0,
    "Address": "74 Graywillow Blvd",
    "City": "Oxenford",
    "Region": "QLD",
    "PostalCode": "4210",
    "Longitude": 153.293248,
    "Latitude": -27.893626
  },
  {
    "TenantName": "Halley, Kathleen",
    "UnitNumber": "2053",
    "BuildingNumber": 1.0,
    "Address": "PO Box 8",
    "City": "Isle of Capri",
    "Region": "QLD",
    "PostalCode": "4218",
    "Longitude": 144.344826,
    "Latitude": -38.242853
  },
  {
    "TenantName": "Reid, Justin",
    "UnitNumber": "2121",
    "BuildingNumber": 1.0,
    "Address": "8 Condamine Crescent",
    "City": "Helensvale",
    "Region": "QLD",
    "PostalCode": "4212",
    "Longitude": 153.328311,
    "Latitude": -27.884635
  },
  {
    "TenantName": "Peers, Sharon",
    "UnitNumber": "2103",
    "BuildingNumber": 1.0,
    "Address": "19 Mussau St",
    "City": "Pacific Pines",
    "Region": "QLD",
    "PostalCode": "4211",
    "Longitude": 153.324592,
    "Latitude": -27.937983
  },
  {
    "TenantName": "Francis, Michael",
    "UnitNumber": "1008",
    "BuildingNumber": 1.0,
    "Address": "U26D 150 The Esplanade",
    "City": "Surfers Paradise",
    "Region": "QLD",
    "PostalCode": "4217",
    "Longitude": 153.429723,
    "Latitude": -27.99245
  },
  {
    "TenantName": "Sheppeard, Sandra",
    "UnitNumber": "2134",
    "BuildingNumber": 1.0,
    "Address": "9 Columbine Way",
    "City": "Gaven",
    "Region": "Qld",
    "PostalCode": "4211",
    "Longitude": 153.336561,
    "Latitude": -27.956129
  },
  {
    "TenantName": "Clarke, Tony",
    "UnitNumber": "1076",
    "BuildingNumber": 1.0,
    "Address": "25 Mt Bilinga Crct",
    "City": "Bilambil Heights",
    "Region": "NSW",
    "PostalCode": "2486",
    "Longitude": 153.492325,
    "Latitude": -28.202904
  },
  {
    "TenantName": "Heiler, Lynnie",
    "UnitNumber": "2050",
    "BuildingNumber": 1.0,
    "Address": "49 Sheffield Circ",
    "City": "Pacific Pines",
    "Region": "QLD",
    "PostalCode": "4211",
    "Longitude": 153.323585,
    "Latitude": -27.943104
  },
  {
    "TenantName": "Sing, Heather",
    "UnitNumber": "2000",
    "BuildingNumber": 1.0,
    "Address": "Big Yard Rd",
    "City": "Moonbah",
    "Region": "NSW",
    "PostalCode": "4305",
    "Longitude": 148.51703,
    "Latitude": -36.49607
  },
  {
    "TenantName": "Momoh, Paul",
    "UnitNumber": "2108",
    "BuildingNumber": 1.0,
    "Address": "17/141 Pacific Pines Blvd",
    "City": "Pacific Pines",
    "Region": "Qld",
    "PostalCode": "4211",
    "Longitude": 153.326772,
    "Latitude": -27.933191
  },
  {
    "TenantName": "Hannam, Jade",
    "UnitNumber": "2083",
    "BuildingNumber": 1.0,
    "Address": "57/31 Archipelago St",
    "City": "Pacific Pines",
    "Region": "QLD",
    "PostalCode": "4211",
    "Longitude": 153.320313,
    "Latitude": -27.944633
  },
  {
    "TenantName": "Mansbridge, Fiona",
    "UnitNumber": "2167",
    "BuildingNumber": 1.0,
    "Address": "27/1 McAuley Parade",
    "City": "Pacific Pines",
    "Region": "QLD",
    "PostalCode": "4211",
    "Longitude": 153.302339,
    "Latitude": -27.940518
  },
  {
    "TenantName": "Stepney, Sandra",
    "UnitNumber": "2069",
    "BuildingNumber": 1.0,
    "Address": "60 Ridgeway Ave",
    "City": "Southport",
    "Region": "Qld",
    "PostalCode": "4215",
    "Longitude": 153.405902,
    "Latitude": -27.983003
  },
  {
    "TenantName": "Russell, Suzanne",
    "UnitNumber": "2058",
    "BuildingNumber": 1.0,
    "Address": "6 Ainsworth St",
    "City": "Pacific Pines",
    "Region": "Qld",
    "PostalCode": "4211",
    "Longitude": 153.312949,
    "Latitude": -27.94072
  },
  {
    "TenantName": "Harper, Steve",
    "UnitNumber": "3113",
    "BuildingNumber": 1.0,
    "Address": "3 Ozone Parade",
    "City": "Miami",
    "Region": "Qld",
    "PostalCode": "4220",
    "Longitude": 153.434444,
    "Latitude": -28.064263
  },
  {
    "TenantName": "Cross, Renee",
    "UnitNumber": "2008",
    "BuildingNumber": 1.0,
    "Address": "38 Carner Court",
    "City": "Parkwood",
    "Region": "Queensland",
    "PostalCode": "4216",
    "Longitude": 153.361304,
    "Latitude": -27.962082
  },
  {
    "TenantName": "Fish, Ian",
    "UnitNumber": "2078",
    "BuildingNumber": 1.0,
    "Address": "37 Hoop Pine Circuit",
    "City": "Maudsland",
    "Region": "QLD",
    "PostalCode": "4210",
    "Longitude": 153.29407,
    "Latitude": -27.933393
  },
  {
    "TenantName": "Deicke, Laurie",
    "UnitNumber": "3004",
    "BuildingNumber": 1.0,
    "Address": "Unit 38/15 Yaun Street",
    "City": "Coomera",
    "Region": "QLD",
    "PostalCode": "4209",
    "Longitude": 153.317844,
    "Latitude": -27.871824
  },
  {
    "TenantName": "Wallace, Wayne",
    "UnitNumber": "2130",
    "BuildingNumber": 1.0,
    "Address": "79 Lindfield Road",
    "City": "Helensvale",
    "Region": "Qld",
    "PostalCode": "4212",
    "Longitude": 153.330158,
    "Latitude": -27.92239
  },
  {
    "TenantName": "Johnson, Michael",
    "UnitNumber": "2002",
    "BuildingNumber": 1.0,
    "Address": "135-137 Sierra Drive",
    "City": "Tamborine Mountain",
    "Region": "Qld",
    "PostalCode": "4272",
    "Longitude": 153.169952,
    "Latitude": -27.916859
  },
  {
    "TenantName": "Dunsmore, Chris",
    "UnitNumber": "2151",
    "BuildingNumber": 1.0,
    "Address": "4 Saipan Way",
    "City": "Pacific Pines",
    "Region": "QLD",
    "PostalCode": "4211",
    "Longitude": 153.326846,
    "Latitude": -27.934904
  },
  {
    "TenantName": "Adamson, David",
    "UnitNumber": "2003",
    "BuildingNumber": 1.0,
    "Address": "2828 Gracemere Street East",
    "City": "Hope Island",
    "Region": "Qld",
    "PostalCode": "4212",
    "Longitude": 153.343458,
    "Latitude": -27.868869
  },
  {
    "TenantName": "McCallion, Roy",
    "UnitNumber": "2098",
    "BuildingNumber": 1.0,
    "Address": "4 Gilpin Court  Heritage Gardens",
    "City": "Upper Coomera",
    "Region": "Qld",
    "PostalCode": "4209",
    "Longitude": 153.283326,
    "Latitude": -27.896807
  },
  {
    "TenantName": "Iliffe, John",
    "UnitNumber": "3056",
    "BuildingNumber": 1.0,
    "Address": "1 Skyvine crt",
    "City": "Upper Coomera",
    "Region": "QLD",
    "PostalCode": "4209",
    "Longitude": 153.298486,
    "Latitude": -27.840754
  },
  {
    "TenantName": "Elswyk, Steven",
    "UnitNumber": "2109",
    "BuildingNumber": 1.0,
    "Address": "27A Lenton St",
    "City": "Coomera",
    "Region": "QLD",
    "PostalCode": "4209",
    "Longitude": 153.333895,
    "Latitude": -27.84918
  },
  {
    "TenantName": "Fahy, Kirstin",
    "UnitNumber": "L10",
    "BuildingNumber": 1.0,
    "Address": "Level 13, 50 Cavill Avenue",
    "City": "Surfers Paradise",
    "Region": "QLD",
    "PostalCode": "4217",
    "Longitude": 153.426696,
    "Latitude": -28.002076
  },
  {
    "TenantName": "Power, Anna",
    "UnitNumber": "3054",
    "BuildingNumber": 1.0,
    "Address": "1/85 Greenacre Drive",
    "City": "Parkwood",
    "Region": "QLD",
    "PostalCode": "4211",
    "Longitude": 153.348816,
    "Latitude": -27.9533
  },
  {
    "TenantName": "Wastney, Dianna",
    "UnitNumber": "2007",
    "BuildingNumber": 1.0,
    "Address": "9 Pinedale Street",
    "City": "Oxenford",
    "Region": "QLD",
    "PostalCode": "4210",
    "Longitude": 153.30525,
    "Latitude": -27.916004
  },
  {
    "TenantName": "Helms, Kate",
    "UnitNumber": "2075",
    "BuildingNumber": 1.0,
    "Address": "26 Stolle Court",
    "City": "Oxenford",
    "Region": "Qld",
    "PostalCode": "4210",
    "Longitude": 153.303914,
    "Latitude": -27.904692
  },
  {
    "TenantName": "Smith, Tahlia",
    "UnitNumber": "3130",
    "BuildingNumber": 1.0,
    "Address": "378 Tamborine Oxenford Rd",
    "City": "Upper Coomera",
    "Region": "Qld",
    "PostalCode": "4209",
    "Longitude": 153.289411,
    "Latitude": -27.901094
  },
  {
    "TenantName": "Salmond, Tracey",
    "UnitNumber": "3174",
    "BuildingNumber": 1.0,
    "Address": "15 Mona Court",
    "City": "Oxenford",
    "Region": "Qld",
    "PostalCode": "4210",
    "Longitude": 153.309246,
    "Latitude": -27.920473
  },
  {
    "TenantName": "Harper, Steve",
    "UnitNumber": "3108",
    "BuildingNumber": 1.0,
    "Address": "3 Ozone Parade",
    "City": "Miami",
    "Region": "Qld",
    "PostalCode": "4220",
    "Longitude": 153.434444,
    "Latitude": -28.064263
  },
  {
    "TenantName": "Simm, Paul",
    "UnitNumber": "1000",
    "BuildingNumber": 1.0,
    "Address": "19 Cockburn Street",
    "City": "Valla Beach",
    "Region": "NSW",
    "PostalCode": "2448",
    "Longitude": 153.008987,
    "Latitude": -30.587818
  },
  {
    "TenantName": "Jansson, Emma",
    "UnitNumber": "2085",
    "BuildingNumber": 1.0,
    "Address": "12 David Street",
    "City": "Upper Coomera",
    "Region": "QLD",
    "PostalCode": "4209",
    "Longitude": 153.286868,
    "Latitude": -27.903114
  },
  {
    "TenantName": "Sharp, Harrison",
    "UnitNumber": "3063",
    "BuildingNumber": 1.0,
    "Address": "17 Whitely Circuit",
    "City": "Maudsland",
    "Region": "QLD",
    "PostalCode": "4210",
    "Longitude": 153.29927,
    "Latitude": -27.934326
  },
  {
    "TenantName": "Saward, Craig",
    "UnitNumber": "1070",
    "BuildingNumber": 1.0,
    "Address": "1 Pitcairn Way",
    "City": "Pacific Pines",
    "Region": "QLD",
    "PostalCode": "4211",
    "Longitude": 153.324296,
    "Latitude": -27.94561
  },
  {
    "TenantName": "McMahon, Caitlin",
    "UnitNumber": "3023",
    "BuildingNumber": 1.0,
    "Address": "53 Newheath Drive",
    "City": "Arundel",
    "Region": "QLD",
    "PostalCode": "4214",
    "Longitude": 153.342831,
    "Latitude": -27.947707
  },
  {
    "TenantName": "Schulz, Nathan",
    "UnitNumber": "3058",
    "BuildingNumber": 1.0,
    "Address": "10/11 Vine Court",
    "City": "Oxenford",
    "Region": "Qld",
    "PostalCode": "4210",
    "Longitude": 153.317826,
    "Latitude": -27.921345
  },
  {
    "TenantName": "Du, Andy",
    "UnitNumber": "2099",
    "BuildingNumber": 1.0,
    "Address": "56/1 Norris Street",
    "City": "Pacific Pines",
    "Region": "Qld",
    "PostalCode": "4211",
    "Longitude": 153.306307,
    "Latitude": -27.925612
  },
  {
    "TenantName": "Johnson, Heather",
    "UnitNumber": "2118",
    "BuildingNumber": 1.0,
    "Address": "47 Helensvale Rd",
    "City": "Helensvale",
    "Region": "QLD",
    "PostalCode": "4212",
    "Longitude": 153.322035,
    "Latitude": -27.898776
  },
  {
    "TenantName": "Thomas, Vaughan",
    "UnitNumber": "3067",
    "BuildingNumber": 1.0,
    "Address": "3 Fawn Street",
    "City": "Upper Coomera",
    "Region": "Qld",
    "PostalCode": "4209",
    "Longitude": 153.304881,
    "Latitude": -27.87379
  },
  {
    "TenantName": "Chatfield, Carla",
    "UnitNumber": "3066",
    "BuildingNumber": 1.0,
    "Address": "9 Velox Cct",
    "City": "Upper Coomera",
    "Region": "Qld",
    "PostalCode": "4209",
    "Longitude": 153.2848,
    "Latitude": -27.853556
  },
  {
    "TenantName": "Reynolds, Anthony",
    "UnitNumber": "2119",
    "BuildingNumber": 1.0,
    "Address": "7 Freya Circuit",
    "City": "Coomera",
    "Region": "Queensland",
    "PostalCode": "4209",
    "Longitude": 153.356592,
    "Latitude": -27.838966
  },
  {
    "TenantName": "Patel, Sameer",
    "UnitNumber": "3170",
    "BuildingNumber": 1.0,
    "Address": "49 Emerald Drive",
    "City": "Helensvale",
    "Region": "Qld",
    "PostalCode": "4212",
    "Longitude": 153.343391,
    "Latitude": -27.935383
  },
  {
    "TenantName": "Huxford, Chrissy",
    "UnitNumber": "2035",
    "BuildingNumber": 1.0,
    "Address": "11 Tennant Street",
    "City": "Pacific Pines",
    "Region": "QLD",
    "PostalCode": "4211",
    "Longitude": 153.306672,
    "Latitude": -27.929354
  },
  {
    "TenantName": "Howard, Cindy",
    "UnitNumber": "1050",
    "BuildingNumber": 1.0,
    "Address": "19 Eastpark Drive",
    "City": "Helensvale",
    "Region": "Qld",
    "PostalCode": "4212",
    "Longitude": 153.348204,
    "Latitude": -27.884341
  },
  {
    "TenantName": "Lobegeiger, Lester",
    "UnitNumber": "2063",
    "BuildingNumber": 1.0,
    "Address": "11 Burrinjuck Drive",
    "City": "Coombabah",
    "Region": "Qld",
    "PostalCode": "4216",
    "Longitude": 153.379753,
    "Latitude": -27.897963
  },
  {
    "TenantName": "Kittel, Dana",
    "UnitNumber": "2068",
    "BuildingNumber": 1.0,
    "Address": "1263/58 Hope St",
    "City": "South Brisbane",
    "Region": "Qld",
    "PostalCode": "4101",
    "Longitude": 153.016248,
    "Latitude": -27.472762
  },
  {
    "TenantName": "Martin, Miria",
    "UnitNumber": "3122",
    "BuildingNumber": 1.0,
    "Address": "58 Kingston Drive, North Reception",
    "City": "Helensvale",
    "Region": "Qld",
    "PostalCode": "4212",
    "Longitude": 153.338866,
    "Latitude": -27.940008
  },
  {
    "TenantName": "Edwards, Michelle",
    "UnitNumber": "3053",
    "BuildingNumber": 1.0,
    "Address": "1a Dewberry Way",
    "City": "Gaven",
    "Region": "Qld",
    "PostalCode": "4211",
    "Longitude": 153.333721,
    "Latitude": -27.956184
  },
  {
    "TenantName": "Stephan, Rebecca",
    "UnitNumber": "2032",
    "BuildingNumber": 1.0,
    "Address": "171 Monterey Keys Drive",
    "City": "Helensvale",
    "Region": "QLD",
    "PostalCode": "4212",
    "Longitude": 153.337465,
    "Latitude": -27.891691
  },
  {
    "TenantName": "McMahon, Angela",
    "UnitNumber": "3051",
    "BuildingNumber": 1.0,
    "Address": "8 Crocus Way",
    "City": "Gaven",
    "Region": "Qld",
    "PostalCode": "4211",
    "Longitude": 153.32923,
    "Latitude": -27.952734
  },
  {
    "TenantName": "Searson, Cameron",
    "UnitNumber": "3055",
    "BuildingNumber": 1.0,
    "Address": "10 Arjuna Way",
    "City": "Gaven",
    "Region": "Qld",
    "PostalCode": "4211",
    "Longitude": 153.343299,
    "Latitude": -27.967447
  },
  {
    "TenantName": "Mcleay, Linda",
    "UnitNumber": "3021",
    "BuildingNumber": 1.0,
    "Address": "133 Riverstone Crossing",
    "City": "Maudsland",
    "Region": "Qld",
    "PostalCode": "4210",
    "Longitude": 153.272854,
    "Latitude": -27.911746
  },
  {
    "TenantName": "Dale, Jason",
    "UnitNumber": "3020",
    "BuildingNumber": 1.0,
    "Address": "10 Diamantina Circuit",
    "City": "Pacific Pines",
    "Region": "QLD",
    "PostalCode": "4211",
    "Longitude": 153.302558,
    "Latitude": -27.946328
  },
  {
    "TenantName": "Moore, Shane",
    "UnitNumber": "3032",
    "BuildingNumber": 1.0,
    "Address": "8 Buckingham Road",
    "City": "Maudsland",
    "Region": "Qld",
    "PostalCode": "4210",
    "Longitude": 153.288921,
    "Latitude": -27.919703
  },
  {
    "TenantName": "Fowell, Stacy",
    "UnitNumber": "3064",
    "BuildingNumber": 1.0,
    "Address": "15 Jeremy Street",
    "City": "Coomera",
    "Region": "Qld",
    "PostalCode": "4209",
    "Longitude": 153.34294,
    "Latitude": -27.836519
  },
  {
    "TenantName": "Ryan, Lee-Anne",
    "UnitNumber": "2115",
    "BuildingNumber": 1.0,
    "Address": "58 Carmen Court",
    "City": "Oxenford",
    "Region": "QLD",
    "PostalCode": "4210",
    "Longitude": 153.295355,
    "Latitude": -27.924287
  },
  {
    "TenantName": "Retallick, Natasha",
    "UnitNumber": "3039",
    "BuildingNumber": 1.0,
    "Address": "18 Huxley Court",
    "City": "Pacific Pines",
    "Region": "QLD",
    "PostalCode": "4211",
    "Longitude": 153.317371,
    "Latitude": -27.930295
  },
  {
    "TenantName": "Magick, Graham",
    "UnitNumber": "2049",
    "BuildingNumber": 1.0,
    "Address": "22 Peachey Road",
    "City": "Ormeau",
    "Region": "Qld",
    "PostalCode": "4208",
    "Longitude": 153.251642,
    "Latitude": -27.787092
  },
  {
    "TenantName": "Williams, Stephen",
    "UnitNumber": "2023",
    "BuildingNumber": 1.0,
    "Address": "10 Hawker Street",
    "City": "Pacific Pines",
    "Region": "Qld",
    "PostalCode": "4112",
    "Longitude": 153.308782,
    "Latitude": -27.925844
  },
  {
    "TenantName": "Heskins, Dawn",
    "UnitNumber": "3028",
    "BuildingNumber": 1.0,
    "Address": "131 Kinabalu Drive",
    "City": "Tamborine Mountain",
    "Region": "Qld",
    "PostalCode": "4272",
    "Longitude": 153.204054,
    "Latitude": -27.903733
  },
  {
    "TenantName": "Mocki, Jacek",
    "UnitNumber": "1018",
    "BuildingNumber": 1.0,
    "Address": "PO Box 3019",
    "City": "Helensvale Town Centre",
    "Region": "Qld",
    "PostalCode": "4212",
    "Longitude": 153.339389,
    "Latitude": -27.891731
  },
  {
    "TenantName": "Lord, John",
    "UnitNumber": "2005",
    "BuildingNumber": 1.0,
    "Address": "6 Pennant Crt",
    "City": "Upper Coomera",
    "Region": "Qld",
    "PostalCode": "4209",
    "Longitude": 153.298656,
    "Latitude": -27.856912
  },
  {
    "TenantName": "Wright, Matthew J",
    "UnitNumber": "3168",
    "BuildingNumber": 1.0,
    "Address": "13 Ainslie Street",
    "City": "Pacific Pines",
    "Region": "Qld",
    "PostalCode": "4211",
    "Longitude": 153.308516,
    "Latitude": -27.928367
  },
  {
    "TenantName": "Wall, Stuart",
    "UnitNumber": "2091",
    "BuildingNumber": 1.0,
    "Address": "13A Koola Drive",
    "City": "Nerang",
    "Region": "QLD",
    "PostalCode": "4211",
    "Longitude": 153.30412,
    "Latitude": -28.000967
  },
  {
    "TenantName": "Collins, Benjamin",
    "UnitNumber": "2039",
    "BuildingNumber": 1.0,
    "Address": "28 High Ridge Road",
    "City": "Gaven",
    "Region": "Qld",
    "PostalCode": "4211",
    "Longitude": 153.32833,
    "Latitude": -27.931775
  },
  {
    "TenantName": "Rosborough, James",
    "UnitNumber": "3167",
    "BuildingNumber": 1.0,
    "Address": "11 Lorinya Street",
    "City": "Mansfield",
    "Region": "Qld",
    "PostalCode": "4122",
    "Longitude": 153.095807,
    "Latitude": -27.541755
  },
  {
    "TenantName": "Phillips, Keira",
    "UnitNumber": "3172",
    "BuildingNumber": 1.0,
    "Address": "3 Pambula Court",
    "City": "Helensvale",
    "Region": "QLD",
    "PostalCode": "4212",
    "Longitude": 153.338941,
    "Latitude": -27.906366
  },
  {
    "TenantName": "Leckey, Megan A",
    "UnitNumber": "3030",
    "BuildingNumber": 1.0,
    "Address": "12 Perkins Lane",
    "City": "Southport",
    "Region": "QLD",
    "PostalCode": "4215",
    "Longitude": 153.388524,
    "Latitude": -27.960981
  },
  {
    "TenantName": "Caldwell, Clinton",
    "UnitNumber": "3164",
    "BuildingNumber": 1.0,
    "Address": "1/44 Citron Cres",
    "City": "Helensvale",
    "Region": "QLD",
    "PostalCode": "4212",
    "Longitude": 153.34238,
    "Latitude": -27.936887
  },
  {
    "TenantName": "Ashman, Andrew",
    "UnitNumber": "3027",
    "BuildingNumber": 1.0,
    "Address": "19 Bajada Place",
    "City": "Carrara",
    "Region": "QLD",
    "PostalCode": "4211",
    "Longitude": 153.351609,
    "Latitude": -28.011808
  },
  {
    "TenantName": "Rosborough, James",
    "UnitNumber": "3166",
    "BuildingNumber": 1.0,
    "Address": "11 Lorinya Street",
    "City": "Mansfield",
    "Region": "Qld",
    "PostalCode": "4122",
    "Longitude": 153.095807,
    "Latitude": -27.541755
  },
  {
    "TenantName": "Russell, Kenneth",
    "UnitNumber": "1004",
    "BuildingNumber": 1.0,
    "Address": "PO Box 69",
    "City": "Highett",
    "Region": "VIC",
    "PostalCode": "3190",
    "Longitude": 145.028158,
    "Latitude": -37.947114
  },
  {
    "TenantName": "Collins, Benjamin",
    "UnitNumber": "2173",
    "BuildingNumber": 1.0,
    "Address": "28 High Ridge Road",
    "City": "Gaven",
    "Region": "Qld",
    "PostalCode": "4211",
    "Longitude": 153.32833,
    "Latitude": -27.931775
  },
  {
    "TenantName": "Owen, David",
    "UnitNumber": "L06",
    "BuildingNumber": 1.0,
    "Address": "7 Layte Avenue",
    "City": "Palm Beach",
    "Region": "Qld",
    "PostalCode": "4221",
    "Longitude": 153.472164,
    "Latitude": -28.133061
  },
  {
    "TenantName": "Seran, Carmen",
    "UnitNumber": "2156",
    "BuildingNumber": 1.0,
    "Address": "39 Aspen Way",
    "City": "Arundel",
    "Region": "Qld",
    "PostalCode": "4214",
    "Longitude": 153.344274,
    "Latitude": -27.941982
  },
  {
    "TenantName": "Braddy, Sandi",
    "UnitNumber": "3150",
    "BuildingNumber": 1.0,
    "Address": "82 Castle Hill Drive South",
    "City": "Gaven",
    "Region": "Qld",
    "PostalCode": "4211",
    "Longitude": 153.332874,
    "Latitude": -27.963092
  },
  {
    "TenantName": "Copas, John",
    "UnitNumber": "2147",
    "BuildingNumber": 1.0,
    "Address": "11 Peony Way",
    "City": "Gaven",
    "Region": "Qld",
    "PostalCode": "4211",
    "Longitude": 153.339473,
    "Latitude": -27.957982
  },
  {
    "TenantName": "Woodhouse, Scott",
    "UnitNumber": "2089",
    "BuildingNumber": 1.0,
    "Address": "51 Buckingham Rd",
    "City": "Maudsland",
    "Region": "QLD",
    "PostalCode": "4210",
    "Longitude": 153.284311,
    "Latitude": -27.920796
  },
  {
    "TenantName": "Naran, Jason",
    "UnitNumber": "1086",
    "BuildingNumber": 1.0,
    "Address": "58 Kemp Street",
    "City": "Wellington",
    "Region": "NZ",
    "PostalCode": "6022",
    "Longitude": 152.834122,
    "Latitude": -31.066061
  },
  {
    "TenantName": "Muscat, Oden",
    "UnitNumber": "2135",
    "BuildingNumber": 1.0,
    "Address": "6/9 Bradford Street",
    "City": "Labrador",
    "Region": "Qld",
    "PostalCode": "4215",
    "Longitude": 153.407387,
    "Latitude": -27.950962
  },
  {
    "TenantName": "Matthews, Dylan",
    "UnitNumber": "3160",
    "BuildingNumber": 1.0,
    "Address": "22 Newheath Drive",
    "City": "Arundel",
    "Region": "Qld",
    "PostalCode": "4214",
    "Longitude": 153.342123,
    "Latitude": -27.942965
  },
  {
    "TenantName": "Phillips, Emma",
    "UnitNumber": "2171",
    "BuildingNumber": 1.0,
    "Address": "8 Navua Court",
    "City": "Pacific Pines",
    "Region": "Qld",
    "PostalCode": "4211",
    "Longitude": 153.330575,
    "Latitude": -27.943813
  },
  {
    "TenantName": "Dawson, Chloe",
    "UnitNumber": "2022",
    "BuildingNumber": 1.0,
    "Address": "14 Dorchester Close",
    "City": "Pimpama",
    "Region": "QLD",
    "PostalCode": "4209",
    "Longitude": 153.291104,
    "Latitude": -27.810599
  },
  {
    "TenantName": "Stothers, Fiona",
    "UnitNumber": "1069",
    "BuildingNumber": 1.0,
    "Address": "91-93 Glade Drive,",
    "City": "Gaven",
    "Region": "Qld",
    "PostalCode": "4211",
    "Longitude": 153.331305,
    "Latitude": -27.931734
  },
  {
    "TenantName": "Stothers, Fiona",
    "UnitNumber": "1069",
    "BuildingNumber": 1.0,
    "Address": "91-93 Glade Drive,",
    "City": "Gaven",
    "Region": "Qld",
    "PostalCode": "4211",
    "Longitude": 153.331305,
    "Latitude": -27.931734
  },
  {
    "TenantName": "Stothers, Fiona",
    "UnitNumber": "1069",
    "BuildingNumber": 1.0,
    "Address": "91-93 Glade Drive,",
    "City": "Gaven",
    "Region": "Qld",
    "PostalCode": "4211",
    "Longitude": 153.331305,
    "Latitude": -27.931734
  },
  {
    "TenantName": "Dobrota, Suzana",
    "UnitNumber": "3128",
    "BuildingNumber": 1.0,
    "Address": "Unit 40/74 Universal Street",
    "City": "Pacific Pines",
    "Region": "Qld",
    "PostalCode": "4211",
    "Longitude": 153.326772,
    "Latitude": -27.933191
  },
  {
    "TenantName": "Argeropoulos, Donna",
    "UnitNumber": "1087",
    "BuildingNumber": 1.0,
    "Address": "26 Davis Cup Court",
    "City": "Oxenford",
    "Region": "QLD",
    "PostalCode": "4210",
    "Longitude": 153.301668,
    "Latitude": -27.912901
  },
  {
    "TenantName": "White, Ashleigh",
    "UnitNumber": "3118",
    "BuildingNumber": 1.0,
    "Address": "47 Coolabah Cres",
    "City": "Varsity Lakes",
    "Region": "Qld",
    "PostalCode": "4227",
    "Longitude": 153.411152,
    "Latitude": -28.099131
  },
  {
    "TenantName": "Connor, Rachelle",
    "UnitNumber": "1098",
    "BuildingNumber": 1.0,
    "Address": "77/102 Alexander  Drive",
    "City": "Highland Park",
    "Region": "Qld",
    "PostalCode": "4211",
    "Longitude": 153.334475,
    "Latitude": -28.012535
  },
  {
    "TenantName": "Spethman, Donna",
    "UnitNumber": "2018",
    "BuildingNumber": 1.0,
    "Address": "108 Monterey Keys Drive",
    "City": "Helensvale",
    "Region": "Qld",
    "PostalCode": "4212",
    "Longitude": 153.338868,
    "Latitude": -27.88748
  },
  {
    "TenantName": "Ririnui, Danielle",
    "UnitNumber": "2014",
    "BuildingNumber": 1.0,
    "Address": "5707/2 Clarke Street",
    "City": "Southport",
    "Region": "Qld",
    "PostalCode": "4215",
    "Longitude": 153.388969,
    "Latitude": -27.96152
  },
  {
    "TenantName": "Kelly, Therese",
    "UnitNumber": "3152",
    "BuildingNumber": 1.0,
    "Address": "58/31 Archipelago Street",
    "City": "Pacific Pines",
    "Region": "Qld",
    "PostalCode": "4211",
    "Longitude": 153.320313,
    "Latitude": -27.944633
  },
  {
    "TenantName": "Beattie, Denise",
    "UnitNumber": "2015",
    "BuildingNumber": 1.0,
    "Address": "C/O Post Office Mandurama",
    "City": "Mandurama",
    "Region": "NSW",
    "PostalCode": "2792",
    "Longitude": 149.139625,
    "Latitude": -33.684155
  },
  {
    "TenantName": "Rowe, Sharney",
    "UnitNumber": "1085",
    "BuildingNumber": 1.0,
    "Address": "3 Pineneedle Court",
    "City": "Oxenford",
    "Region": "Qld",
    "PostalCode": "4210",
    "Longitude": 153.304904,
    "Latitude": -27.918145
  },
  {
    "TenantName": "Mudge, Clinton",
    "UnitNumber": "L31",
    "BuildingNumber": 1.0,
    "Address": "10 Fanning Court",
    "City": "Pacific Pines",
    "Region": "Qld",
    "PostalCode": "4211",
    "Longitude": 153.319521,
    "Latitude": -27.947368
  },
  {
    "TenantName": "Anderson, Darrin",
    "UnitNumber": "1079",
    "BuildingNumber": 1.0,
    "Address": "5 Nipa Crt",
    "City": "Tamborine Mountain",
    "Region": "Qld",
    "PostalCode": "4272",
    "Longitude": 153.200629,
    "Latitude": -27.904974
  },
  {
    "TenantName": "Temu, Sharleen",
    "UnitNumber": "3084",
    "BuildingNumber": 1.0,
    "Address": "12/19 Harrow Place",
    "City": "Arundel",
    "Region": "Qld",
    "PostalCode": "4214",
    "Longitude": 153.356135,
    "Latitude": -27.926081
  },
  {
    "TenantName": "Gibney, Jolanda",
    "UnitNumber": "1042",
    "BuildingNumber": 1.0,
    "Address": "142 Tarata Rd",
    "City": "Guanaba",
    "Region": "Qld",
    "PostalCode": "4210",
    "Longitude": 153.255962,
    "Latitude": -27.929417
  },
  {
    "TenantName": "Gianuca, Juliana",
    "UnitNumber": "L29",
    "BuildingNumber": 1.0,
    "Address": "5/210 Scarborough St",
    "City": "Southport",
    "Region": "Qld",
    "PostalCode": "4215",
    "Longitude": 153.413039,
    "Latitude": -27.965857
  },
  {
    "TenantName": "Clark, Tim",
    "UnitNumber": "2067",
    "BuildingNumber": 1.0,
    "Address": "172 Ring Road",
    "City": "Ballarat",
    "Region": "Vic",
    "PostalCode": "3355",
    "Longitude": 143.803606,
    "Latitude": -37.532017
  },
  {
    "TenantName": "Rasmos-retara, Raz",
    "UnitNumber": "2030",
    "BuildingNumber": 1.0,
    "Address": "Unit 30 170 High Street",
    "City": "Southport",
    "Region": "Qld",
    "PostalCode": "4215",
    "Longitude": 153.407532,
    "Latitude": -27.959916
  },
  {
    "TenantName": "Thripp, Terrence",
    "UnitNumber": "3011",
    "BuildingNumber": 1.0,
    "Address": "41/181 Lae Drive",
    "City": "Coombabah",
    "Region": "Qld",
    "PostalCode": "4216",
    "Longitude": 153.391151,
    "Latitude": -27.912306
  },
  {
    "TenantName": "Sciacca, Joseph",
    "UnitNumber": "1031",
    "BuildingNumber": 1.0,
    "Address": "24 Stanfield Drive",
    "City": "Upper Coomera",
    "Region": "Qld",
    "PostalCode": "4209",
    "Longitude": 153.281584,
    "Latitude": -27.899167
  },
  {
    "TenantName": "Paterson, Brett",
    "UnitNumber": "2077",
    "BuildingNumber": 1.0,
    "Address": "8 Range Crt",
    "City": "Arundel",
    "Region": "Qld",
    "PostalCode": "4214",
    "Longitude": 153.376791,
    "Latitude": -27.94381
  },
  {
    "TenantName": "Hawley, Karla",
    "UnitNumber": "2163",
    "BuildingNumber": 1.0,
    "Address": "21 Convery Cres",
    "City": "Highland Park",
    "Region": "Qld",
    "PostalCode": "4211",
    "Longitude": 153.343401,
    "Latitude": -28.019323
  },
  {
    "TenantName": "Nooteboom, Andrew",
    "UnitNumber": "2124",
    "BuildingNumber": 1.0,
    "Address": "2/6 Bogart Court",
    "City": "Oxenford",
    "Region": "Qld",
    "PostalCode": "4210",
    "Longitude": 153.321318,
    "Latitude": -27.921373
  },
  {
    "TenantName": "Hamilton, Rodney",
    "UnitNumber": "3124",
    "BuildingNumber": 1.0,
    "Address": "9 Yamba Street",
    "City": "Pacific Pines",
    "Region": "Qld",
    "PostalCode": "4211",
    "Longitude": 153.312972,
    "Latitude": -27.940425
  },
  {
    "TenantName": "Rauwhero-Stephens, Jaedyn",
    "UnitNumber": "3158",
    "BuildingNumber": 1.0,
    "Address": "78 Aldgate Crescent",
    "City": "Pacific Pines",
    "Region": "Qld",
    "PostalCode": "4211",
    "Longitude": 153.306244,
    "Latitude": -27.954245
  },
  {
    "TenantName": "Edwards, Alison",
    "UnitNumber": "1051",
    "BuildingNumber": 1.0,
    "Address": "12 Spearmint Street",
    "City": "The Ponds",
    "Region": "NSW",
    "PostalCode": "2769",
    "Longitude": 150.909406,
    "Latitude": -33.698121
  },
  {
    "TenantName": "Gallop, Melissa",
    "UnitNumber": "1078",
    "BuildingNumber": 1.0,
    "Address": "1/34 Elliot Street",
    "City": "Surfers Paradise",
    "Region": "Qld",
    "PostalCode": "4217",
    "Longitude": 153.416624,
    "Latitude": -28.01136
  },
  {
    "TenantName": "Casino, Mitchell",
    "UnitNumber": "2145",
    "BuildingNumber": 1.0,
    "Address": "48 Victoria Drive",
    "City": "Pacific Pines",
    "Region": "Qld",
    "PostalCode": "4211",
    "Longitude": 153.313713,
    "Latitude": -27.929665
  },
  {
    "TenantName": "Seefeld, Kristian",
    "UnitNumber": "3022",
    "BuildingNumber": 1.0,
    "Address": "1/14 Parkridge Drive",
    "City": "Molendinar",
    "Region": "Qld",
    "PostalCode": "4214",
    "Longitude": 153.34311,
    "Latitude": -27.983367
  },
  {
    "TenantName": "Cremen, Timothy",
    "UnitNumber": "1089",
    "BuildingNumber": 1.0,
    "Address": "44 Rivermill Terrace",
    "City": "Mausland",
    "Region": "Qld",
    "PostalCode": "4210",
    "Longitude": 153.276447,
    "Latitude": -27.911618
  },
  {
    "TenantName": "Webster, Anthony",
    "UnitNumber": "1059",
    "BuildingNumber": 1.0,
    "Address": "Unit 1302/111 Lindfield Road",
    "City": "Helensvale",
    "Region": "Qld",
    "PostalCode": "4210",
    "Longitude": 153.329581,
    "Latitude": -27.918882
  },
  {
    "TenantName": "Graham, Genine",
    "UnitNumber": "2072",
    "BuildingNumber": 1.0,
    "Address": "2 Papara Street",
    "City": "Pacific Pines",
    "Region": "Qld",
    "PostalCode": "4211",
    "Longitude": 153.327275,
    "Latitude": -27.934646
  },
  {
    "TenantName": "Forrester, Bardi",
    "UnitNumber": "3045",
    "BuildingNumber": 1.0,
    "Address": "PO Box 3392",
    "City": "South Brisbane",
    "Region": "Qld",
    "PostalCode": "4101",
    "Longitude": 153.02153,
    "Latitude": -27.482359
  },
  {
    "TenantName": "Brauer, Lacey",
    "UnitNumber": "2172",
    "BuildingNumber": 1.0,
    "Address": "66 Cobb & Co Drive",
    "City": "Oxenford",
    "Region": "Qld",
    "PostalCode": "4210",
    "Longitude": 153.288845,
    "Latitude": -27.917747
  },
  {
    "TenantName": "Cottle, Craig",
    "UnitNumber": "1014",
    "BuildingNumber": 1.0,
    "Address": "16 Dolphin Street",
    "City": "Deception Bay",
    "Region": "Qld",
    "PostalCode": "4508",
    "Longitude": 153.031569,
    "Latitude": -27.197275
  },
  {
    "TenantName": "Park, Tiana",
    "UnitNumber": "3156",
    "BuildingNumber": 1.0,
    "Address": "2/161 Muir Street",
    "City": "Labrador",
    "Region": "Qld",
    "PostalCode": "4215",
    "Longitude": 153.405546,
    "Latitude": -27.94833
  },
  {
    "TenantName": "Merrin, Andrew",
    "UnitNumber": "2009",
    "BuildingNumber": 1.0,
    "Address": "53/601 Pineridge Road",
    "City": "Biggera Waters",
    "Region": "Qld",
    "PostalCode": "4216",
    "Longitude": 138.558088,
    "Latitude": -35.065751
  },
  {
    "TenantName": "Kuhnel, Sam",
    "UnitNumber": "3007",
    "BuildingNumber": 1.0,
    "Address": "11-15 Rangeview Court",
    "City": "Boyland",
    "Region": "Qld",
    "PostalCode": "4275",
    "Longitude": 153.160993,
    "Latitude": -27.940569
  },
  {
    "TenantName": "Marriott, Britt",
    "UnitNumber": "3013",
    "BuildingNumber": 1.0,
    "Address": "2D/5 Mount Street",
    "City": "Nerang",
    "Region": "Qld",
    "PostalCode": "4211",
    "Longitude": 153.341179,
    "Latitude": -27.994277
  },
  {
    "TenantName": "Wastney, Charley",
    "UnitNumber": "3000",
    "BuildingNumber": 1.0,
    "Address": "9 Pinedale Street",
    "City": "Oxenford",
    "Region": "Qld",
    "PostalCode": "4210",
    "Longitude": 153.30525,
    "Latitude": -27.916004
  },
  {
    "TenantName": "Nottage, Georgina",
    "UnitNumber": "3119",
    "BuildingNumber": 1.0,
    "Address": "51 Sun Valley Court",
    "City": "Guanaba",
    "Region": "Qld",
    "PostalCode": "4210",
    "Longitude": 153.249219,
    "Latitude": -27.922249
  },
  {
    "TenantName": "Seeto, Sean",
    "UnitNumber": "3121",
    "BuildingNumber": 1.0,
    "Address": "Unit 33/21 Leviathan Drive",
    "City": "Mudgeeraba",
    "Region": "Qld",
    "PostalCode": "4213",
    "Longitude": 153.383639,
    "Latitude": -28.087062
  },
  {
    "TenantName": "Seeto, Sean",
    "UnitNumber": "3121",
    "BuildingNumber": 1.0,
    "Address": "Unit 33/21 Leviathan Drive",
    "City": "Mudgeeraba",
    "Region": "Qld",
    "PostalCode": "4213",
    "Longitude": 153.383639,
    "Latitude": -28.087062
  },
  {
    "TenantName": "Seeto, Sean",
    "UnitNumber": "3121",
    "BuildingNumber": 1.0,
    "Address": "Unit 33/21 Leviathan Drive",
    "City": "Mudgeeraba",
    "Region": "Qld",
    "PostalCode": "4213",
    "Longitude": 153.383639,
    "Latitude": -28.087062
  },
  {
    "TenantName": "Hansen, Vicky",
    "UnitNumber": "1040",
    "BuildingNumber": 1.0,
    "Address": "10 McCrae Court",
    "City": "Maudsland",
    "Region": "QLD",
    "PostalCode": "4210",
    "Longitude": 153.298754,
    "Latitude": -27.928353
  },
  {
    "TenantName": "Shepherd, Matt",
    "UnitNumber": "2016",
    "BuildingNumber": 1.0,
    "Address": "6 Peony Way",
    "City": "Gaven",
    "Region": "Qld",
    "PostalCode": "4211",
    "Longitude": 153.338401,
    "Latitude": -27.956986
  },
  {
    "TenantName": "Phillips, Cassy",
    "UnitNumber": "1015",
    "BuildingNumber": 1.0,
    "Address": "1/8 Pirelli Street",
    "City": "Pacific Pines",
    "Region": "QLD",
    "PostalCode": "4211",
    "Longitude": 153.326772,
    "Latitude": -27.933191
  },
  {
    "TenantName": "Dickfos, Marilla",
    "UnitNumber": "2157",
    "BuildingNumber": 1.0,
    "Address": "3 Oakridge Place",
    "City": "Molendinar",
    "Region": "Qld",
    "PostalCode": "4214",
    "Longitude": 153.368555,
    "Latitude": -27.972169
  },
  {
    "TenantName": "Newton, Kate",
    "UnitNumber": "2125",
    "BuildingNumber": 1.0,
    "Address": "7 Suva Place",
    "City": "Pacific Pines",
    "Region": "Qld",
    "PostalCode": "4212",
    "Longitude": 153.329735,
    "Latitude": -27.937417
  },
  {
    "TenantName": "Connelly, Mitchell",
    "UnitNumber": "2034",
    "BuildingNumber": 1.0,
    "Address": "1306/2 Activa Way",
    "City": "Hope Island",
    "Region": "QLD",
    "PostalCode": "4212",
    "Longitude": 153.35082,
    "Latitude": -27.87238
  },
  {
    "TenantName": "Sutton, Lorraine",
    "UnitNumber": "2040",
    "BuildingNumber": 1.0,
    "Address": "7/4 Queens Parade",
    "City": "Newport",
    "Region": "NSW",
    "PostalCode": "2106",
    "Longitude": 151.311676,
    "Latitude": -33.659859
  },
  {
    "TenantName": "Norman, Chrissy",
    "UnitNumber": "2141",
    "BuildingNumber": 1.0,
    "Address": "Site 24",
    "City": "Carrara",
    "Region": "Qld",
    "PostalCode": "4211",
    "Longitude": 153.386462,
    "Latitude": -28.01622
  },
  {
    "TenantName": "Kristensen, Tobias",
    "UnitNumber": "2168",
    "BuildingNumber": 1.0,
    "Address": "123 Andrew Avenue",
    "City": "Tarragindi",
    "Region": "Qld",
    "PostalCode": "4121",
    "Longitude": 153.039704,
    "Latitude": -27.529323
  },
  {
    "TenantName": "Pirvics, Kathryn",
    "UnitNumber": "2136",
    "BuildingNumber": 1.0,
    "Address": "1/8 Oscar Court",
    "City": "Oxenford",
    "Region": "Qld",
    "PostalCode": "4210",
    "Longitude": 153.315145,
    "Latitude": -27.920314
  },
  {
    "TenantName": "Abi-Khattar, Dean",
    "UnitNumber": "1023",
    "BuildingNumber": 1.0,
    "Address": "2520 Gracemere Circuit Nth",
    "City": "Hope Island",
    "Region": "QLD",
    "PostalCode": "4212",
    "Longitude": 153.341671,
    "Latitude": -27.866148
  },
  {
    "TenantName": "Abi-Khattar, Dean",
    "UnitNumber": "1023",
    "BuildingNumber": 1.0,
    "Address": "2520 Gracemere Circuit Nth",
    "City": "Hope Island",
    "Region": "QLD",
    "PostalCode": "4212",
    "Longitude": 153.341671,
    "Latitude": -27.866148
  },
  {
    "TenantName": "Abi-Khattar, Dean",
    "UnitNumber": "1023",
    "BuildingNumber": 1.0,
    "Address": "2520 Gracemere Circuit Nth",
    "City": "Hope Island",
    "Region": "QLD",
    "PostalCode": "4212",
    "Longitude": 153.341671,
    "Latitude": -27.866148
  },
  {
    "TenantName": "Arreza, Andrew",
    "UnitNumber": "3147",
    "BuildingNumber": 1.0,
    "Address": "23 Allington Circuit",
    "City": "Maudsland",
    "Region": "Qld",
    "PostalCode": "4210",
    "Longitude": 153.291074,
    "Latitude": -27.921517
  },
  {
    "TenantName": "Wilkins, Glen",
    "UnitNumber": "3001",
    "BuildingNumber": 1.0,
    "Address": "21 Taske Rise",
    "City": "Pacific Pines",
    "Region": "Qld",
    "PostalCode": "4211",
    "Longitude": 153.310865,
    "Latitude": -27.932556
  },
  {
    "TenantName": "Somers, Peter",
    "UnitNumber": "2170",
    "BuildingNumber": 1.0,
    "Address": "3 Hemmen Drive",
    "City": "Gavin",
    "Region": "Qld",
    "PostalCode": "4211",
    "Longitude": 138.603054,
    "Latitude": -34.908545
  },
  {
    "TenantName": "Fletcher, Graham",
    "UnitNumber": "3080",
    "BuildingNumber": 1.0,
    "Address": "8 Lucas Place",
    "City": "Labrador",
    "Region": "Qld",
    "PostalCode": "4215",
    "Longitude": 153.386396,
    "Latitude": -27.947324
  },
  {
    "TenantName": "Armstrong, Jackie",
    "UnitNumber": "2100",
    "BuildingNumber": 1.0,
    "Address": "438 Maudsland Rd",
    "City": "Maudsland",
    "Region": "Qld",
    "PostalCode": "4210",
    "Longitude": 153.271917,
    "Latitude": -27.935644
  },
  {
    "TenantName": "Reeve, Jonathan",
    "UnitNumber": "1084",
    "BuildingNumber": 1.0,
    "Address": "9 Harriet lane",
    "City": "Oxenford",
    "Region": "QLD",
    "PostalCode": "4210",
    "Longitude": 153.298696,
    "Latitude": -27.923246
  },
  {
    "TenantName": "Bedford, Lorraine",
    "UnitNumber": "1103",
    "BuildingNumber": 1.0,
    "Address": "1054/1 The Cove Cres",
    "City": "Carrara",
    "Region": "Qld",
    "PostalCode": "4211",
    "Longitude": 153.380148,
    "Latitude": -28.023543
  },
  {
    "TenantName": "Helot, Joel",
    "UnitNumber": "2114",
    "BuildingNumber": 1.0,
    "Address": "41 Valley Mist Place",
    "City": "Maudsland",
    "Region": "Qld",
    "PostalCode": "4210",
    "Longitude": 153.267139,
    "Latitude": -27.907878
  },
  {
    "TenantName": "Baghurst, Gregory",
    "UnitNumber": "3091",
    "BuildingNumber": 1.0,
    "Address": "19 Arlene Park Terrace",
    "City": "Helensvale",
    "Region": "Qld",
    "PostalCode": "4212",
    "Longitude": 153.33675,
    "Latitude": -27.886552
  },
  {
    "TenantName": "Thompson, Ken",
    "UnitNumber": "1100",
    "BuildingNumber": 1.0,
    "Address": "576 Maudsland Road",
    "City": "Maudsland",
    "Region": "Qld",
    "PostalCode": "4210",
    "Longitude": 153.270082,
    "Latitude": -27.94726
  },
  {
    "TenantName": "Mabini, Cindy",
    "UnitNumber": "1002",
    "BuildingNumber": 1.0,
    "Address": "7 Sandor Crt",
    "City": "Upper Coomera",
    "Region": "Qld",
    "PostalCode": "4209",
    "Longitude": 153.30068,
    "Latitude": -27.866543
  },
  {
    "TenantName": "Day, Sharni",
    "UnitNumber": "3031",
    "BuildingNumber": 1.0,
    "Address": "9 Amazon Cct",
    "City": "Helensvale",
    "Region": "QLD",
    "PostalCode": "4212",
    "Longitude": 153.343875,
    "Latitude": -27.931339
  },
  {
    "TenantName": "Rogliano, Lolanda",
    "UnitNumber": "2013",
    "BuildingNumber": 1.0,
    "Address": "1/31 Bimberi Row",
    "City": "Pacific Pines",
    "Region": "Qld",
    "PostalCode": "4211",
    "Longitude": 153.304825,
    "Latitude": -27.943749
  },
  {
    "TenantName": "Wade, Danny",
    "UnitNumber": "3171",
    "BuildingNumber": 1.0,
    "Address": "PO Box 1446",
    "City": "Runaway Bay",
    "Region": "Qld",
    "PostalCode": "4216",
    "Longitude": 153.405512,
    "Latitude": -27.910773
  },
  {
    "TenantName": "Batten, Cherrie",
    "UnitNumber": "1033",
    "BuildingNumber": 1.0,
    "Address": "14 Elimbah Street",
    "City": "Pacific Pines",
    "Region": "Qld",
    "PostalCode": "4211",
    "Longitude": 153.307904,
    "Latitude": -27.940955
  },
  {
    "TenantName": "Lewer, Rosemary",
    "UnitNumber": "1112",
    "BuildingNumber": 1.0,
    "Address": "4 Hosea Street",
    "City": "Southport",
    "Region": "Qld",
    "PostalCode": "4215",
    "Longitude": 153.398653,
    "Latitude": -27.987633
  },
  {
    "TenantName": "Burton, Dennis",
    "UnitNumber": "2120",
    "BuildingNumber": 1.0,
    "Address": "2/16 Inga Avenue",
    "City": "Surfers Paradise",
    "Region": "Qld",
    "PostalCode": "4217",
    "Longitude": 153.41481,
    "Latitude": -28.00464
  },
  {
    "TenantName": "Pantic, Jaran",
    "UnitNumber": "2048",
    "BuildingNumber": 1.0,
    "Address": "133 Harrier Drive",
    "City": "Burleigh Waters",
    "Region": "Qld",
    "PostalCode": "4220",
    "Longitude": 153.432338,
    "Latitude": -28.093881
  },
  {
    "TenantName": "Murray, Scott",
    "UnitNumber": "1047",
    "BuildingNumber": 1.0,
    "Address": "U505/2 East Quay Drive",
    "City": "Biggera Waters",
    "Region": "Qld",
    "PostalCode": "4216",
    "Longitude": 153.384873,
    "Latitude": -27.928088
  },
  {
    "TenantName": "Doering, Jordan",
    "UnitNumber": "2149",
    "BuildingNumber": 1.0,
    "Address": "1 Yerradhang Street",
    "City": "Ngunnawal",
    "Region": "ACT",
    "PostalCode": "2913",
    "Longitude": 149.103323,
    "Latitude": -35.165101
  },
  {
    "TenantName": "Ayres, Elizabeth",
    "UnitNumber": "2021",
    "BuildingNumber": 1.0,
    "Address": "27/73 Nerang Street",
    "City": "Nerang",
    "Region": "Qld",
    "PostalCode": "4211",
    "Longitude": 153.337464,
    "Latitude": -27.990363
  },
  {
    "TenantName": "Bennison, Nathan",
    "UnitNumber": "2132",
    "BuildingNumber": 1.0,
    "Address": "5 Captain Hope Ave",
    "City": "Maudsland",
    "Region": "Qld",
    "PostalCode": "4210",
    "Longitude": 153.276598,
    "Latitude": -27.910278
  },
  {
    "TenantName": "Azzopardi, Richard",
    "UnitNumber": "3114",
    "BuildingNumber": 1.0,
    "Address": "11 Malekula Rise",
    "City": "Pacific Pines",
    "Region": "Qld",
    "PostalCode": "4211",
    "Longitude": 153.325415,
    "Latitude": -27.932548
  },
  {
    "TenantName": "Raharuhi, Deijon",
    "UnitNumber": "2128",
    "BuildingNumber": 1.0,
    "Address": "11 Desert Crescent",
    "City": "Parkwood",
    "Region": "Qld",
    "PostalCode": "4214",
    "Longitude": 153.372032,
    "Latitude": -27.959148
  },
  {
    "TenantName": "Miskell, Telia",
    "UnitNumber": "L30",
    "BuildingNumber": 1.0,
    "Address": "8C 2 Riverview Parade",
    "City": "Surfers Paradise",
    "Region": "Qld",
    "PostalCode": "4217",
    "Longitude": 153.426184,
    "Latitude": -27.998158
  },
  {
    "TenantName": "Miskell, Telia",
    "UnitNumber": "L30",
    "BuildingNumber": 1.0,
    "Address": "8C 2 Riverview Parade",
    "City": "Surfers Paradise",
    "Region": "Qld",
    "PostalCode": "4217",
    "Longitude": 153.426184,
    "Latitude": -27.998158
  },
  {
    "TenantName": "Miskell, Telia",
    "UnitNumber": "L30",
    "BuildingNumber": 1.0,
    "Address": "8C 2 Riverview Parade",
    "City": "Surfers Paradise",
    "Region": "Qld",
    "PostalCode": "4217",
    "Longitude": 153.426184,
    "Latitude": -27.998158
  },
  {
    "TenantName": "Griffiths, Alan",
    "UnitNumber": "2169",
    "BuildingNumber": 1.0,
    "Address": "26 Regatta Avenue",
    "City": "Oxenford",
    "Region": "Qld",
    "PostalCode": "4210",
    "Longitude": 153.304788,
    "Latitude": -27.887196
  },
  {
    "TenantName": "Jordan, Jeanette",
    "UnitNumber": "2001",
    "BuildingNumber": 1.0,
    "Address": "14 Millbrook Crescent",
    "City": "Pimpama",
    "Region": "Qld",
    "PostalCode": "4209",
    "Longitude": 153.313843,
    "Latitude": -27.829079
  },
  {
    "TenantName": "Selby, Rebekah",
    "UnitNumber": "2137",
    "BuildingNumber": 1.0,
    "Address": "54 Glenview Rd",
    "City": "Upper Coomera",
    "Region": "Qld",
    "PostalCode": "4209",
    "Longitude": 153.275362,
    "Latitude": -27.906146
  },
  {
    "TenantName": "Francis, Leisa",
    "UnitNumber": "1010",
    "BuildingNumber": 1.0,
    "Address": "12 Oxford Place",
    "City": "Arundel",
    "Region": "Qld",
    "PostalCode": "4214",
    "Longitude": 153.35667,
    "Latitude": -27.931833
  },
  {
    "TenantName": "McMaster, Ben",
    "UnitNumber": "1092",
    "BuildingNumber": 1.0,
    "Address": "59 Greenacre Drive",
    "City": "Parkwood",
    "Region": "Qld",
    "PostalCode": "4214",
    "Longitude": 153.351666,
    "Latitude": -27.956479
  },
  {
    "TenantName": "Toland, Connor",
    "UnitNumber": "L03",
    "BuildingNumber": 1.0,
    "Address": "5 Kendall Place",
    "City": "Helensvale",
    "Region": "QLD",
    "PostalCode": "4212",
    "Longitude": 153.337141,
    "Latitude": -27.909878
  },
  {
    "TenantName": "Wood, John",
    "UnitNumber": "3096",
    "BuildingNumber": 1.0,
    "Address": "7 Innisfail Rd",
    "City": "Highland Park",
    "Region": "Qld",
    "PostalCode": "4211",
    "Longitude": 153.321405,
    "Latitude": -28.007834
  },
  {
    "TenantName": "Weber, Rachel",
    "UnitNumber": "3040",
    "BuildingNumber": 1.0,
    "Address": "Unit 16, 14 Norris Street",
    "City": "Pacific Pines",
    "Region": "Qld",
    "PostalCode": "4211",
    "Longitude": 153.306978,
    "Latitude": -27.925159
  },
  {
    "TenantName": "Woods, Lynda",
    "UnitNumber": "2096",
    "BuildingNumber": 1.0,
    "Address": "207 Cotlew Street",
    "City": "Ashmore",
    "Region": "Qld",
    "PostalCode": "4214",
    "Longitude": 153.377377,
    "Latitude": -27.985243
  },
  {
    "TenantName": "McDonald, Jennie",
    "UnitNumber": "1062",
    "BuildingNumber": 1.0,
    "Address": "3/31 Ron Parkinson Cres",
    "City": "Corbould Park",
    "Region": "Qld",
    "PostalCode": "4551",
    "Longitude": 153.060823,
    "Latitude": -26.79559
  },
  {
    "TenantName": "Wilson, Jane",
    "UnitNumber": "2087",
    "BuildingNumber": 1.0,
    "Address": "45 Uplands Drive",
    "City": "Parkwood",
    "Region": "Qld",
    "PostalCode": "4214",
    "Longitude": 153.356718,
    "Latitude": -27.957446
  },
  {
    "TenantName": "Smith, Gordon",
    "UnitNumber": "3018",
    "BuildingNumber": 1.0,
    "Address": "8 Calypso Court",
    "City": "Oxenford",
    "Region": "Qld",
    "PostalCode": "4210",
    "Longitude": 153.289374,
    "Latitude": -27.915886
  },
  {
    "TenantName": "Fingerhut, Xanthia",
    "UnitNumber": "2046",
    "BuildingNumber": 1.0,
    "Address": "16 Saipan Way",
    "City": "Pacific Pines",
    "Region": "Qld",
    "PostalCode": "4211",
    "Longitude": 153.32716,
    "Latitude": -27.93608
  },
  {
    "TenantName": "Cook, David",
    "UnitNumber": "1046",
    "BuildingNumber": 1.0,
    "Address": "180 Heslop Road",
    "City": "Gaven",
    "Region": "Qld",
    "PostalCode": "4211",
    "Longitude": 153.335749,
    "Latitude": -27.938424
  },
  {
    "TenantName": "Botfield-mohr, Shelby",
    "UnitNumber": "3149",
    "BuildingNumber": 1.0,
    "Address": "4/125 Hansford Road",
    "City": "Coombabah",
    "Region": "Qld",
    "PostalCode": "4216",
    "Longitude": 153.381676,
    "Latitude": -27.899414
  },
  {
    "TenantName": "Johnson, Michael",
    "UnitNumber": "2126",
    "BuildingNumber": 1.0,
    "Address": "135-137 Sierra Drive",
    "City": "Tamborine Mountain",
    "Region": "Qld",
    "PostalCode": "4272",
    "Longitude": 153.169952,
    "Latitude": -27.916859
  },
  {
    "TenantName": "Chandra, Avinash",
    "UnitNumber": "3016",
    "BuildingNumber": 1.0,
    "Address": "250 Napper Road",
    "City": "Parkwood",
    "Region": "Qld",
    "PostalCode": "4214",
    "Longitude": 153.349553,
    "Latitude": -27.947852
  },
  {
    "TenantName": "Chandra, Avinash",
    "UnitNumber": "3016",
    "BuildingNumber": 1.0,
    "Address": "250 Napper Road",
    "City": "Parkwood",
    "Region": "Qld",
    "PostalCode": "4214",
    "Longitude": 153.349553,
    "Latitude": -27.947852
  },
  {
    "TenantName": "Chandra, Avinash",
    "UnitNumber": "3016",
    "BuildingNumber": 1.0,
    "Address": "250 Napper Road",
    "City": "Parkwood",
    "Region": "Qld",
    "PostalCode": "4214",
    "Longitude": 153.349553,
    "Latitude": -27.947852
  },
  {
    "TenantName": "Birmingham, Jay",
    "UnitNumber": "1102",
    "BuildingNumber": 1.0,
    "Address": "PO Box 49",
    "City": "Oxenford",
    "Region": "Qld",
    "PostalCode": "4210",
    "Longitude": 152.927922,
    "Latitude": -27.186665
  },
  {
    "TenantName": "Van Sleeuwen, Anthony",
    "UnitNumber": "3123",
    "BuildingNumber": 1.0,
    "Address": "PO Box 310",
    "City": "Paradise Point",
    "Region": "QLD",
    "PostalCode": "4212",
    "Longitude": 150.0632,
    "Latitude": -35.672754
  },
  {
    "TenantName": "Macdonald, Kathleen",
    "UnitNumber": "1037",
    "BuildingNumber": 1.0,
    "Address": "41 Carter Street",
    "City": "Pacific Pines",
    "Region": "Qld",
    "PostalCode": "4211",
    "Longitude": 153.315513,
    "Latitude": -27.948508
  },
  {
    "TenantName": "Carleton, Mikkaeli",
    "UnitNumber": "3090",
    "BuildingNumber": 1.0,
    "Address": "37 Canada Place",
    "City": "Arundel",
    "Region": "Qld",
    "PostalCode": "4214",
    "Longitude": 153.359373,
    "Latitude": -27.942615
  },
  {
    "TenantName": "Frederiksen, Lis-anna",
    "UnitNumber": "1066",
    "BuildingNumber": 1.0,
    "Address": "193/26 Goldmine Road",
    "City": "Ormeau",
    "Region": "Qld",
    "PostalCode": "4208",
    "Longitude": 153.262388,
    "Latitude": -27.766953
  },
  {
    "TenantName": "Yee, Ryan",
    "UnitNumber": "2081",
    "BuildingNumber": 1.0,
    "Address": "49 Millaroo Dr",
    "City": "Helensvale",
    "Region": "QLD",
    "PostalCode": "4212",
    "Longitude": 153.337764,
    "Latitude": -27.93262
  },
  {
    "TenantName": "Knowles, Melinda",
    "UnitNumber": "1063",
    "BuildingNumber": 1.0,
    "Address": "39 Lucille Ball Place",
    "City": "Parkwood",
    "Region": "Qld",
    "PostalCode": "4214",
    "Longitude": 153.355939,
    "Latitude": -27.955835
  },
  {
    "TenantName": "Fondas, Peter",
    "UnitNumber": "3148",
    "BuildingNumber": 1.0,
    "Address": "96-100 Minnie Street",
    "City": "Southport",
    "Region": "Qld",
    "PostalCode": "4215",
    "Longitude": 153.401452,
    "Latitude": -27.975417
  },
  {
    "TenantName": "Worth, Jessica",
    "UnitNumber": "1049",
    "BuildingNumber": 1.0,
    "Address": "12 Deeside Court",
    "City": "Spring Mountain",
    "Region": "Qld",
    "PostalCode": "430",
    "Longitude": 152.897781,
    "Latitude": -27.692852
  },
  {
    "TenantName": "McDonald, Callum",
    "UnitNumber": "2112",
    "BuildingNumber": 1.0,
    "Address": "16 Currawong Crescent",
    "City": "Upper Coomera",
    "Region": "Qld",
    "PostalCode": "4209",
    "Longitude": 153.291622,
    "Latitude": -27.869246
  },
  {
    "TenantName": "Ahmed, Murtaz",
    "UnitNumber": "L02",
    "BuildingNumber": 1.0,
    "Address": "7 Montville Place",
    "City": "Forest Lake",
    "Region": "Qld",
    "PostalCode": "4078",
    "Longitude": 152.972021,
    "Latitude": -27.633658
  },
  {
    "TenantName": "Sims, Ed",
    "UnitNumber": "3057",
    "BuildingNumber": 1.0,
    "Address": "PO Box 374",
    "City": "Helensvale",
    "Region": "Qld",
    "PostalCode": "4300",
    "Longitude": 153.339389,
    "Latitude": -27.891731
  },
  {
    "TenantName": "Apted, Barry",
    "UnitNumber": "3086",
    "BuildingNumber": 1.0,
    "Address": "4 Cadell Drive",
    "City": "Helensvale",
    "Region": "Qld",
    "PostalCode": "4214",
    "Longitude": 153.329317,
    "Latitude": -27.903158
  },
  {
    "TenantName": "Reinikka, Tia",
    "UnitNumber": "1081",
    "BuildingNumber": 1.0,
    "Address": "39/302 Christine Avenue",
    "City": "Varsity Lakes",
    "Region": "Qld",
    "PostalCode": "4227",
    "Longitude": 153.413368,
    "Latitude": -28.083959
  },
  {
    "TenantName": "Rudd, Bruce",
    "UnitNumber": "3036",
    "BuildingNumber": 1.0,
    "Address": "14 Glenridge Street",
    "City": "Upper Coomera",
    "Region": "Qld",
    "PostalCode": "4209",
    "Longitude": 153.296639,
    "Latitude": -27.860544
  },
  {
    "TenantName": "Olcorn, Ron",
    "UnitNumber": "3003",
    "BuildingNumber": 1.0,
    "Address": "32/91 Beattie Road",
    "City": "Coomera",
    "Region": "Qld",
    "PostalCode": "4209",
    "Longitude": 153.325734,
    "Latitude": -27.868189
  },
  {
    "TenantName": "Robertson, Chris",
    "UnitNumber": "3133",
    "BuildingNumber": 1.0,
    "Address": "2 Wilmot Place",
    "City": "Helensvale",
    "Region": "Qld",
    "PostalCode": "4212",
    "Longitude": 153.3349,
    "Latitude": -27.911259
  },
  {
    "TenantName": "Doherty, Jeff",
    "UnitNumber": "3169",
    "BuildingNumber": 1.0,
    "Address": "Unit 1 18-22 Taylor Street",
    "City": "Eagleby",
    "Region": "QLld",
    "PostalCode": "4207",
    "Longitude": 153.218812,
    "Latitude": -27.69781
  },
  {
    "TenantName": "Bretherton, Matthew",
    "UnitNumber": "3131",
    "BuildingNumber": 1.0,
    "Address": "47 Burrendong Road",
    "City": "Coombabah",
    "Region": "Qld",
    "PostalCode": "4216",
    "Longitude": 153.384449,
    "Latitude": -27.895469
  },
  {
    "TenantName": "Harper, Steve",
    "UnitNumber": "1048",
    "BuildingNumber": 1.0,
    "Address": "3 Ozone Parade",
    "City": "Miami",
    "Region": "Qld",
    "PostalCode": "4220",
    "Longitude": 153.434444,
    "Latitude": -28.064263
  },
  {
    "TenantName": "Calder, Lisa",
    "UnitNumber": "3015",
    "BuildingNumber": 1.0,
    "Address": "Unit 1/164 Alexander Drive",
    "City": "Highland Park",
    "Region": "Qld",
    "PostalCode": "4211",
    "Longitude": 153.334475,
    "Latitude": -28.012535
  },
  {
    "TenantName": "McDaniel, Craig",
    "UnitNumber": "2076",
    "BuildingNumber": 1.0,
    "Address": "283 Napper Road",
    "City": "Arundel",
    "Region": "Qld",
    "PostalCode": "4214",
    "Longitude": 153.355021,
    "Latitude": -27.945156
  },
  {
    "TenantName": "Fletcher, Lisa",
    "UnitNumber": "L18",
    "BuildingNumber": 1.0,
    "Address": "2 Reserve Road",
    "City": "Upper Coomera",
    "Region": "Qld",
    "PostalCode": "4210",
    "Longitude": 153.284502,
    "Latitude": -27.896699
  },
  {
    "TenantName": "Brown, Leasa",
    "UnitNumber": "3049",
    "BuildingNumber": 1.0,
    "Address": "127 Mildura Drive",
    "City": "Helensvale",
    "Region": "Qld",
    "PostalCode": "4212",
    "Longitude": 153.337971,
    "Latitude": -27.906894
  },
  {
    "TenantName": "Ngendo, Ruth",
    "UnitNumber": "2159",
    "BuildingNumber": 1.0,
    "Address": "66 Sickle Ave",
    "City": "Hope Island",
    "Region": "Qld",
    "PostalCode": "4212",
    "Longitude": 153.37455,
    "Latitude": -27.870453
  },
  {
    "TenantName": "Cook, David",
    "UnitNumber": "3024",
    "BuildingNumber": 1.0,
    "Address": "180 Heslop Road",
    "City": "Gaven",
    "Region": "Qld",
    "PostalCode": "4211",
    "Longitude": 153.335749,
    "Latitude": -27.938424
  },
  {
    "TenantName": "Cook, David",
    "UnitNumber": "3024",
    "BuildingNumber": 1.0,
    "Address": "180 Heslop Road",
    "City": "Gaven",
    "Region": "Qld",
    "PostalCode": "4211",
    "Longitude": 153.335749,
    "Latitude": -27.938424
  },
  {
    "TenantName": "Cook, David",
    "UnitNumber": "3024",
    "BuildingNumber": 1.0,
    "Address": "180 Heslop Road",
    "City": "Gaven",
    "Region": "Qld",
    "PostalCode": "4211",
    "Longitude": 153.335749,
    "Latitude": -27.938424
  },
  {
    "TenantName": "Gordon, Colan",
    "UnitNumber": "3048",
    "BuildingNumber": 1.0,
    "Address": "1/46 Beaucannon Circuit",
    "City": "Pacific Pines",
    "Region": "QLD",
    "PostalCode": "4210",
    "Longitude": 138.602858,
    "Latitude": -34.908655
  },
  {
    "TenantName": "Cook, David",
    "UnitNumber": "3104",
    "BuildingNumber": 1.0,
    "Address": "180 Heslop Road",
    "City": "Gaven",
    "Region": "Qld",
    "PostalCode": "4211",
    "Longitude": 153.335749,
    "Latitude": -27.938424
  },
  {
    "TenantName": "Baldwin, Lynn",
    "UnitNumber": "2006",
    "BuildingNumber": 1.0,
    "Address": "5/53 Hooker Blvd",
    "City": "Broadbeach",
    "Region": "Qld",
    "PostalCode": "4218",
    "Longitude": 153.418398,
    "Latitude": -28.035983
  },
  {
    "TenantName": "Kvikstad, Calvin",
    "UnitNumber": "1026",
    "BuildingNumber": 1.0,
    "Address": "25 Bignells Road",
    "City": "Mausland",
    "Region": "Qld",
    "PostalCode": "4210",
    "Longitude": 153.27359,
    "Latitude": -27.930308
  },
  {
    "TenantName": "Russell, Maree",
    "UnitNumber": "3145",
    "BuildingNumber": 1.0,
    "Address": "30 Nandi Terrace",
    "City": "Pacific Pines",
    "Region": "Qld",
    "PostalCode": "4211",
    "Longitude": 153.327472,
    "Latitude": -27.938939
  },
  {
    "TenantName": "Pirini, Neville",
    "UnitNumber": "2065",
    "BuildingNumber": 1.0,
    "Address": "29 Jayden Way",
    "City": "Coomera",
    "Region": "Qld",
    "PostalCode": "4209",
    "Longitude": 153.322874,
    "Latitude": -27.843816
  },
  {
    "TenantName": "Pearson, Scott",
    "UnitNumber": "3100",
    "BuildingNumber": 1.0,
    "Address": "44 Catchlove Street",
    "City": "Maudsland",
    "Region": "Qld",
    "PostalCode": "4210",
    "Longitude": 153.297772,
    "Latitude": -27.933633
  },
  {
    "TenantName": "Farrell, Deon",
    "UnitNumber": "2160",
    "BuildingNumber": 1.0,
    "Address": "22 Gawler Place",
    "City": "Upper Coomera",
    "Region": "QLD",
    "PostalCode": "4209",
    "Longitude": 153.28545,
    "Latitude": -27.899366
  },
  {
    "TenantName": "Fuller, Mitchell",
    "UnitNumber": "1072",
    "BuildingNumber": 1.0,
    "Address": "2505/5 Harbourside Ct",
    "City": "Biggera Waters",
    "Region": "Qld",
    "PostalCode": "4217",
    "Longitude": 153.391116,
    "Latitude": -27.931845
  },
  {
    "TenantName": "Blacksell, Soraya",
    "UnitNumber": "2122",
    "BuildingNumber": 1.0,
    "Address": "15 Armidale Crescent",
    "City": "Helensvale",
    "Region": "QLD",
    "PostalCode": "4212",
    "Longitude": 153.337493,
    "Latitude": -27.913751
  },
  {
    "TenantName": "Gray, Melanie",
    "UnitNumber": "3111",
    "BuildingNumber": 1.0,
    "Address": "4 Ragamuffin Drive West",
    "City": "Coomera Waters",
    "Region": "QLD",
    "PostalCode": "4209",
    "Longitude": 153.36002,
    "Latitude": -27.837884
  },
  {
    "TenantName": "Connery, Louise",
    "UnitNumber": "2146",
    "BuildingNumber": 1.0,
    "Address": "52/22 Montgomery Avenue",
    "City": "Main Beach",
    "Region": "Qld",
    "PostalCode": "4217",
    "Longitude": 153.426039,
    "Latitude": -27.975894
  },
  {
    "TenantName": "Mohotti, Nishan",
    "UnitNumber": "1005",
    "BuildingNumber": 1.0,
    "Address": "1 Atoll Court",
    "City": "Pacific Pines",
    "Region": "Qld",
    "PostalCode": "4211",
    "Longitude": 153.324177,
    "Latitude": -27.932605
  },
  {
    "TenantName": "Kellie, Olivia",
    "UnitNumber": "2127",
    "BuildingNumber": 1.0,
    "Address": "24/30 Inspiration Dr",
    "City": "Logan Village",
    "Region": "Qld",
    "PostalCode": "4207",
    "Longitude": 153.145748,
    "Latitude": -27.773838
  },
  {
    "TenantName": "Timiiti, Apia",
    "UnitNumber": "1024",
    "BuildingNumber": 1.0,
    "Address": "1/51 Macquarie Avenue",
    "City": "Molendinar",
    "Region": "Qld",
    "PostalCode": "4214",
    "Longitude": 153.365416,
    "Latitude": -27.977343
  },
  {
    "TenantName": "Andrews, Matt",
    "UnitNumber": "2061",
    "BuildingNumber": 1.0,
    "Address": "24 Bathhurst Crt",
    "City": "Helensvale",
    "Region": "Qld",
    "PostalCode": "4212",
    "Longitude": 153.325673,
    "Latitude": -27.912994
  },
  {
    "TenantName": "Badenoch, Glen",
    "UnitNumber": "1101",
    "BuildingNumber": 1.0,
    "Address": "8 Gellert Close",
    "City": "Maudsland",
    "Region": "Qld",
    "PostalCode": "4210",
    "Longitude": 153.294924,
    "Latitude": -27.93635
  },
  {
    "TenantName": "Badenoch, Glen",
    "UnitNumber": "1082",
    "BuildingNumber": 1.0,
    "Address": "8 Gellert Close",
    "City": "Maudsland",
    "Region": "Qld",
    "PostalCode": "4210",
    "Longitude": 153.294924,
    "Latitude": -27.93635
  },
  {
    "TenantName": "Asher, Elizabeth",
    "UnitNumber": "2024",
    "BuildingNumber": 1.0,
    "Address": "18 Pago Terrace",
    "City": "Pacific Pines",
    "Region": "Qld",
    "PostalCode": "4211",
    "Longitude": 153.322786,
    "Latitude": -27.935893
  },
  {
    "TenantName": "Sargent, Nick",
    "UnitNumber": "2152",
    "BuildingNumber": 1.0,
    "Address": "14 Mitaro Rise",
    "City": "Pacific Pines",
    "Region": "QLD",
    "PostalCode": "4211",
    "Longitude": 153.318901,
    "Latitude": -27.927973
  },
  {
    "TenantName": "Manuel, Steven",
    "UnitNumber": "2164",
    "BuildingNumber": 1.0,
    "Address": "24 Floyd Ct",
    "City": "Parkwood",
    "Region": "Qld",
    "PostalCode": "4214",
    "Longitude": 153.362841,
    "Latitude": -27.962362
  },
  {
    "TenantName": "Johnston, Suzy",
    "UnitNumber": "1038",
    "BuildingNumber": 1.0,
    "Address": "18 Henderson Rise",
    "City": "Pacific Pines",
    "Region": "Qld",
    "PostalCode": "4211",
    "Longitude": 153.31975,
    "Latitude": -27.937757
  },
  {
    "TenantName": "O'Hara, Julie",
    "UnitNumber": "3115",
    "BuildingNumber": 1.0,
    "Address": "72 Solomon Lane",
    "City": "Wongawallan",
    "Region": "Qld",
    "PostalCode": "4210",
    "Longitude": 153.247342,
    "Latitude": -27.870584
  },
  {
    "TenantName": "Viney, Kieren",
    "UnitNumber": "3165",
    "BuildingNumber": 1.0,
    "Address": "19 Paddy Place",
    "City": "Oxenford",
    "Region": "Qld",
    "PostalCode": "4210",
    "Longitude": 153.294124,
    "Latitude": -27.893968
  },
  {
    "TenantName": "Richards, Kerry",
    "UnitNumber": "3163",
    "BuildingNumber": 1.0,
    "Address": "2 Trigger Cove",
    "City": "Upper Coomera",
    "Region": "Qld",
    "PostalCode": "4209",
    "Longitude": 153.303563,
    "Latitude": -27.869508
  },
  {
    "TenantName": "Akhurst, Matt",
    "UnitNumber": "3157",
    "BuildingNumber": 1.0,
    "Address": "56 The Peninsula",
    "City": "Helensvale",
    "Region": "Qld",
    "PostalCode": "4212",
    "Longitude": 153.346723,
    "Latitude": -27.880902
  },
  {
    "TenantName": "Taylor, Sam",
    "UnitNumber": "2148",
    "BuildingNumber": 1.0,
    "Address": "53 Wildflower Cct",
    "City": "Upper Coomera",
    "Region": "QLD",
    "PostalCode": "4209",
    "Longitude": 153.282744,
    "Latitude": -27.885317
  },
  {
    "TenantName": "Ada, Ben",
    "UnitNumber": "2060",
    "BuildingNumber": 1.0,
    "Address": "16/1 Archipelago Street",
    "City": "Gold Coast",
    "Region": "Queensland",
    "PostalCode": "4211",
    "Longitude": 153.320313,
    "Latitude": -27.944633
  },
  {
    "TenantName": "Palfreyman, Craig",
    "UnitNumber": "1006",
    "BuildingNumber": 1.0,
    "Address": "PO Box 931",
    "City": "Sanctuary Cove",
    "Region": "Qld",
    "PostalCode": "4212",
    "Longitude": 153.352906,
    "Latitude": -27.859539
  },
  {
    "TenantName": "Mckechnie, Rhys",
    "UnitNumber": "2161",
    "BuildingNumber": 1.0,
    "Address": "433 Kamerunga Rd",
    "City": "Redlynch",
    "Region": "Qld",
    "PostalCode": "4870",
    "Longitude": 145.694369,
    "Latitude": -16.885599
  },
  {
    "TenantName": "Norton, Brad",
    "UnitNumber": "2064",
    "BuildingNumber": 1.0,
    "Address": "7 Gypsy Court",
    "City": "Cooloola Cove",
    "Region": "Qld",
    "PostalCode": "4585",
    "Longitude": 152.986728,
    "Latitude": -25.976297
  },
  {
    "TenantName": "Hodges, Joe",
    "UnitNumber": "2062",
    "BuildingNumber": 1.0,
    "Address": "28 Fletcher Crescent",
    "City": "Pacific Pines",
    "Region": "Qld",
    "PostalCode": "4211",
    "Longitude": 153.297661,
    "Latitude": -27.942681
  },
  {
    "TenantName": "Hansen, Vicky",
    "UnitNumber": "1032",
    "BuildingNumber": 1.0,
    "Address": "10 McCrae Court",
    "City": "Maudsland",
    "Region": "QLD",
    "PostalCode": "4210",
    "Longitude": 153.298754,
    "Latitude": -27.928353
  },
  {
    "TenantName": "Cranmer, Leonie",
    "UnitNumber": "2116",
    "BuildingNumber": 1.0,
    "Address": "10/1 Lake Serenity Boulevard",
    "City": "Helensvale",
    "Region": "Qld",
    "PostalCode": "4212",
    "Longitude": 153.368165,
    "Latitude": -27.890144
  },
  {
    "TenantName": "Larsen, Virginia",
    "UnitNumber": "2094",
    "BuildingNumber": 1.0,
    "Address": "36/3 Lee Road",
    "City": "Runaway Bay",
    "Region": "Qld",
    "PostalCode": "4216",
    "Longitude": 153.403427,
    "Latitude": -27.921817
  },
  {
    "TenantName": "Sibraa, Nick",
    "UnitNumber": "2093",
    "BuildingNumber": 1.0,
    "Address": "2/77 Victoria Dr",
    "City": "Pacific Pines",
    "Region": "QLD",
    "PostalCode": "4211",
    "Longitude": 153.312219,
    "Latitude": -27.928767
  },
  {
    "TenantName": "Kelly, Sokhon",
    "UnitNumber": "2033",
    "BuildingNumber": 1.0,
    "Address": "14 Mellum Cct",
    "City": "Pacific Pines",
    "Region": "QLD",
    "PostalCode": "4211",
    "Longitude": 153.309169,
    "Latitude": -27.942596
  },
  {
    "TenantName": "Queenan, Siobhan",
    "UnitNumber": "2019",
    "BuildingNumber": 1.0,
    "Address": "29 Cypress Cct",
    "City": "Coomera",
    "Region": "Qld",
    "PostalCode": "4209",
    "Longitude": 153.334588,
    "Latitude": -27.843849
  },
  {
    "TenantName": "Skeen, Kent",
    "UnitNumber": "2042",
    "BuildingNumber": 1.0,
    "Address": "1 County Close",
    "City": "Parkwood",
    "Region": "Qld",
    "PostalCode": "4214",
    "Longitude": 153.352165,
    "Latitude": -27.950437
  },
  {
    "TenantName": "Skeen, Natasha",
    "UnitNumber": "2088",
    "BuildingNumber": 1.0,
    "Address": "11 Buddah Street",
    "City": "Hope Island",
    "Region": "Qld",
    "PostalCode": "4212",
    "Longitude": 153.3533,
    "Latitude": -27.858404
  },
  {
    "TenantName": "Van Vliet, Anton",
    "UnitNumber": "3127",
    "BuildingNumber": 1.0,
    "Address": "20 Adaminaby Drive",
    "City": "Helensvale",
    "Region": "Qld",
    "PostalCode": "4212",
    "Longitude": 153.324135,
    "Latitude": -27.898401
  },
  {
    "TenantName": "Scott, Craig",
    "UnitNumber": "3103",
    "BuildingNumber": 1.0,
    "Address": "60 Graywillow Blvd",
    "City": "Oxenford",
    "Region": "Qld",
    "PostalCode": "4210",
    "Longitude": 153.29457,
    "Latitude": -27.89296
  },
  {
    "TenantName": "Chetty, Caroline",
    "UnitNumber": "2041",
    "BuildingNumber": 1.0,
    "Address": "11 Meadow Cct",
    "City": "Helensvale",
    "Region": "Qld",
    "PostalCode": "4212",
    "Longitude": 153.344349,
    "Latitude": -27.935915
  },
  {
    "TenantName": "Goold, Kenneth",
    "UnitNumber": "2011",
    "BuildingNumber": 1.0,
    "Address": "2 Kidman Street",
    "City": "Robina",
    "Region": "Qld",
    "PostalCode": "4226",
    "Longitude": 153.390175,
    "Latitude": -28.073812
  },
  {
    "TenantName": "Lopez, Julian",
    "UnitNumber": "2142",
    "BuildingNumber": 1.0,
    "Address": "9 Wellers Street",
    "City": "Pacific Pines",
    "Region": "QLD",
    "PostalCode": "4211",
    "Longitude": 153.309006,
    "Latitude": -27.93076
  },
  {
    "TenantName": "Lovedale, Corayne",
    "UnitNumber": "L05",
    "BuildingNumber": 1.0,
    "Address": "35 Motteram ave",
    "City": "Claremont",
    "Region": "WA",
    "PostalCode": "6010",
    "Longitude": 115.78205,
    "Latitude": -31.975626
  },
  {
    "TenantName": "Wrigley, Peter",
    "UnitNumber": "1113",
    "BuildingNumber": 1.0,
    "Address": "55/28 Fortune Street",
    "City": "Coomera",
    "Region": "Qld",
    "PostalCode": "4209",
    "Longitude": 153.317538,
    "Latitude": -27.873903
  },
  {
    "TenantName": "Noble, Chelsea",
    "UnitNumber": "1022",
    "BuildingNumber": 1.0,
    "Address": "15 Buchanan Circuit",
    "City": "Oxenford",
    "Region": "Qld",
    "PostalCode": "4210",
    "Longitude": 153.305476,
    "Latitude": -27.924128
  },
  {
    "TenantName": "Borton, Suzanne",
    "UnitNumber": "2139",
    "BuildingNumber": 1.0,
    "Address": "13 Hibiscus Cres",
    "City": "Maudsland",
    "Region": "Qld",
    "PostalCode": "4210",
    "Longitude": 153.26686,
    "Latitude": -27.911828
  },
  {
    "TenantName": "Watts, Kaye",
    "UnitNumber": "2026",
    "BuildingNumber": 1.0,
    "Address": "11 San Cristobal Place",
    "City": "Pacific Pines",
    "Region": "Qld",
    "PostalCode": "4211",
    "Longitude": 153.323726,
    "Latitude": -27.930081
  },
  {
    "TenantName": "Sambain, Cassandra",
    "UnitNumber": "2054",
    "BuildingNumber": 1.0,
    "Address": "2 St Raphael Court",
    "City": "Sorrento",
    "Region": "Qld",
    "PostalCode": "4217",
    "Longitude": 153.404178,
    "Latitude": -28.025947
  },
  {
    "TenantName": "Egan, Emma",
    "UnitNumber": "2166",
    "BuildingNumber": 1.0,
    "Address": "7688 Fairway Blvd",
    "City": "Hope Island",
    "Region": "Qld",
    "PostalCode": "4212",
    "Longitude": 153.356036,
    "Latitude": -27.876728
  },
  {
    "TenantName": "Cook, David",
    "UnitNumber": "1034",
    "BuildingNumber": 1.0,
    "Address": "180 Heslop Road",
    "City": "Gaven",
    "Region": "Qld",
    "PostalCode": "4211",
    "Longitude": 153.335749,
    "Latitude": -27.938424
  },
  {
    "TenantName": "Raffaele, Marc",
    "UnitNumber": "1065",
    "BuildingNumber": 1.0,
    "Address": "14 Antipodes Close",
    "City": "PACIFIC PINES",
    "Region": "QLD",
    "PostalCode": "4211",
    "Longitude": 153.328154,
    "Latitude": -27.943577
  },
  {
    "TenantName": "Rasheed, Shazly",
    "UnitNumber": "1105",
    "BuildingNumber": 1.0,
    "Address": "Unit 502/15-17 Cannes Avenue",
    "City": "Surfers Paradise",
    "Region": "QLD",
    "PostalCode": "4217",
    "Longitude": 153.427849,
    "Latitude": -28.015915
  },
  {
    "TenantName": "Bell, Annika",
    "UnitNumber": "L07",
    "BuildingNumber": 1.0,
    "Address": "11 Treeline Avenue",
    "City": "Arundel",
    "Region": "QLD",
    "PostalCode": "4214",
    "Longitude": 153.347198,
    "Latitude": -27.942754
  },
  {
    "TenantName": "Dodds, Sharon",
    "UnitNumber": "3120",
    "BuildingNumber": 1.0,
    "Address": "27/73 Nerang Street",
    "City": "Nerang",
    "Region": "Qld",
    "PostalCode": "4211",
    "Longitude": 153.337464,
    "Latitude": -27.990363
  },
  {
    "TenantName": "Burgess, Chantelle",
    "UnitNumber": "2071",
    "BuildingNumber": 1.0,
    "Address": "12/2 Ghilgia Road",
    "City": "Merrimac",
    "Region": "Qld",
    "PostalCode": "4226",
    "Longitude": 153.368145,
    "Latitude": -28.049488
  },
  {
    "TenantName": "Keen, Darren",
    "UnitNumber": "1007",
    "BuildingNumber": 1.0,
    "Address": "3 Stockdale Street",
    "City": "Pacific Pines",
    "Region": "Qld",
    "PostalCode": "4211",
    "Longitude": 153.308399,
    "Latitude": -27.927913
  },
  {
    "TenantName": "Booth, Timothy",
    "UnitNumber": "2133",
    "BuildingNumber": 1.0,
    "Address": "11 Peacan Drive",
    "City": "Upper Coomera",
    "Region": "Qld",
    "PostalCode": "4209",
    "Longitude": 153.296635,
    "Latitude": -27.856643
  },
  {
    "TenantName": "Palmer, Stephen",
    "UnitNumber": "2017",
    "BuildingNumber": 1.0,
    "Address": "36 John Gollan Avenue",
    "City": "Harrington Waters",
    "Region": "NSW",
    "PostalCode": "2427",
    "Longitude": 152.657536,
    "Latitude": -31.884165
  },
  {
    "TenantName": "Cook, David",
    "UnitNumber": "1110",
    "BuildingNumber": 1.0,
    "Address": "180 Heslop Road",
    "City": "Gaven",
    "Region": "Qld",
    "PostalCode": "4211",
    "Longitude": 153.335749,
    "Latitude": -27.938424
  },
  {
    "TenantName": "Cook, David",
    "UnitNumber": "1110",
    "BuildingNumber": 1.0,
    "Address": "180 Heslop Road",
    "City": "Gaven",
    "Region": "Qld",
    "PostalCode": "4211",
    "Longitude": 153.335749,
    "Latitude": -27.938424
  },
  {
    "TenantName": "Cook, David",
    "UnitNumber": "1110",
    "BuildingNumber": 1.0,
    "Address": "180 Heslop Road",
    "City": "Gaven",
    "Region": "Qld",
    "PostalCode": "4211",
    "Longitude": 153.335749,
    "Latitude": -27.938424
  },
  {
    "TenantName": "Dellaway, Letitia",
    "UnitNumber": "3033",
    "BuildingNumber": 1.0,
    "Address": "PO Box 552",
    "City": "Helensvale",
    "Region": "Qld",
    "PostalCode": "4212",
    "Longitude": 153.339389,
    "Latitude": -27.891731
  },
  {
    "TenantName": "Turner, Jarrod",
    "UnitNumber": "3081",
    "BuildingNumber": 1.0,
    "Address": "8 Jacob Court",
    "City": "Upper Coomera",
    "Region": "Qld",
    "PostalCode": "4209",
    "Longitude": 153.295896,
    "Latitude": -27.864737
  },
  {
    "TenantName": "Turner, Jarrod",
    "UnitNumber": "3082",
    "BuildingNumber": 1.0,
    "Address": "8 Jacob Court",
    "City": "Upper Coomera",
    "Region": "Qld",
    "PostalCode": "4209",
    "Longitude": 153.295896,
    "Latitude": -27.864737
  },
  {
    "TenantName": "Clark, Adam",
    "UnitNumber": "1061",
    "BuildingNumber": 1.0,
    "Address": "2 Riverbreeze Crescent",
    "City": "Maudsland",
    "Region": "Qld",
    "PostalCode": "4210",
    "Longitude": 153.271734,
    "Latitude": -27.913926
  },
  {
    "TenantName": "Strong, Samantha",
    "UnitNumber": "1016",
    "BuildingNumber": 1.0,
    "Address": "93 Paradise Parade",
    "City": "Jacobs well",
    "Region": "QLD",
    "PostalCode": "4208",
    "Longitude": 153.377413,
    "Latitude": -27.796949
  },
  {
    "TenantName": "Jain, Jainica",
    "UnitNumber": "2123",
    "BuildingNumber": 1.0,
    "Address": "404/4 Como Crescent",
    "City": "Southport",
    "Region": "QLD",
    "PostalCode": "4215",
    "Longitude": 153.419087,
    "Latitude": -27.975396
  },
  {
    "TenantName": "Eddy, John",
    "UnitNumber": "2106",
    "BuildingNumber": 1.0,
    "Address": "Unit 1/57 Gannon Way",
    "City": "Upper Coomera",
    "Region": "Qld",
    "PostalCode": "4209",
    "Longitude": 153.291533,
    "Latitude": -27.864666
  },
  {
    "TenantName": "Stefanile, Jessica",
    "UnitNumber": "1096",
    "BuildingNumber": 1.0,
    "Address": "5/4 Milton Avenue paradise point",
    "City": "Paradise point",
    "Region": "QLD",
    "PostalCode": "4216",
    "Longitude": 138.616378,
    "Latitude": -34.858506
  },
  {
    "TenantName": "Presnell, Jeanene",
    "UnitNumber": "3094",
    "BuildingNumber": 1.0,
    "Address": "9 Fuchsia Way",
    "City": "Gaven",
    "Region": "Qld",
    "PostalCode": "4211",
    "Longitude": 153.332357,
    "Latitude": -27.950527
  },
  {
    "TenantName": "Hita-clowes, Josh",
    "UnitNumber": "3005",
    "BuildingNumber": 1.0,
    "Address": "11 Sheldon Court",
    "City": "Worongary",
    "Region": "Qld",
    "PostalCode": "4213",
    "Longitude": 153.34259,
    "Latitude": -28.025199
  },
  {
    "TenantName": "Eastman, Danielle",
    "UnitNumber": "2004",
    "BuildingNumber": 1.0,
    "Address": "3/14 Little Norman Street",
    "City": "Southport",
    "Region": "Qld",
    "PostalCode": "4215",
    "Longitude": 153.409933,
    "Latitude": -27.959508
  },
  {
    "TenantName": "Topalov, Patrick",
    "UnitNumber": "3116",
    "BuildingNumber": 1.0,
    "Address": "139 Scarborough St",
    "City": "Southport",
    "Region": "QLD",
    "PostalCode": "4215",
    "Longitude": 153.412347,
    "Latitude": -27.964242
  },
  {
    "TenantName": "Clayton, Jacqueline",
    "UnitNumber": "3044",
    "BuildingNumber": 1.0,
    "Address": "5 Lilac Way",
    "City": "Gaven",
    "Region": "Qld",
    "PostalCode": "4211",
    "Longitude": 153.338831,
    "Latitude": -27.950058
  },
  {
    "TenantName": "Carpenter, Steve",
    "UnitNumber": "3132",
    "BuildingNumber": 1.0,
    "Address": "2/16, Dewberry Way",
    "City": "Gaven",
    "Region": "QLD",
    "PostalCode": "4211",
    "Longitude": 153.335547,
    "Latitude": -27.957732
  },
  {
    "TenantName": "Kuo, Chiang-yu",
    "UnitNumber": "2158",
    "BuildingNumber": 1.0,
    "Address": "59 Midway Terrace",
    "City": "Pacific Pines",
    "Region": "Qld",
    "PostalCode": "4211",
    "Longitude": 153.320115,
    "Latitude": -27.935105
  },
  {
    "TenantName": "Cook, David",
    "UnitNumber": "2113",
    "BuildingNumber": 1.0,
    "Address": "180 Heslop Road",
    "City": "Gaven",
    "Region": "Qld",
    "PostalCode": "4211",
    "Longitude": 153.335749,
    "Latitude": -27.938424
  },
  {
    "TenantName": "Etherington, Georgina",
    "UnitNumber": "2028",
    "BuildingNumber": 1.0,
    "Address": "5 Rosella Court",
    "City": "Carrara",
    "Region": "Qld",
    "PostalCode": "4211",
    "Longitude": 153.353393,
    "Latitude": -28.013824
  },
  {
    "TenantName": "East, Grant",
    "UnitNumber": "3041",
    "BuildingNumber": 1.0,
    "Address": "74 Pacific pde",
    "City": "mount tamborine",
    "Region": "QLD",
    "PostalCode": "4276",
    "Longitude": 146.105392,
    "Latitude": -17.873397
  },
  {
    "TenantName": "Boulton, Lisa",
    "UnitNumber": "3139",
    "BuildingNumber": 1.0,
    "Address": "18 Monroe Court",
    "City": "Oxenford",
    "Region": "QLD",
    "PostalCode": "4210",
    "Longitude": 153.319185,
    "Latitude": -27.924134
  },
  {
    "TenantName": "Mcdonald, Daniel",
    "UnitNumber": "3025",
    "BuildingNumber": 1.0,
    "Address": "12 Affinity Boulevard",
    "City": "Morayfield",
    "Region": "QLD",
    "PostalCode": "4506",
    "Longitude": 152.937951,
    "Latitude": -27.131229
  },
  {
    "TenantName": "Adams, Monique",
    "UnitNumber": "3136",
    "BuildingNumber": 1.0,
    "Address": "23 California Drive",
    "City": "Oxenford",
    "Region": "Qld",
    "PostalCode": "4210",
    "Longitude": 153.309249,
    "Latitude": -27.903342
  },
  {
    "TenantName": "Dawson, Renee",
    "UnitNumber": "2102",
    "BuildingNumber": 1.0,
    "Address": "16 Tumbarumba Ave",
    "City": "Ashmore",
    "Region": "Qld",
    "PostalCode": "4214",
    "Longitude": 153.380467,
    "Latitude": -27.992002
  },
  {
    "TenantName": "Cevaal, Leah",
    "UnitNumber": "L04",
    "BuildingNumber": 1.0,
    "Address": "1117 Beachwood Drive",
    "City": "Hope Island",
    "Region": "Qld",
    "PostalCode": "4212",
    "Longitude": 153.347635,
    "Latitude": -27.861223
  },
  {
    "TenantName": "Nepia, Mel",
    "UnitNumber": "2105",
    "BuildingNumber": 1.0,
    "Address": "Unit 23, 20 Huth Street",
    "City": "Labrador",
    "Region": "Qld",
    "PostalCode": "4215",
    "Longitude": 153.405945,
    "Latitude": -27.954892
  },
  {
    "TenantName": "Picton-warlow, James",
    "UnitNumber": "3026",
    "BuildingNumber": 1.0,
    "Address": "19 Davies Street",
    "City": "Pacific Pines",
    "Region": "Qld",
    "PostalCode": "4211",
    "Longitude": 153.308205,
    "Latitude": -27.928292
  },
  {
    "TenantName": "Baker, Carolyn",
    "UnitNumber": "1071",
    "BuildingNumber": 1.0,
    "Address": "Shop 43/502 Hope Island Rd",
    "City": "Hope Island",
    "Region": "Qld",
    "PostalCode": "4212",
    "Longitude": 153.33759,
    "Latitude": -27.878691
  },
  {
    "TenantName": "Kielty, Sarah",
    "UnitNumber": "2174",
    "BuildingNumber": 1.0,
    "Address": "39 Galapagos Way",
    "City": "Pacific Pines",
    "Region": "QLD",
    "PostalCode": "4211",
    "Longitude": 153.332185,
    "Latitude": -27.941995
  },
  {
    "TenantName": "Stephen, Sue",
    "UnitNumber": "3038",
    "BuildingNumber": 1.0,
    "Address": "67 Kincaid Drive",
    "City": "Highland Park",
    "Region": "Qld",
    "PostalCode": "4211",
    "Longitude": 153.32935,
    "Latitude": -28.020837
  },
  {
    "TenantName": "West, Bradley",
    "UnitNumber": "1003",
    "BuildingNumber": 1.0,
    "Address": "26 Booth Avenue",
    "City": "Tannum Sands",
    "Region": "Qld",
    "PostalCode": "4680",
    "Longitude": 151.369821,
    "Latitude": -23.947323
  },
  {
    "TenantName": "Riseley, Denise",
    "UnitNumber": "2043",
    "BuildingNumber": 1.0,
    "Address": "3 Arundel Drive",
    "City": "Arundel",
    "Region": "Qld",
    "PostalCode": "4214",
    "Longitude": 153.364715,
    "Latitude": -27.942754
  },
  {
    "TenantName": "Cook, David",
    "UnitNumber": "3112",
    "BuildingNumber": 1.0,
    "Address": "180 Heslop Road",
    "City": "Gaven",
    "Region": "Qld",
    "PostalCode": "4211",
    "Longitude": 153.335749,
    "Latitude": -27.938424
  },
  {
    "TenantName": "Cook, David",
    "UnitNumber": "3112",
    "BuildingNumber": 1.0,
    "Address": "180 Heslop Road",
    "City": "Gaven",
    "Region": "Qld",
    "PostalCode": "4211",
    "Longitude": 153.335749,
    "Latitude": -27.938424
  },
  {
    "TenantName": "Cook, David",
    "UnitNumber": "3112",
    "BuildingNumber": 1.0,
    "Address": "180 Heslop Road",
    "City": "Gaven",
    "Region": "Qld",
    "PostalCode": "4211",
    "Longitude": 153.335749,
    "Latitude": -27.938424
  },
  {
    "TenantName": "Cook, David",
    "UnitNumber": "1107",
    "BuildingNumber": 1.0,
    "Address": "180 Heslop Road",
    "City": "Gaven",
    "Region": "Qld",
    "PostalCode": "4211",
    "Longitude": 153.335749,
    "Latitude": -27.938424
  },
  {
    "TenantName": "Hill, Jonathan",
    "UnitNumber": "3155",
    "BuildingNumber": 1.0,
    "Address": "Site 1/11 Connemara Road",
    "City": "Gaven",
    "Region": "Qld",
    "PostalCode": "4211",
    "Longitude": 153.33353,
    "Latitude": -27.937526
  },
  {
    "TenantName": "Tuomey, Michael",
    "UnitNumber": "2070",
    "BuildingNumber": 1.0,
    "Address": "20 Cossington Cct",
    "City": "Maudsland",
    "Region": "Qld",
    "PostalCode": "4210",
    "Longitude": 153.29987,
    "Latitude": -27.932145
  },
  {
    "TenantName": "Simons, Jamie",
    "UnitNumber": "1053",
    "BuildingNumber": 1.0,
    "Address": "804/18 Hanlan Street",
    "City": "Surfers Paradise",
    "Region": "QLD",
    "PostalCode": "4217",
    "Longitude": 153.430225,
    "Latitude": -28.003205
  },
  {
    "TenantName": "Gill, Patrick",
    "UnitNumber": "2052",
    "BuildingNumber": 1.0,
    "Address": "8 Wabag Close",
    "City": "Trinity Beach",
    "Region": "QLD",
    "PostalCode": "4879",
    "Longitude": 145.688649,
    "Latitude": -16.795281
  },
  {
    "TenantName": "Richmond, Katie",
    "UnitNumber": "2044",
    "BuildingNumber": 1.0,
    "Address": "28 Ioannou Place",
    "City": "Coomera",
    "Region": "Qld",
    "PostalCode": "4209",
    "Longitude": 153.344486,
    "Latitude": -27.837535
  },
  {
    "TenantName": "Forrester, Bardi",
    "UnitNumber": "3043",
    "BuildingNumber": 1.0,
    "Address": "PO Box 3392",
    "City": "South Brisbane",
    "Region": "Qld",
    "PostalCode": "4101",
    "Longitude": 153.02153,
    "Latitude": -27.482359
  },
  {
    "TenantName": "Harper, Steve",
    "UnitNumber": "1041",
    "BuildingNumber": 1.0,
    "Address": "3 Ozone Parade",
    "City": "Miami",
    "Region": "Qld",
    "PostalCode": "4220",
    "Longitude": 153.434444,
    "Latitude": -28.064263
  },
  {
    "TenantName": "Armitage-Young, Ruth",
    "UnitNumber": "1012",
    "BuildingNumber": 1.0,
    "Address": "30A Coomera Gorge Drive",
    "City": "Mt Tamborine",
    "Region": "Qld",
    "PostalCode": "4272",
    "Longitude": 153.216719,
    "Latitude": -27.971476
  },
  {
    "TenantName": "Kielty, Patrick",
    "UnitNumber": "2143",
    "BuildingNumber": 1.0,
    "Address": "39 Galapagos Way",
    "City": "Pacific Pines",
    "Region": "Qld",
    "PostalCode": "4211",
    "Longitude": 153.332185,
    "Latitude": -27.941995
  },
  {
    "TenantName": "Bayliss, Mark",
    "UnitNumber": "L01",
    "BuildingNumber": 1.0,
    "Address": "50/75 Brown Street",
    "City": "Labrador",
    "Region": "Qld",
    "PostalCode": "4215",
    "Longitude": 153.395298,
    "Latitude": -27.943846
  },
  {
    "TenantName": "Stephen, Sue",
    "UnitNumber": "3101",
    "BuildingNumber": 1.0,
    "Address": "67 Kincaid Drive",
    "City": "Highland Park",
    "Region": "Qld",
    "PostalCode": "4211",
    "Longitude": 153.32935,
    "Latitude": -28.020837
  },
  {
    "TenantName": "Reti, Amy",
    "UnitNumber": "1073",
    "BuildingNumber": 1.0,
    "Address": "11 Henry Cotton Dr",
    "City": "Parkwood",
    "Region": "QLD",
    "PostalCode": "4214",
    "Longitude": 153.364619,
    "Latitude": -27.961659
  },
  {
    "TenantName": "Schulze, Oliver",
    "UnitNumber": "1095",
    "BuildingNumber": 1.0,
    "Address": "6 Waterfront Lane",
    "City": "Hope Island",
    "Region": "QLD",
    "PostalCode": "4212",
    "Longitude": 153.356327,
    "Latitude": -27.869072
  },
  {
    "TenantName": "Burke, Kathryn",
    "UnitNumber": "1108",
    "BuildingNumber": 1.0,
    "Address": "Unit 801/59 O'Connell Street",
    "City": "Kangaroo Point",
    "Region": "Qld",
    "PostalCode": "4169",
    "Longitude": 153.038399,
    "Latitude": -27.474033
  },
  {
    "TenantName": "Poole, Georgina",
    "UnitNumber": "2027",
    "BuildingNumber": 1.0,
    "Address": "20 Mona Crt",
    "City": "Oxenford",
    "Region": "Qld",
    "PostalCode": "4210",
    "Longitude": 153.309537,
    "Latitude": -27.919897
  },
  {
    "TenantName": "De Cesco, Michael",
    "UnitNumber": "2012",
    "BuildingNumber": 1.0,
    "Address": "43A Boogard Place",
    "City": "Clagiraba",
    "Region": "Qld",
    "PostalCode": "4211",
    "Longitude": 153.237205,
    "Latitude": -27.965469
  },
  {
    "TenantName": "Mcleod, Kimberly",
    "UnitNumber": "3144",
    "BuildingNumber": 1.0,
    "Address": "1/66 Botanical Drive",
    "City": "Labrador",
    "Region": "QLD",
    "PostalCode": "4215",
    "Longitude": 153.387224,
    "Latitude": -27.952404
  },
  {
    "TenantName": "Matarrelli, Bruno",
    "UnitNumber": "3138",
    "BuildingNumber": 1.0,
    "Address": "59 Springwood Avenue",
    "City": "Pacific Pines",
    "Region": "QLD",
    "PostalCode": "4211",
    "Longitude": 153.304216,
    "Latitude": -27.941444
  },
  {
    "TenantName": "Castelyn, Eloise",
    "UnitNumber": "2086",
    "BuildingNumber": 1.0,
    "Address": "7 Somerset Court",
    "City": "Carina Heights",
    "Region": "QLD",
    "PostalCode": "4152",
    "Longitude": 153.097719,
    "Latitude": -27.511396
  },
  {
    "TenantName": "Taylor, Neville",
    "UnitNumber": "3143",
    "BuildingNumber": 1.0,
    "Address": "10 Chippewa Cct",
    "City": "Mudgeeraba",
    "Region": "Qld",
    "PostalCode": "4213",
    "Longitude": 153.355251,
    "Latitude": -28.080478
  },
  {
    "TenantName": "Thomas, Scott",
    "UnitNumber": "3059",
    "BuildingNumber": 1.0,
    "Address": "22 Sunrise Boulevard",
    "City": "Surfers Paradise",
    "Region": "Qld",
    "PostalCode": "4217",
    "Longitude": 153.420842,
    "Latitude": -28.004629
  },
  {
    "TenantName": "Ellis, Matthew",
    "UnitNumber": "3102",
    "BuildingNumber": 1.0,
    "Address": "5 Dallas Crt",
    "City": "Warragul",
    "Region": "VIC",
    "PostalCode": "3820",
    "Longitude": 145.950356,
    "Latitude": -38.145652
  },
  {
    "TenantName": "Phillips, Rita",
    "UnitNumber": "3117",
    "BuildingNumber": 1.0,
    "Address": "4955 St Andrews Terrace",
    "City": "Hope Island",
    "Region": "Qld",
    "PostalCode": "4212",
    "Longitude": 153.361865,
    "Latitude": -27.861378
  },
  {
    "TenantName": "Thomas, Rhiannon",
    "UnitNumber": "3129",
    "BuildingNumber": 1.0,
    "Address": "30 Lilac Tree Court",
    "City": "Beechmont",
    "Region": "Qld",
    "PostalCode": "4211",
    "Longitude": 153.193111,
    "Latitude": -28.123305
  },
  {
    "TenantName": "Flynn, Adam",
    "UnitNumber": "3135",
    "BuildingNumber": 1.0,
    "Address": "12 Canara Street",
    "City": "Benowa",
    "Region": "QLD",
    "PostalCode": "4217",
    "Longitude": 153.391232,
    "Latitude": -27.997407
  },
  {
    "TenantName": "Topalov, Patrick",
    "UnitNumber": "3110",
    "BuildingNumber": 1.0,
    "Address": "139 Scarborough St",
    "City": "Southport",
    "Region": "QLD",
    "PostalCode": "4215",
    "Longitude": 153.412347,
    "Latitude": -27.964242
  },
  {
    "TenantName": "Pereira, Mark",
    "UnitNumber": "3042",
    "BuildingNumber": 1.0,
    "Address": "26A Boogard Place",
    "City": "Clagiraba",
    "Region": "Qld",
    "PostalCode": "4211",
    "Longitude": 153.23581,
    "Latitude": -27.961366
  },
  {
    "TenantName": "Cook, David",
    "UnitNumber": "3093",
    "BuildingNumber": 1.0,
    "Address": "180 Heslop Road",
    "City": "Gaven",
    "Region": "Qld",
    "PostalCode": "4211",
    "Longitude": 153.335749,
    "Latitude": -27.938424
  },
  {
    "TenantName": "Gosling, Denise",
    "UnitNumber": "L13",
    "BuildingNumber": 1.0,
    "Address": "PO Box 877",
    "City": "Sanctuary Cove",
    "Region": "Qld",
    "PostalCode": "4212",
    "Longitude": 153.352906,
    "Latitude": -27.859539
  },
  {
    "TenantName": "Carter, Brett",
    "UnitNumber": "1019",
    "BuildingNumber": 1.0,
    "Address": "3 Morning Sun Court,",
    "City": "MAUDSLAND",
    "Region": "Qld",
    "PostalCode": "4210",
    "Longitude": 153.293963,
    "Latitude": -27.927743
  },
  {
    "TenantName": "Walczak, Amanda",
    "UnitNumber": "3075",
    "BuildingNumber": 1.0,
    "Address": "215/2007 Gold Coast Highway",
    "City": "Miami",
    "Region": "Qld",
    "PostalCode": "4208",
    "Longitude": 153.485355,
    "Latitude": -28.134505
  },
  {
    "TenantName": "Rigney, Peter",
    "UnitNumber": "1074",
    "BuildingNumber": 1.0,
    "Address": "20 Moorea Ct",
    "City": "Pacific Pines",
    "Region": "Qld",
    "PostalCode": "4211",
    "Longitude": 153.316285,
    "Latitude": -27.936625
  },
  {
    "TenantName": "Flynn, Adam",
    "UnitNumber": "3017",
    "BuildingNumber": 1.0,
    "Address": "12 Canara Street",
    "City": "Benowa",
    "Region": "QLD",
    "PostalCode": "4217",
    "Longitude": 153.391232,
    "Latitude": -27.997407
  },
  {
    "TenantName": "Stone, Peter",
    "UnitNumber": "L08",
    "BuildingNumber": 1.0,
    "Address": "C/- 1 Malouf Pl",
    "City": "Maudsland",
    "Region": "Qld",
    "PostalCode": "4210",
    "Longitude": 153.295517,
    "Latitude": -27.941378
  },
  {
    "TenantName": "Stone, Peter",
    "UnitNumber": "L17",
    "BuildingNumber": 1.0,
    "Address": "C/- 1 Malouf Pl",
    "City": "Maudsland",
    "Region": "Qld",
    "PostalCode": "4210",
    "Longitude": 153.295517,
    "Latitude": -27.941378
  },
  {
    "TenantName": "Hancock, Rohen",
    "UnitNumber": "2101",
    "BuildingNumber": 1.0,
    "Address": "7/60 Nerang Street",
    "City": "Nerang",
    "Region": "Qld",
    "PostalCode": "4211",
    "Longitude": 153.337464,
    "Latitude": -27.990363
  },
  {
    "TenantName": "Alzowaid, Ali",
    "UnitNumber": "1097",
    "BuildingNumber": 1.0,
    "Address": "22 Crest Road",
    "City": "Roxburgh Park",
    "Region": "Vic",
    "PostalCode": "3064",
    "Longitude": 151.664923,
    "Latitude": -30.498586
  },
  {
    "TenantName": "Price, Naomi",
    "UnitNumber": "3089",
    "BuildingNumber": 1.0,
    "Address": "2/1023 Gold Coast Highway",
    "City": "Palm Beach",
    "Region": "QLD",
    "PostalCode": "4221",
    "Longitude": 153.468797,
    "Latitude": -28.122618
  },
  {
    "TenantName": "Almalky, Adel",
    "UnitNumber": "2020",
    "BuildingNumber": 1.0,
    "Address": "Unit 12/90 Harris Street",
    "City": "Fairfield",
    "Region": "NSW",
    "PostalCode": "2165",
    "Longitude": 150.950704,
    "Latitude": -33.872118
  },
  {
    "TenantName": "Lark, Paul",
    "UnitNumber": "3010",
    "BuildingNumber": 1.0,
    "Address": "3 Elk Court",
    "City": "Upper Coomera",
    "Region": "Qld",
    "PostalCode": "4209",
    "Longitude": 153.305612,
    "Latitude": -27.87128
  },
  {
    "TenantName": "Cook, David",
    "UnitNumber": "1080",
    "BuildingNumber": 1.0,
    "Address": "180 Heslop Road",
    "City": "Gaven",
    "Region": "Qld",
    "PostalCode": "4211",
    "Longitude": 153.335749,
    "Latitude": -27.938424
  },
  {
    "TenantName": "Cook, David",
    "UnitNumber": "4047",
    "BuildingNumber": 2.0,
    "Address": "180 Heslop Road",
    "City": "Gaven",
    "Region": "Qld",
    "PostalCode": "4211",
    "Longitude": 153.335749,
    "Latitude": -27.938424
  },
  {
    "TenantName": "Lazaruk, Evgeny",
    "UnitNumber": "1075",
    "BuildingNumber": 1.0,
    "Address": "37 Broadwater St",
    "City": "Runaway Bay",
    "Region": "QLD",
    "PostalCode": "4216",
    "Longitude": 153.400783,
    "Latitude": -27.923096
  },
  {
    "TenantName": "Janthorn, Arnna",
    "UnitNumber": "4051",
    "BuildingNumber": 2.0,
    "Address": "9 Benalla Court",
    "City": "Parkwood",
    "Region": "Qld",
    "PostalCode": "4214",
    "Longitude": 153.356818,
    "Latitude": -27.946144
  },
  {
    "TenantName": "Keller, Carolanne",
    "UnitNumber": "4007",
    "BuildingNumber": 2.0,
    "Address": "61/19 Santa Barbara Rd",
    "City": "Hope island",
    "Region": "Qld",
    "PostalCode": "4212",
    "Longitude": 153.35074,
    "Latitude": -27.864511
  },
  {
    "TenantName": "Hulm, Michael",
    "UnitNumber": "4066",
    "BuildingNumber": 2.0,
    "Address": "6 Pomona Court",
    "City": "Helensvale",
    "Region": "Qld",
    "PostalCode": "4212",
    "Longitude": 153.329106,
    "Latitude": -27.919705
  },
  {
    "TenantName": "Madigan, Yasmin",
    "UnitNumber": "4069",
    "BuildingNumber": 2.0,
    "Address": "1B Tenalga Street",
    "City": "Nerang",
    "Region": "Qld",
    "PostalCode": "4211",
    "Longitude": 153.330012,
    "Latitude": -27.987471
  },
  {
    "TenantName": "Lawson, Nicole",
    "UnitNumber": "4040",
    "BuildingNumber": 2.0,
    "Address": "9 Birdlife Court",
    "City": "Nerang",
    "Region": "qld",
    "PostalCode": "4211",
    "Longitude": 153.300855,
    "Latitude": -27.99918
  },
  {
    "TenantName": "Parks, Mitchell",
    "UnitNumber": "4011",
    "BuildingNumber": 2.0,
    "Address": "1 High Ridge Road",
    "City": "Gaven",
    "Region": "QLD",
    "PostalCode": "4211",
    "Longitude": 153.329713,
    "Latitude": -27.933224
  },
  {
    "TenantName": "Almalky, Adel",
    "UnitNumber": "2154",
    "BuildingNumber": 1.0,
    "Address": "Unit 12/90 Harris Street",
    "City": "Fairfield",
    "Region": "NSW",
    "PostalCode": "2165",
    "Longitude": 150.950704,
    "Latitude": -33.872118
  },
  {
    "TenantName": "Wicker, Zulena",
    "UnitNumber": "3161",
    "BuildingNumber": 1.0,
    "Address": "18 Robe Street",
    "City": "Helensvale",
    "Region": "Qld",
    "PostalCode": "4121",
    "Longitude": 149.110726,
    "Latitude": -35.313765
  },
  {
    "TenantName": "Barnes, Kyle",
    "UnitNumber": "1088",
    "BuildingNumber": 1.0,
    "Address": "PO Box 362",
    "City": "Daylesford",
    "Region": "Victoria",
    "PostalCode": "3460",
    "Longitude": 145.025248,
    "Latitude": -37.627209
  },
  {
    "TenantName": "Miskell, Telia",
    "UnitNumber": "L33",
    "BuildingNumber": 1.0,
    "Address": "8C 2 Riverview Parade",
    "City": "Surfers Paradise",
    "Region": "Qld",
    "PostalCode": "4217",
    "Longitude": 153.426184,
    "Latitude": -27.998158
  },
  {
    "TenantName": "Macdonald, Fiona",
    "UnitNumber": "5011",
    "BuildingNumber": 2.0,
    "Address": "Unit 10/15 Yaun Street",
    "City": "Coomera",
    "Region": "Qld",
    "PostalCode": "4209",
    "Longitude": 153.317844,
    "Latitude": -27.871824
  },
  {
    "TenantName": "Cook, David",
    "UnitNumber": "4045",
    "BuildingNumber": 2.0,
    "Address": "180 Heslop Road",
    "City": "Gaven",
    "Region": "Qld",
    "PostalCode": "4211",
    "Longitude": 153.335749,
    "Latitude": -27.938424
  },
  {
    "TenantName": "Campbell, Danielle",
    "UnitNumber": "4048",
    "BuildingNumber": 2.0,
    "Address": "C/- 24 Henri Robert Drive",
    "City": "Clagiraba",
    "Region": "QLD",
    "PostalCode": "4211",
    "Longitude": 153.247211,
    "Latitude": -27.981104
  },
  {
    "TenantName": "Bennett, Jainey",
    "UnitNumber": "4009",
    "BuildingNumber": 2.0,
    "Address": "16 Delungra St,",
    "City": "Broadbeach Waters",
    "Region": "Qld",
    "PostalCode": "4218",
    "Longitude": 153.414275,
    "Latitude": -28.033709
  },
  {
    "TenantName": "Pirrone, Matthew",
    "UnitNumber": "4055",
    "BuildingNumber": 2.0,
    "Address": "22 Anguorie Cres",
    "City": "Pacific Pines",
    "Region": "QLD",
    "PostalCode": "4211",
    "Longitude": 153.312817,
    "Latitude": -27.936345
  },
  {
    "TenantName": "Subhi, Zubida",
    "UnitNumber": "4053",
    "BuildingNumber": 2.0,
    "Address": "20/1 Acacia Court",
    "City": "Robina",
    "Region": "Qld",
    "PostalCode": "4226",
    "Longitude": 153.394927,
    "Latitude": -28.090803
  },
  {
    "TenantName": "Kennar, Anastasia",
    "UnitNumber": "2047",
    "BuildingNumber": 1.0,
    "Address": "35 Brittany Drive",
    "City": "Oxenford",
    "Region": "Qld",
    "PostalCode": "4210",
    "Longitude": 153.289623,
    "Latitude": -27.895837
  },
  {
    "TenantName": "Wilson, Stephen",
    "UnitNumber": "3126",
    "BuildingNumber": 1.0,
    "Address": "11 Narooma Place",
    "City": "Helensvale",
    "Region": "Qld",
    "PostalCode": "4212",
    "Longitude": 153.328824,
    "Latitude": -27.912555
  },
  {
    "TenantName": "Almalky, Adel",
    "UnitNumber": "3088",
    "BuildingNumber": 1.0,
    "Address": "Unit 12/90 Harris Street",
    "City": "Fairfield",
    "Region": "NSW",
    "PostalCode": "2165",
    "Longitude": 150.950704,
    "Latitude": -33.872118
  },
  {
    "TenantName": "Sinclair-Bower, Elizabeth",
    "UnitNumber": "3076",
    "BuildingNumber": 1.0,
    "Address": "4 Datura Street",
    "City": "Runcorn",
    "Region": "QLD",
    "PostalCode": "4113",
    "Longitude": 153.073859,
    "Latitude": -27.596695
  },
  {
    "TenantName": "Hicks, Marilyn",
    "UnitNumber": "3107",
    "BuildingNumber": 1.0,
    "Address": "30 Phaeton Street",
    "City": "Upper Coomera",
    "Region": "Qld",
    "PostalCode": "4209",
    "Longitude": 153.298019,
    "Latitude": -27.854182
  },
  {
    "TenantName": "King, Carla",
    "UnitNumber": "4010",
    "BuildingNumber": 2.0,
    "Address": "4410/2 Como Crescent",
    "City": "Southport",
    "Region": "QLD",
    "PostalCode": "4215",
    "Longitude": 153.419087,
    "Latitude": -27.975396
  },
  {
    "TenantName": "Thone, Henk",
    "UnitNumber": "4049",
    "BuildingNumber": 2.0,
    "Address": "Unit 2/ 29 Artists Avenue",
    "City": "Oxenford",
    "Region": "Qld",
    "PostalCode": "4210",
    "Longitude": 153.315548,
    "Latitude": -27.923052
  },
  {
    "TenantName": "Hodgkinson, Ashley",
    "UnitNumber": "4041",
    "BuildingNumber": 2.0,
    "Address": "22 Connemara Road",
    "City": "Gaven",
    "Region": "QLD",
    "PostalCode": "4211",
    "Longitude": 153.333601,
    "Latitude": -27.938778
  },
  {
    "TenantName": "Firth, Laine",
    "UnitNumber": "3125",
    "BuildingNumber": 1.0,
    "Address": "33 Conjola Crescent",
    "City": "Upper Coomera",
    "Region": "QLD",
    "PostalCode": "4209",
    "Longitude": 153.280181,
    "Latitude": -27.881982
  },
  {
    "TenantName": "Staddon, Shaun",
    "UnitNumber": "4065",
    "BuildingNumber": 2.0,
    "Address": "PO Box 7060",
    "City": "GCMC",
    "Region": "Qld",
    "PostalCode": "9726",
    "Longitude": 138.602789,
    "Latitude": -34.908693
  },
  {
    "TenantName": "Rowe, Suzette",
    "UnitNumber": "L500",
    "BuildingNumber": 1.0,
    "Address": "13 Millagan Way",
    "City": "Vasse",
    "Region": "WA",
    "PostalCode": "6280",
    "Longitude": 115.257468,
    "Latitude": -33.676479
  },
  {
    "TenantName": "Mo, Hailey",
    "UnitNumber": "3008",
    "BuildingNumber": 1.0,
    "Address": "21902/5 Lawson Street",
    "City": "Southport",
    "Region": "Qld",
    "PostalCode": "4215",
    "Longitude": 153.412404,
    "Latitude": -27.970946
  },
  {
    "TenantName": "Clark, Greg",
    "UnitNumber": "3134",
    "BuildingNumber": 1.0,
    "Address": "2 Ferricks Court",
    "City": "Upper Coomera",
    "Region": "Qld",
    "PostalCode": "4209",
    "Longitude": 153.282063,
    "Latitude": -27.893996
  },
  {
    "TenantName": "Faustino, Shona",
    "UnitNumber": "2045",
    "BuildingNumber": 1.0,
    "Address": "1 Fairbairn Court",
    "City": "Oxenford",
    "Region": "QLD",
    "PostalCode": "4210",
    "Longitude": 153.302832,
    "Latitude": -27.887504
  },
  {
    "TenantName": "Crichton, Scott",
    "UnitNumber": "3060",
    "BuildingNumber": 1.0,
    "Address": "13,14 Norris Street",
    "City": "Pacific Pines",
    "Region": "Qld",
    "PostalCode": "4211",
    "Longitude": 153.306978,
    "Latitude": -27.925159
  },
  {
    "TenantName": "Pinsuk, Narudee",
    "UnitNumber": "3035",
    "BuildingNumber": 1.0,
    "Address": "18 Southaven Drive",
    "City": "Helensvale",
    "Region": "Qld",
    "PostalCode": "4212",
    "Longitude": 153.321117,
    "Latitude": -27.883203
  },
  {
    "TenantName": "Mcleod, Sarah",
    "UnitNumber": "1094",
    "BuildingNumber": 1.0,
    "Address": "2/5 Jacqueline Ave",
    "City": "Labrador",
    "Region": "Qld",
    "PostalCode": "4215",
    "Longitude": 153.391281,
    "Latitude": -27.949487
  },
  {
    "TenantName": "Dixon, Tahlie",
    "UnitNumber": "1083",
    "BuildingNumber": 1.0,
    "Address": "54/20 Fairway Drive",
    "City": "Clear Island Waters",
    "Region": "Qld",
    "PostalCode": "4226",
    "Longitude": 153.402428,
    "Latitude": -28.035616
  },
  {
    "TenantName": "Lumsden, Kyla",
    "UnitNumber": "5003",
    "BuildingNumber": 2.0,
    "Address": "39 Montreal Street",
    "City": "Wishart",
    "Region": "Qld",
    "PostalCode": "4122",
    "Longitude": 153.092539,
    "Latitude": -27.560667
  },
  {
    "TenantName": "Simeon, Riki",
    "UnitNumber": "2129",
    "BuildingNumber": 1.0,
    "Address": "6 Buchanan Cct",
    "City": "Oxenford",
    "Region": "QLD",
    "PostalCode": "4210",
    "Longitude": 153.304503,
    "Latitude": -27.923907
  },
  {
    "TenantName": "Austin, Rohana",
    "UnitNumber": "4038",
    "BuildingNumber": 2.0,
    "Address": "23A Bushland Place",
    "City": "Maudsland",
    "Region": "Qld",
    "PostalCode": "4210",
    "Longitude": 153.292846,
    "Latitude": -27.927072
  },
  {
    "TenantName": "Cook, David",
    "UnitNumber": "4054",
    "BuildingNumber": 2.0,
    "Address": "180 Heslop Road",
    "City": "Gaven",
    "Region": "Qld",
    "PostalCode": "4211",
    "Longitude": 153.335749,
    "Latitude": -27.938424
  },
  {
    "TenantName": "Smales, Brett",
    "UnitNumber": "5162",
    "BuildingNumber": 2.0,
    "Address": "12/12 Whitewater Way",
    "City": "Coomera",
    "Region": "Qld",
    "PostalCode": "4209",
    "Longitude": 153.311538,
    "Latitude": -27.861173
  },
  {
    "TenantName": "Salmond, Tracey",
    "UnitNumber": "3098",
    "BuildingNumber": 1.0,
    "Address": "15 Mona Court",
    "City": "Oxenford",
    "Region": "Qld",
    "PostalCode": "4210",
    "Longitude": 153.309246,
    "Latitude": -27.920473
  },
  {
    "TenantName": "Lund, Jade",
    "UnitNumber": "1109",
    "BuildingNumber": 1.0,
    "Address": "Unit 17, 16 - 22 Hollywood Place",
    "City": "Oxenford",
    "Region": "Qld",
    "PostalCode": "4210",
    "Longitude": 153.318104,
    "Latitude": -27.919147
  },
  {
    "TenantName": "Queenan, Siobhan",
    "UnitNumber": "2037",
    "BuildingNumber": 1.0,
    "Address": "29 Cypress Cct",
    "City": "Coomera",
    "Region": "Qld",
    "PostalCode": "4209",
    "Longitude": 153.334588,
    "Latitude": -27.843849
  },
  {
    "TenantName": "Queenan, Siobhan",
    "UnitNumber": "2037",
    "BuildingNumber": 1.0,
    "Address": "29 Cypress Cct",
    "City": "Coomera",
    "Region": "Qld",
    "PostalCode": "4209",
    "Longitude": 153.334588,
    "Latitude": -27.843849
  },
  {
    "TenantName": "Queenan, Siobhan",
    "UnitNumber": "2037",
    "BuildingNumber": 1.0,
    "Address": "29 Cypress Cct",
    "City": "Coomera",
    "Region": "Qld",
    "PostalCode": "4209",
    "Longitude": 153.334588,
    "Latitude": -27.843849
  },
  {
    "TenantName": "Fabian, Liam",
    "UnitNumber": "2150",
    "BuildingNumber": 1.0,
    "Address": "12 Uplands Drive",
    "City": "Parkwood",
    "Region": "Qld",
    "PostalCode": "4214",
    "Longitude": 153.358368,
    "Latitude": -27.948372
  },
  {
    "TenantName": "Kelley, Megan",
    "UnitNumber": "4018",
    "BuildingNumber": 2.0,
    "Address": "P.O. Box 160",
    "City": "Main Beach",
    "Region": "Qld",
    "PostalCode": "4217",
    "Longitude": 153.429118,
    "Latitude": -27.982504
  },
  {
    "TenantName": "Das, Bikash",
    "UnitNumber": "5060",
    "BuildingNumber": 2.0,
    "Address": "26 Bougainville Street",
    "City": "Mt Isa",
    "Region": "Qld",
    "PostalCode": "4825",
    "Longitude": 139.490995,
    "Latitude": -20.707259
  },
  {
    "TenantName": "Michels, John",
    "UnitNumber": "2138",
    "BuildingNumber": 1.0,
    "Address": "189/299 Napper Road",
    "City": "Arundel",
    "Region": "Qld",
    "PostalCode": "4214",
    "Longitude": 153.382538,
    "Latitude": -27.953592
  },
  {
    "TenantName": "Newby, Blair",
    "UnitNumber": "5059",
    "BuildingNumber": 2.0,
    "Address": "61 Upland Drive",
    "City": "Parkwood",
    "Region": "Qld",
    "PostalCode": "4214",
    "Longitude": 153.356544,
    "Latitude": -27.961301
  },
  {
    "TenantName": "Riddell, Doug",
    "UnitNumber": "4073",
    "BuildingNumber": 2.0,
    "Address": "74/433 Brisbane rd",
    "City": "Coombabah",
    "Region": "Qld",
    "PostalCode": "4216",
    "Longitude": 153.369847,
    "Latitude": -27.90703
  },
  {
    "TenantName": "Brown, Kellie",
    "UnitNumber": "4074",
    "BuildingNumber": 2.0,
    "Address": "32 Prairie Avenue",
    "City": "Maudsland",
    "Region": "Qld",
    "PostalCode": "4210",
    "Longitude": 153.270461,
    "Latitude": -27.91232
  },
  {
    "TenantName": "Bizzini, Nicola",
    "UnitNumber": "5066",
    "BuildingNumber": 2.0,
    "Address": "PO Box 101",
    "City": "Mt Larcom",
    "Region": "Qld",
    "PostalCode": "4695",
    "Longitude": 150.982486,
    "Latitude": -23.813124
  },
  {
    "TenantName": "Kelley, Megan",
    "UnitNumber": "4008",
    "BuildingNumber": 2.0,
    "Address": "P.O. Box 160",
    "City": "Main Beach",
    "Region": "Qld",
    "PostalCode": "4217",
    "Longitude": 153.429118,
    "Latitude": -27.982504
  },
  {
    "TenantName": "Cook, David",
    "UnitNumber": "5134",
    "BuildingNumber": 2.0,
    "Address": "180 Heslop Road",
    "City": "Gaven",
    "Region": "Qld",
    "PostalCode": "4211",
    "Longitude": 153.335749,
    "Latitude": -27.938424
  },
  {
    "TenantName": "Whittle, Ria",
    "UnitNumber": "L501",
    "BuildingNumber": 1.0,
    "Address": "1308 6-8 Waterford Court",
    "City": "Bundall",
    "Region": "QLD",
    "PostalCode": "4217",
    "Longitude": 153.405566,
    "Latitude": -27.99993
  },
  {
    "TenantName": "Goga, Evan",
    "UnitNumber": "3068",
    "BuildingNumber": 1.0,
    "Address": "10 Narrabri Court",
    "City": "Gaven",
    "Region": "Qld",
    "PostalCode": "4211",
    "Longitude": 153.334845,
    "Latitude": -27.965958
  },
  {
    "TenantName": "Curphey, Chase",
    "UnitNumber": "5001",
    "BuildingNumber": 2.0,
    "Address": "9 Yarandin Court",
    "City": "Worongary",
    "Region": "QLD",
    "PostalCode": "4213",
    "Longitude": 153.337845,
    "Latitude": -28.019341
  },
  {
    "TenantName": "Broek, Biena",
    "UnitNumber": "5159",
    "BuildingNumber": 2.0,
    "Address": "16 Westpark Court",
    "City": "Helensvale",
    "Region": "Qld",
    "PostalCode": "4212",
    "Longitude": 153.336035,
    "Latitude": -27.891053
  },
  {
    "TenantName": "Clark, Stuart",
    "UnitNumber": "5100",
    "BuildingNumber": 2.0,
    "Address": "17/36 Beattie Road",
    "City": "Coomera",
    "Region": "Qld",
    "PostalCode": "4209",
    "Longitude": 153.325734,
    "Latitude": -27.868189
  },
  {
    "TenantName": "Maloney, Katherine",
    "UnitNumber": "L502",
    "BuildingNumber": 1.0,
    "Address": "17-19 Wongawallan Road",
    "City": "Tamborine Mountain",
    "Region": "Qld",
    "PostalCode": "4272",
    "Longitude": 153.201378,
    "Latitude": -27.919946
  },
  {
    "TenantName": "Sly, Bernadette",
    "UnitNumber": "3105",
    "BuildingNumber": 1.0,
    "Address": "13/60-62 Beattie Road",
    "City": "Coomera",
    "Region": "Qld",
    "PostalCode": "4209",
    "Longitude": 153.325734,
    "Latitude": -27.868189
  },
  {
    "TenantName": "Donnelly, Paul",
    "UnitNumber": "5166",
    "BuildingNumber": 2.0,
    "Address": "1908/1 Como Cres",
    "City": "Southport",
    "Region": "Qld",
    "PostalCode": "4215",
    "Longitude": 153.419087,
    "Latitude": -27.975396
  },
  {
    "TenantName": "Burton, Dennis",
    "UnitNumber": "5151",
    "BuildingNumber": 2.0,
    "Address": "2/16 Inga Avenue",
    "City": "Surfers Paradise",
    "Region": "Qld",
    "PostalCode": "4217",
    "Longitude": 153.41481,
    "Latitude": -28.00464
  },
  {
    "TenantName": "Burton, Dennis",
    "UnitNumber": "5150",
    "BuildingNumber": 2.0,
    "Address": "2/16 Inga Avenue",
    "City": "Surfers Paradise",
    "Region": "Qld",
    "PostalCode": "4217",
    "Longitude": 153.41481,
    "Latitude": -28.00464
  },
  {
    "TenantName": "Burton, Dennis",
    "UnitNumber": "5149",
    "BuildingNumber": 2.0,
    "Address": "2/16 Inga Avenue",
    "City": "Surfers Paradise",
    "Region": "Qld",
    "PostalCode": "4217",
    "Longitude": 153.41481,
    "Latitude": -28.00464
  },
  {
    "TenantName": "Burton, Dennis",
    "UnitNumber": "5145",
    "BuildingNumber": 2.0,
    "Address": "2/16 Inga Avenue",
    "City": "Surfers Paradise",
    "Region": "Qld",
    "PostalCode": "4217",
    "Longitude": 153.41481,
    "Latitude": -28.00464
  },
  {
    "TenantName": "Girvan, Luke",
    "UnitNumber": "5161",
    "BuildingNumber": 2.0,
    "Address": "27/2 Flametree Cct",
    "City": "Arundel",
    "Region": "Qld",
    "PostalCode": "4214",
    "Longitude": 153.347415,
    "Latitude": -27.943646
  },
  {
    "TenantName": "Hughes, Bernie",
    "UnitNumber": "5054",
    "BuildingNumber": 2.0,
    "Address": "4/5 Hepburn Crt",
    "City": "Oxenford",
    "Region": "Qld",
    "PostalCode": "4210",
    "Longitude": 153.319616,
    "Latitude": -27.919132
  },
  {
    "TenantName": "Lemmon, Gary",
    "UnitNumber": "5002",
    "BuildingNumber": 2.0,
    "Address": "20 Mellum Cres",
    "City": "Pacific Pines",
    "Region": "Qld",
    "PostalCode": "4211",
    "Longitude": 153.308837,
    "Latitude": -27.942148
  },
  {
    "TenantName": "Doyle, Scott John",
    "UnitNumber": "5055",
    "BuildingNumber": 2.0,
    "Address": "18 Elaine Street",
    "City": "Southport",
    "Region": "Qld",
    "PostalCode": "4215",
    "Longitude": 153.406247,
    "Latitude": -27.977935
  },
  {
    "TenantName": "Markey, Rachelle",
    "UnitNumber": "5005",
    "BuildingNumber": 2.0,
    "Address": "Montague Hotel West End",
    "City": "Nerang",
    "Region": "Qld",
    "PostalCode": "4211",
    "Longitude": 153.006195,
    "Latitude": -27.478717
  },
  {
    "TenantName": "Butler, Abbie",
    "UnitNumber": "1106",
    "BuildingNumber": 1.0,
    "Address": "19/14 Norris Street",
    "City": "Pacific Pines",
    "Region": "Qld",
    "PostalCode": "4211",
    "Longitude": 153.306307,
    "Latitude": -27.925612
  },
  {
    "TenantName": "Jones, Donovan",
    "UnitNumber": "5155",
    "BuildingNumber": 2.0,
    "Address": "11 Green Court",
    "City": "Maudsland",
    "Region": "Qld",
    "PostalCode": "4210",
    "Longitude": 153.288507,
    "Latitude": -27.922305
  },
  {
    "TenantName": "Mitchell, Creina",
    "UnitNumber": "5165",
    "BuildingNumber": 2.0,
    "Address": "20 Carrington Place",
    "City": "Helensvale",
    "Region": "Qld",
    "PostalCode": "4212",
    "Longitude": 153.109701,
    "Latitude": -27.524105
  },
  {
    "TenantName": "Sims, Joel",
    "UnitNumber": "5133",
    "BuildingNumber": 2.0,
    "Address": "21 Bahkeeta Street",
    "City": "Oxenford",
    "Region": "Qld",
    "PostalCode": "4210",
    "Longitude": 153.286516,
    "Latitude": -27.916176
  },
  {
    "TenantName": "Nelson, Sarah",
    "UnitNumber": "2095",
    "BuildingNumber": 1.0,
    "Address": "73 Brighton Street",
    "City": "Biggera Waters",
    "Region": "QLD",
    "PostalCode": "4216",
    "Longitude": 153.405021,
    "Latitude": -27.93214
  },
  {
    "TenantName": "Tickner, Trevor",
    "UnitNumber": "5053",
    "BuildingNumber": 2.0,
    "Address": "230 Banyula Drive",
    "City": "Gaven",
    "Region": "Qld",
    "PostalCode": "4211",
    "Longitude": 153.338403,
    "Latitude": -27.954771
  },
  {
    "TenantName": "Parker, Rose",
    "UnitNumber": "5067",
    "BuildingNumber": 2.0,
    "Address": "2 Como Crescent",
    "City": "Southport",
    "Region": "QLD",
    "PostalCode": "4215",
    "Longitude": 153.419588,
    "Latitude": -27.974472
  },
  {
    "TenantName": "Whitby, Chris",
    "UnitNumber": "5012",
    "BuildingNumber": 2.0,
    "Address": "99 Dixon Drive",
    "City": "Pimpama",
    "Region": "Qld",
    "PostalCode": "4209",
    "Longitude": 153.315585,
    "Latitude": -27.830592
  },
  {
    "TenantName": "Gardiner, Clay and Darren",
    "UnitNumber": "5098",
    "BuildingNumber": 2.0,
    "Address": "2143/23 Ferny Ave",
    "City": "Surfers Paradise",
    "Region": "Qld",
    "PostalCode": "4217",
    "Longitude": 153.427092,
    "Latitude": -27.99877
  },
  {
    "TenantName": "Trent, Paul",
    "UnitNumber": "5156",
    "BuildingNumber": 2.0,
    "Address": "58 Gallapogos Way",
    "City": "Pacific Pines",
    "Region": "Qld",
    "PostalCode": "4211",
    "Longitude": 147.313699,
    "Latitude": -38.276593
  },
  {
    "TenantName": "Shandil, Shayal",
    "UnitNumber": "5069",
    "BuildingNumber": 2.0,
    "Address": "16 Bounty Way",
    "City": "Pacific Pines",
    "Region": "Qld",
    "PostalCode": "4211",
    "Longitude": 153.326619,
    "Latitude": -27.935794
  },
  {
    "TenantName": "Norris, Carl",
    "UnitNumber": "4021",
    "BuildingNumber": 2.0,
    "Address": "1/25 Hollywood Place",
    "City": "Oxenford",
    "Region": "Qld",
    "PostalCode": "4210",
    "Longitude": 153.318619,
    "Latitude": -27.920221
  },
  {
    "TenantName": "Porter, Julian",
    "UnitNumber": "4013",
    "BuildingNumber": 2.0,
    "Address": "PO Box 1473",
    "City": "Oxenford",
    "Region": "Qld",
    "PostalCode": "4210",
    "Longitude": 152.927922,
    "Latitude": -27.186665
  },
  {
    "TenantName": "Nguyen, Tuan",
    "UnitNumber": "1021",
    "BuildingNumber": 1.0,
    "Address": "17 Studio Drive",
    "City": "Oxenford",
    "Region": "Qld",
    "PostalCode": "4210",
    "Longitude": 153.321377,
    "Latitude": -27.923281
  },
  {
    "TenantName": "Orchard, Noel",
    "UnitNumber": "5131",
    "BuildingNumber": 2.0,
    "Address": "6 Oxbridge Chase",
    "City": "Arundel",
    "Region": "Qld",
    "PostalCode": "4214",
    "Longitude": 153.35588,
    "Latitude": -27.926548
  },
  {
    "TenantName": "Marsh, Mark",
    "UnitNumber": "5052",
    "BuildingNumber": 2.0,
    "Address": "52/26 Yaun Steet",
    "City": "Coomera",
    "Region": "Qld",
    "PostalCode": "4209",
    "Longitude": 153.317844,
    "Latitude": -27.871824
  },
  {
    "TenantName": "Bennett, Julianna",
    "UnitNumber": "5129",
    "BuildingNumber": 2.0,
    "Address": "8 Serene Court",
    "City": "Arundel",
    "Region": "Qld",
    "PostalCode": "4214",
    "Longitude": 153.388997,
    "Latitude": -27.93493
  },
  {
    "TenantName": "Heywood, Josh",
    "UnitNumber": "5021",
    "BuildingNumber": 2.0,
    "Address": "3 Kingman Court",
    "City": "Pacific Pines",
    "Region": "Qld",
    "PostalCode": "4211",
    "Longitude": 153.334861,
    "Latitude": -27.940496
  },
  {
    "TenantName": "Morgan, Corey",
    "UnitNumber": "5224",
    "BuildingNumber": 2.0,
    "Address": "2 Tawanga Close",
    "City": "Pacific Pines",
    "Region": "Qld",
    "PostalCode": "4211",
    "Longitude": 153.312562,
    "Latitude": -27.929175
  },
  {
    "TenantName": "Nguyen, Tuan",
    "UnitNumber": "1027",
    "BuildingNumber": 1.0,
    "Address": "17 Studio Drive",
    "City": "Oxenford",
    "Region": "Qld",
    "PostalCode": "4210",
    "Longitude": 153.321377,
    "Latitude": -27.923281
  },
  {
    "TenantName": "Killorn, Colleen",
    "UnitNumber": "5022",
    "BuildingNumber": 2.0,
    "Address": "6 Tawanga Close",
    "City": "Pacific Pines",
    "Region": "Qld",
    "PostalCode": "4211",
    "Longitude": 153.312329,
    "Latitude": -27.929422
  },
  {
    "TenantName": "Shang, Kym",
    "UnitNumber": "5051",
    "BuildingNumber": 2.0,
    "Address": "PO Box 519",
    "City": "Ashmore City",
    "Region": "Qld",
    "PostalCode": "4214",
    "Longitude": 153.360365,
    "Latitude": -27.976422
  },
  {
    "TenantName": "Henson, Jack",
    "UnitNumber": "3151",
    "BuildingNumber": 1.0,
    "Address": "Unit 28, 11-15 Lindfield Rd",
    "City": "Helensvale",
    "Region": "Qld",
    "PostalCode": "4212",
    "Longitude": 153.327451,
    "Latitude": -27.914825
  },
  {
    "TenantName": "Sowter, Nicholas",
    "UnitNumber": "5228",
    "BuildingNumber": 2.0,
    "Address": "5/1 Pinecrest Court",
    "City": "Oxenford",
    "Region": "Qld",
    "PostalCode": "4210",
    "Longitude": 153.308269,
    "Latitude": -27.917581
  },
  {
    "TenantName": "Campbell, Les",
    "UnitNumber": "5227",
    "BuildingNumber": 2.0,
    "Address": "50/4 Koala Town Road",
    "City": "Upper Coomera",
    "Region": "Qld",
    "PostalCode": "4209",
    "Longitude": 153.312139,
    "Latitude": -27.875577
  },
  {
    "TenantName": "De Nardo, Anthony",
    "UnitNumber": "5168",
    "BuildingNumber": 2.0,
    "Address": "31 Nandi Terrace",
    "City": "Pacific Pines",
    "Region": "Qld",
    "PostalCode": "4211",
    "Longitude": 153.326816,
    "Latitude": -27.939281
  },
  {
    "TenantName": "Guse, Jenny",
    "UnitNumber": "5050",
    "BuildingNumber": 2.0,
    "Address": "3 High Ridge Road",
    "City": "Gaven",
    "Region": "Qld",
    "PostalCode": "4211",
    "Longitude": 153.329845,
    "Latitude": -27.932496
  },
  {
    "TenantName": "Pue, Puhia",
    "UnitNumber": "2144",
    "BuildingNumber": 1.0,
    "Address": "61 Wimmera Crescent",
    "City": "Upper Coomera",
    "Region": "Qld",
    "PostalCode": "4209",
    "Longitude": 153.280799,
    "Latitude": -27.878112
  },
  {
    "TenantName": "Pinsuk, Narudee",
    "UnitNumber": "3046",
    "BuildingNumber": 1.0,
    "Address": "18 Southaven Drive",
    "City": "Helensvale",
    "Region": "Qld",
    "PostalCode": "4212",
    "Longitude": 153.321117,
    "Latitude": -27.883203
  },
  {
    "TenantName": "Giumtimi, Leo",
    "UnitNumber": "5141",
    "BuildingNumber": 2.0,
    "Address": "6 Cinema Street",
    "City": "Oxenford",
    "Region": "Qld",
    "PostalCode": "4210",
    "Longitude": 153.317119,
    "Latitude": -27.92291
  },
  {
    "TenantName": "Green, Amanda",
    "UnitNumber": "5226",
    "BuildingNumber": 2.0,
    "Address": "64 Ormande Street",
    "City": "Esperance",
    "Region": "WA",
    "PostalCode": "6450",
    "Longitude": 121.91624,
    "Latitude": -33.82899
  },
  {
    "TenantName": "Murray, Bruce",
    "UnitNumber": "5225",
    "BuildingNumber": 2.0,
    "Address": "7/141 Cotlew Street",
    "City": "Ashmore",
    "Region": "Qld",
    "PostalCode": "4214",
    "Longitude": 153.384737,
    "Latitude": -27.986811
  },
  {
    "TenantName": "Daboss, Rebecca",
    "UnitNumber": "5135",
    "BuildingNumber": 2.0,
    "Address": "2 Nowra Court",
    "City": "Helensvale",
    "Region": "Qld",
    "PostalCode": "4212",
    "Longitude": 153.323961,
    "Latitude": -27.903486
  },
  {
    "TenantName": "Bain, Sandra",
    "UnitNumber": "3002",
    "BuildingNumber": 1.0,
    "Address": "22 Pomona Court",
    "City": "Helensvale",
    "Region": "Qld",
    "PostalCode": "4212",
    "Longitude": 153.327721,
    "Latitude": -27.920121
  },
  {
    "TenantName": "Thone, Jae",
    "UnitNumber": "4015",
    "BuildingNumber": 2.0,
    "Address": "1 Crimson Rosella Cl",
    "City": "Gilston",
    "Region": "QLD",
    "PostalCode": "4211",
    "Longitude": 153.318855,
    "Latitude": -28.021945
  },
  {
    "TenantName": "Comperatore, Christine",
    "UnitNumber": "3047",
    "BuildingNumber": 1.0,
    "Address": "12 Malekula Rise",
    "City": "Pacific Pines",
    "Region": "QLD",
    "PostalCode": "4211",
    "Longitude": 153.3249,
    "Latitude": -27.93257
  },
  {
    "TenantName": "Sutcliffe, Cody",
    "UnitNumber": "4005",
    "BuildingNumber": 2.0,
    "Address": "9 Omeara Court",
    "City": "Parkwood",
    "Region": "Qld",
    "PostalCode": "4214",
    "Longitude": 153.367235,
    "Latitude": -27.958201
  },
  {
    "TenantName": "Daffin, Jasmine",
    "UnitNumber": "5138",
    "BuildingNumber": 2.0,
    "Address": "PO Box 187",
    "City": "Oxenford",
    "Region": "Qld",
    "PostalCode": "4210",
    "Longitude": 152.927922,
    "Latitude": -27.186665
  },
  {
    "TenantName": "Baynes, Tyneal",
    "UnitNumber": "4006",
    "BuildingNumber": 2.0,
    "Address": "4 Lagos Crt",
    "City": "Coombabah",
    "Region": "QLD",
    "PostalCode": "4216",
    "Longitude": 153.385886,
    "Latitude": -27.911726
  },
  {
    "TenantName": "Lark, Paul",
    "UnitNumber": "3014",
    "BuildingNumber": 1.0,
    "Address": "3 Elk Court",
    "City": "Upper Coomera",
    "Region": "Qld",
    "PostalCode": "4209",
    "Longitude": 153.305612,
    "Latitude": -27.87128
  },
  {
    "TenantName": "Harper, Steve",
    "UnitNumber": "4078",
    "BuildingNumber": 2.0,
    "Address": "3 Ozone Parade",
    "City": "Miami",
    "Region": "Qld",
    "PostalCode": "4220",
    "Longitude": 153.434444,
    "Latitude": -28.064263
  },
  {
    "TenantName": "Dawes, Kelly",
    "UnitNumber": "2155",
    "BuildingNumber": 1.0,
    "Address": "69 Chichester Drive",
    "City": "Arundel",
    "Region": "Qld",
    "PostalCode": "4214",
    "Longitude": 153.356776,
    "Latitude": -27.93867
  },
  {
    "TenantName": "Anyos, Richard",
    "UnitNumber": "5164",
    "BuildingNumber": 2.0,
    "Address": "14 Tenalga Street",
    "City": "Nerang",
    "Region": "Qld",
    "PostalCode": "4211",
    "Longitude": 153.329726,
    "Latitude": -27.986235
  },
  {
    "TenantName": "Dabelstein, Zachary",
    "UnitNumber": "5160",
    "BuildingNumber": 2.0,
    "Address": "4 Zeller Crescent",
    "City": "Arundel",
    "Region": "Qld",
    "PostalCode": "4214",
    "Longitude": 153.354638,
    "Latitude": -27.944374
  },
  {
    "TenantName": "Wills, Rachel",
    "UnitNumber": "3078",
    "BuildingNumber": 1.0,
    "Address": "Lot 201 Shelter Road",
    "City": "Coombabah",
    "Region": "QLD",
    "PostalCode": "4216",
    "Longitude": 153.369844,
    "Latitude": -27.907036
  },
  {
    "TenantName": "Roberts, Lucy",
    "UnitNumber": "5311",
    "BuildingNumber": 2.0,
    "Address": "1/2 Tarrina Cres",
    "City": "Pacific Pines",
    "Region": "Qld",
    "PostalCode": "4211",
    "Longitude": 153.303973,
    "Latitude": -27.951922
  },
  {
    "TenantName": "Harper, Steve",
    "UnitNumber": "4103",
    "BuildingNumber": 2.0,
    "Address": "3 Ozone Parade",
    "City": "Miami",
    "Region": "Qld",
    "PostalCode": "4220",
    "Longitude": 153.434444,
    "Latitude": -28.064263
  },
  {
    "TenantName": "Jenkins, Ricki",
    "UnitNumber": "5163",
    "BuildingNumber": 2.0,
    "Address": "9 Kurrawa Avenue",
    "City": "Mermaid Waters",
    "Region": "Qld",
    "PostalCode": "4218",
    "Longitude": 153.43375,
    "Latitude": -28.052662
  },
  {
    "TenantName": "Grigoreva, Daria",
    "UnitNumber": "L19",
    "BuildingNumber": 1.0,
    "Address": "HSE 2/2 Lottie Street",
    "City": "Greenslopes",
    "Region": "Qld",
    "PostalCode": "4120",
    "Longitude": 153.054463,
    "Latitude": -27.511477
  },
  {
    "TenantName": "Wise, Anthony",
    "UnitNumber": "2051",
    "BuildingNumber": 1.0,
    "Address": "20 Pandora Crescent",
    "City": "Pacific Pines",
    "Region": "Qld",
    "PostalCode": "4211",
    "Longitude": 153.323008,
    "Latitude": -27.941196
  },
  {
    "TenantName": "Melville, Ben",
    "UnitNumber": "2025",
    "BuildingNumber": 1.0,
    "Address": "2017, 16 Hamilton Pl,",
    "City": "Bowen Hills",
    "Region": "QLD",
    "PostalCode": "4006",
    "Longitude": 153.034983,
    "Latitude": -27.44799
  },
  {
    "TenantName": "Dobinson, Michael",
    "UnitNumber": "4075",
    "BuildingNumber": 2.0,
    "Address": "1/1 Sarah Place",
    "City": "Ashmore",
    "Region": "Qld",
    "PostalCode": "4214",
    "Longitude": 153.343263,
    "Latitude": -27.984784
  },
  {
    "TenantName": "Jeffs, Neil",
    "UnitNumber": "1111",
    "BuildingNumber": 1.0,
    "Address": "4 Tweedvale Street",
    "City": "Beenleigh",
    "Region": "Qld",
    "PostalCode": "4207",
    "Longitude": 153.193947,
    "Latitude": -27.720322
  },
  {
    "TenantName": "Cameron, Georgie",
    "UnitNumber": "5097",
    "BuildingNumber": 2.0,
    "Address": "Unit 2/8 Vine Court",
    "City": "Oxenford",
    "Region": "Qld",
    "PostalCode": "4210",
    "Longitude": 153.317826,
    "Latitude": -27.921345
  },
  {
    "TenantName": "Queenan, Siobhan",
    "UnitNumber": "2090",
    "BuildingNumber": 1.0,
    "Address": "29 Cypress Cct",
    "City": "Coomera",
    "Region": "Qld",
    "PostalCode": "4209",
    "Longitude": 153.334588,
    "Latitude": -27.843849
  },
  {
    "TenantName": "Queenan, Siobhan",
    "UnitNumber": "2090",
    "BuildingNumber": 1.0,
    "Address": "29 Cypress Cct",
    "City": "Coomera",
    "Region": "Qld",
    "PostalCode": "4209",
    "Longitude": 153.334588,
    "Latitude": -27.843849
  },
  {
    "TenantName": "Queenan, Siobhan",
    "UnitNumber": "2090",
    "BuildingNumber": 1.0,
    "Address": "29 Cypress Cct",
    "City": "Coomera",
    "Region": "Qld",
    "PostalCode": "4209",
    "Longitude": 153.334588,
    "Latitude": -27.843849
  },
  {
    "TenantName": "O'Connor, Ebony",
    "UnitNumber": "5070",
    "BuildingNumber": 2.0,
    "Address": "4/16 Leonard Avenue",
    "City": "Surfers Paradise",
    "Region": "Qld",
    "PostalCode": "4217",
    "Longitude": 153.422867,
    "Latitude": -28.004356
  },
  {
    "TenantName": "Daboss, Rebecca",
    "UnitNumber": "5137",
    "BuildingNumber": 2.0,
    "Address": "2 Nowra Court",
    "City": "Helensvale",
    "Region": "Qld",
    "PostalCode": "4212",
    "Longitude": 153.323961,
    "Latitude": -27.903486
  },
  {
    "TenantName": "Fawkes, Felix",
    "UnitNumber": "L26",
    "BuildingNumber": 1.0,
    "Address": "Unit 1 Leyte Avenue",
    "City": "Palm Beach",
    "Region": "QLD",
    "PostalCode": "4217",
    "Longitude": 153.471907,
    "Latitude": -28.133325
  },
  {
    "TenantName": "Shaw, Jamie",
    "UnitNumber": "3173",
    "BuildingNumber": 1.0,
    "Address": "5  Sarath Street",
    "City": "Mudgeeraba",
    "Region": "Qld",
    "PostalCode": "4219",
    "Longitude": 153.351899,
    "Latitude": -28.083332
  },
  {
    "TenantName": "Schwerin, Nathan",
    "UnitNumber": "3050",
    "BuildingNumber": 1.0,
    "Address": "60 Mcauley Parade",
    "City": "Pacific Pines",
    "Region": "QLD",
    "PostalCode": "4211",
    "Longitude": 153.300744,
    "Latitude": -27.939932
  },
  {
    "TenantName": "Doyle, Sheypana",
    "UnitNumber": "L503",
    "BuildingNumber": 1.0,
    "Address": "55 Murwillumbah Street",
    "City": "Murwillumbah",
    "Region": "NSW",
    "PostalCode": "2484",
    "Longitude": 153.397588,
    "Latitude": -28.32661
  },
  {
    "TenantName": "Hamilton, Grant",
    "UnitNumber": "2117",
    "BuildingNumber": 1.0,
    "Address": "34 Fairview Crescent",
    "City": "Parkwood",
    "Region": "Qld",
    "PostalCode": "4214",
    "Longitude": 153.352874,
    "Latitude": -27.953967
  },
  {
    "TenantName": "Cavalier-fourcade, Jordan",
    "UnitNumber": "3162",
    "BuildingNumber": 1.0,
    "Address": "6 Birrabi Avenue",
    "City": "Nerang",
    "Region": "Qld",
    "PostalCode": "4211",
    "Longitude": 153.329679,
    "Latitude": -27.994269
  },
  {
    "TenantName": "Blank, Jeremy",
    "UnitNumber": "5219",
    "BuildingNumber": 2.0,
    "Address": "PO Box 12",
    "City": "Helensvale",
    "Region": "Qld",
    "PostalCode": "4212",
    "Longitude": 153.339389,
    "Latitude": -27.891731
  },
  {
    "TenantName": "Hamilton, Grant",
    "UnitNumber": "2107",
    "BuildingNumber": 1.0,
    "Address": "34 Fairview Crescent",
    "City": "Parkwood",
    "Region": "Qld",
    "PostalCode": "4214",
    "Longitude": 153.352874,
    "Latitude": -27.953967
  },
  {
    "TenantName": "Hamilton, Grant",
    "UnitNumber": "2107",
    "BuildingNumber": 1.0,
    "Address": "34 Fairview Crescent",
    "City": "Parkwood",
    "Region": "Qld",
    "PostalCode": "4214",
    "Longitude": 153.352874,
    "Latitude": -27.953967
  },
  {
    "TenantName": "Hamilton, Grant",
    "UnitNumber": "2107",
    "BuildingNumber": 1.0,
    "Address": "34 Fairview Crescent",
    "City": "Parkwood",
    "Region": "Qld",
    "PostalCode": "4214",
    "Longitude": 153.352874,
    "Latitude": -27.953967
  },
  {
    "TenantName": "Scoble, Daniel",
    "UnitNumber": "4106",
    "BuildingNumber": 2.0,
    "Address": "18 Inman Court",
    "City": "Pacific Pines",
    "Region": "Qld",
    "PostalCode": "4211",
    "Longitude": 153.317948,
    "Latitude": -27.931494
  },
  {
    "TenantName": "Stone, Jonathon",
    "UnitNumber": "3153",
    "BuildingNumber": 1.0,
    "Address": "Dup A, 27 Lenton Street",
    "City": "Coomera",
    "Region": "Qld",
    "PostalCode": "4209",
    "Longitude": 153.333895,
    "Latitude": -27.84918
  },
  {
    "TenantName": "Chave, Aran",
    "UnitNumber": "2140",
    "BuildingNumber": 1.0,
    "Address": "8 Kingland Road",
    "City": "Poole",
    "Region": "UK",
    "PostalCode": "BH151TP",
    "Longitude": 151.090667,
    "Latitude": -33.880389
  },
  {
    "TenantName": "Wright, Peita",
    "UnitNumber": "4044",
    "BuildingNumber": 2.0,
    "Address": "3 Armidale Crescent",
    "City": "Helensvale",
    "Region": "Qld",
    "PostalCode": "4212",
    "Longitude": 153.336062,
    "Latitude": -27.913907
  },
  {
    "TenantName": "Cook, David",
    "UnitNumber": "4043",
    "BuildingNumber": 2.0,
    "Address": "180 Heslop Road",
    "City": "Gaven",
    "Region": "Qld",
    "PostalCode": "4211",
    "Longitude": 153.335749,
    "Latitude": -27.938424
  },
  {
    "TenantName": "Young, Gary",
    "UnitNumber": "4067",
    "BuildingNumber": 2.0,
    "Address": "5 Greenvale Cres",
    "City": "Maudsland",
    "Region": "QLD",
    "PostalCode": "4210",
    "Longitude": 153.26927,
    "Latitude": -27.914151
  },
  {
    "TenantName": "Cook, David",
    "UnitNumber": "5068",
    "BuildingNumber": 2.0,
    "Address": "180 Heslop Road",
    "City": "Gaven",
    "Region": "Qld",
    "PostalCode": "4211",
    "Longitude": 153.335749,
    "Latitude": -27.938424
  },
  {
    "TenantName": "Cook, David",
    "UnitNumber": "5229",
    "BuildingNumber": 2.0,
    "Address": "180 Heslop Road",
    "City": "Gaven",
    "Region": "Qld",
    "PostalCode": "4211",
    "Longitude": 153.335749,
    "Latitude": -27.938424
  },
  {
    "TenantName": "Cook, David",
    "UnitNumber": "4039",
    "BuildingNumber": 2.0,
    "Address": "180 Heslop Road",
    "City": "Gaven",
    "Region": "Qld",
    "PostalCode": "4211",
    "Longitude": 153.335749,
    "Latitude": -27.938424
  },
  {
    "TenantName": "Preston, Daniel",
    "UnitNumber": "3061",
    "BuildingNumber": 1.0,
    "Address": "3 Kolonia St",
    "City": "Pacific Pines",
    "Region": "Qld",
    "PostalCode": "4211",
    "Longitude": 153.334864,
    "Latitude": -27.940766
  },
  {
    "TenantName": "Page, Jonathon",
    "UnitNumber": "1067",
    "BuildingNumber": 1.0,
    "Address": "5 Poppy Street",
    "City": "Upper Coomera",
    "Region": "Qld",
    "PostalCode": "4209",
    "Longitude": 153.287721,
    "Latitude": -27.902063
  },
  {
    "TenantName": "Hansford, Stephen",
    "UnitNumber": "5057",
    "BuildingNumber": 2.0,
    "Address": "24 Adaminaby Drive",
    "City": "Helensvale",
    "Region": "Qld",
    "PostalCode": "4212",
    "Longitude": 153.32375,
    "Latitude": -27.898549
  },
  {
    "TenantName": "Eckart, Jamie",
    "UnitNumber": "1077",
    "BuildingNumber": 1.0,
    "Address": "8 Park Street",
    "City": "Maudsland",
    "Region": "Qld",
    "PostalCode": "4210",
    "Longitude": 153.291261,
    "Latitude": -27.921637
  },
  {
    "TenantName": "Gigliotti, Joshua",
    "UnitNumber": "5056",
    "BuildingNumber": 2.0,
    "Address": "1003 15-17 Cannes ave",
    "City": "Surfers paradise",
    "Region": "QLD",
    "PostalCode": "4217",
    "Longitude": 153.42701,
    "Latitude": -28.016288
  },
  {
    "TenantName": "Collins, Jan",
    "UnitNumber": "5099",
    "BuildingNumber": 2.0,
    "Address": "28 Highridge Road",
    "City": "Gaven",
    "Region": "Qld",
    "PostalCode": "4211",
    "Longitude": 152.915007,
    "Latitude": -27.656682
  },
  {
    "TenantName": "Woods, Debbie",
    "UnitNumber": "4107",
    "BuildingNumber": 2.0,
    "Address": "2 Poplar Place",
    "City": "Nerang",
    "Region": "Qld",
    "PostalCode": "4211",
    "Longitude": 153.320141,
    "Latitude": -28.006587
  },
  {
    "TenantName": "Taprell, Brent",
    "UnitNumber": "4072",
    "BuildingNumber": 2.0,
    "Address": "10  Santa Barbara Road",
    "City": "Hope Island",
    "Region": "Qld",
    "PostalCode": "4212",
    "Longitude": 153.350126,
    "Latitude": -27.867512
  },
  {
    "TenantName": "Gray, Margret",
    "UnitNumber": "4105",
    "BuildingNumber": 2.0,
    "Address": "12 Flint Court",
    "City": "Pacific Pines",
    "Region": "Qld",
    "PostalCode": "4211",
    "Longitude": 153.321962,
    "Latitude": -27.937869
  },
  {
    "TenantName": "Harper, Steve",
    "UnitNumber": "3079",
    "BuildingNumber": 1.0,
    "Address": "3 Ozone Parade",
    "City": "Miami",
    "Region": "Qld",
    "PostalCode": "4220",
    "Longitude": 153.434444,
    "Latitude": -28.064263
  },
  {
    "TenantName": "Lewis, Susan",
    "UnitNumber": "2056",
    "BuildingNumber": 1.0,
    "Address": "3 Nakula Street",
    "City": "Gaven",
    "Region": "Qld",
    "PostalCode": "4211",
    "Longitude": 153.340079,
    "Latitude": -27.96637
  },
  {
    "TenantName": "Manukonga, Paul",
    "UnitNumber": "5223",
    "BuildingNumber": 2.0,
    "Address": "9 Amanu Court",
    "City": "Pacific Pines",
    "Region": "Qld",
    "PostalCode": "4211",
    "Longitude": 153.317003,
    "Latitude": -27.940477
  },
  {
    "TenantName": "Sewram, Radhika",
    "UnitNumber": "2153",
    "BuildingNumber": 1.0,
    "Address": "Unit 18/22 Careel Close",
    "City": "Helensvale",
    "Region": "Qld",
    "PostalCode": "4212",
    "Longitude": 153.33767,
    "Latitude": -27.91979
  },
  {
    "TenantName": "Cook, David",
    "UnitNumber": "1017",
    "BuildingNumber": 1.0,
    "Address": "180 Heslop Road",
    "City": "Gaven",
    "Region": "Qld",
    "PostalCode": "4211",
    "Longitude": 153.335749,
    "Latitude": -27.938424
  },
  {
    "TenantName": "Marotte, David",
    "UnitNumber": "5222",
    "BuildingNumber": 2.0,
    "Address": "13 Dewberry Way",
    "City": "Gaven",
    "Region": "Qld",
    "PostalCode": "4211",
    "Longitude": 153.3348,
    "Latitude": -27.957384
  },
  {
    "TenantName": "Teese, Lily",
    "UnitNumber": "5064",
    "BuildingNumber": 2.0,
    "Address": "13 Ben Lexcen Court",
    "City": "Mount Warren Park",
    "Region": "QLD",
    "PostalCode": "4207",
    "Longitude": 153.202157,
    "Latitude": -27.72659
  },
  {
    "TenantName": "Caputo, Melinda",
    "UnitNumber": "5058",
    "BuildingNumber": 2.0,
    "Address": "PO Box 1233",
    "City": "Oxenford",
    "Region": "Qld",
    "PostalCode": "4210",
    "Longitude": 152.927922,
    "Latitude": -27.186665
  },
  {
    "TenantName": "Sullivan, Allison",
    "UnitNumber": "3154",
    "BuildingNumber": 1.0,
    "Address": "14 Artists Avenue",
    "City": "Oxenford",
    "Region": "Qld",
    "PostalCode": "4210",
    "Longitude": 153.317048,
    "Latitude": -27.923579
  },
  {
    "TenantName": "Powell, Dennis",
    "UnitNumber": "4064",
    "BuildingNumber": 2.0,
    "Address": "27 Brittany Dr",
    "City": "Oxenford",
    "Region": "Qld",
    "PostalCode": "4210",
    "Longitude": 153.289276,
    "Latitude": -27.895106
  },
  {
    "TenantName": "Eaton, Stephen",
    "UnitNumber": "3012",
    "BuildingNumber": 1.0,
    "Address": "6074 Lugano Drive",
    "City": "Hope Island",
    "Region": "Qld",
    "PostalCode": "4212",
    "Longitude": 153.344866,
    "Latitude": -27.875293
  },
  {
    "TenantName": "Davey, Mark",
    "UnitNumber": "5186",
    "BuildingNumber": 2.0,
    "Address": "13/74 Universal Street",
    "City": "Pacfic Pines",
    "Region": "Queensland",
    "PostalCode": "4211",
    "Longitude": 153.31038,
    "Latitude": -27.938185
  },
  {
    "TenantName": "Jakovac, Renata",
    "UnitNumber": "5007",
    "BuildingNumber": 2.0,
    "Address": "45 Margaret Street",
    "City": "Southport",
    "Region": "Qld",
    "PostalCode": "4215",
    "Longitude": 153.400226,
    "Latitude": -27.975833
  },
  {
    "TenantName": "Kovic, Jeanette",
    "UnitNumber": "3006",
    "BuildingNumber": 1.0,
    "Address": "39-43 Brumby Drive",
    "City": "Woodhill",
    "Region": "QLD",
    "PostalCode": "4285",
    "Longitude": 152.970276,
    "Latitude": -27.87255
  },
  {
    "TenantName": "Borbidge, Rhys",
    "UnitNumber": "4071",
    "BuildingNumber": 2.0,
    "Address": "26 Jade Drive",
    "City": "Molendinar",
    "Region": "Qld",
    "PostalCode": "4214",
    "Longitude": 153.358063,
    "Latitude": -27.981394
  },
  {
    "TenantName": "Venero La Torre, Gabriela",
    "UnitNumber": "5167",
    "BuildingNumber": 2.0,
    "Address": "9 Glenn Ct",
    "City": "Worongary",
    "Region": "QLD",
    "PostalCode": "4213",
    "Longitude": 153.339712,
    "Latitude": -28.023437
  },
  {
    "TenantName": "Cook, David",
    "UnitNumber": "4020",
    "BuildingNumber": 2.0,
    "Address": "180 Heslop Road",
    "City": "Gaven",
    "Region": "Qld",
    "PostalCode": "4211",
    "Longitude": 153.335749,
    "Latitude": -27.938424
  },
  {
    "TenantName": "Cook, David",
    "UnitNumber": "4028",
    "BuildingNumber": 2.0,
    "Address": "180 Heslop Road",
    "City": "Gaven",
    "Region": "Qld",
    "PostalCode": "4211",
    "Longitude": 153.335749,
    "Latitude": -27.938424
  },
  {
    "TenantName": "Cook, David",
    "UnitNumber": "4028",
    "BuildingNumber": 2.0,
    "Address": "180 Heslop Road",
    "City": "Gaven",
    "Region": "Qld",
    "PostalCode": "4211",
    "Longitude": 153.335749,
    "Latitude": -27.938424
  },
  {
    "TenantName": "Cook, David",
    "UnitNumber": "4028",
    "BuildingNumber": 2.0,
    "Address": "180 Heslop Road",
    "City": "Gaven",
    "Region": "Qld",
    "PostalCode": "4211",
    "Longitude": 153.335749,
    "Latitude": -27.938424
  },
  {
    "TenantName": "Cannon, Daniel",
    "UnitNumber": "5187",
    "BuildingNumber": 2.0,
    "Address": "80 Michigan Drive,",
    "City": "Oxenford",
    "Region": "QLD",
    "PostalCode": "4210",
    "Longitude": 153.305798,
    "Latitude": -27.899935
  },
  {
    "TenantName": "Cook, David",
    "UnitNumber": "1090",
    "BuildingNumber": 1.0,
    "Address": "180 Heslop Road",
    "City": "Gaven",
    "Region": "Qld",
    "PostalCode": "4211",
    "Longitude": 153.335749,
    "Latitude": -27.938424
  },
  {
    "TenantName": "Mcmurrugh, Colby",
    "UnitNumber": "2092",
    "BuildingNumber": 1.0,
    "Address": "11 Pacific Place",
    "City": "Pacific Pines",
    "Region": "QLD",
    "PostalCode": "4211",
    "Longitude": 153.309854,
    "Latitude": -27.945781
  },
  {
    "TenantName": "Seres, Kurt",
    "UnitNumber": "5190",
    "BuildingNumber": 2.0,
    "Address": "4 Emira Place,",
    "City": "Pacific Pines",
    "Region": "QLD",
    "PostalCode": "4211",
    "Longitude": 153.332247,
    "Latitude": -27.941291
  },
  {
    "TenantName": "Stawaruk, Giorgia",
    "UnitNumber": "4068",
    "BuildingNumber": 2.0,
    "Address": "PO Box 453",
    "City": "Southport Business Centre",
    "Region": "Qld",
    "PostalCode": "4215",
    "Longitude": 138.596713,
    "Latitude": -34.849969
  },
  {
    "TenantName": "Horn, Michael",
    "UnitNumber": "5310",
    "BuildingNumber": 2.0,
    "Address": "12 River Heights Road",
    "City": "Upper Coomera",
    "Region": "Qld",
    "PostalCode": "4209",
    "Longitude": 153.302367,
    "Latitude": -27.877425
  },
  {
    "TenantName": "Willetts, Abbi",
    "UnitNumber": "5132",
    "BuildingNumber": 2.0,
    "Address": "1/24 Rogoona St",
    "City": "Morningside",
    "Region": "QLD",
    "PostalCode": "4170",
    "Longitude": 153.071158,
    "Latitude": -27.467462
  },
  {
    "TenantName": "Wayne, Elizabeth",
    "UnitNumber": "3077",
    "BuildingNumber": 1.0,
    "Address": "45 Crest Hill Drive",
    "City": "Wongawallan",
    "Region": "Qld",
    "PostalCode": "4218",
    "Longitude": 153.243039,
    "Latitude": -27.872976
  },
  {
    "TenantName": "Cobbett, Richard",
    "UnitNumber": "4019",
    "BuildingNumber": 2.0,
    "Address": "46/1 Lake Serenity Blvd",
    "City": "Helensvale",
    "Region": "Qld",
    "PostalCode": "4212",
    "Longitude": 153.368165,
    "Latitude": -27.890144
  },
  {
    "TenantName": "Welch, Emily",
    "UnitNumber": "3062",
    "BuildingNumber": 1.0,
    "Address": "26 Cootharaba Drive",
    "City": "Helensvale",
    "Region": "QLD",
    "PostalCode": "4212",
    "Longitude": 153.342198,
    "Latitude": -27.906316
  },
  {
    "TenantName": "Boeren, Jasmine",
    "UnitNumber": "2036",
    "BuildingNumber": 1.0,
    "Address": "10 Faraday Crescent",
    "City": "Pacific Pines",
    "Region": "Qld",
    "PostalCode": "4211",
    "Longitude": 153.305601,
    "Latitude": -27.950015
  },
  {
    "TenantName": "Bosworth, Angela",
    "UnitNumber": "1025",
    "BuildingNumber": 1.0,
    "Address": "8 Antipodes Close",
    "City": "Pacific Pines",
    "Region": "Qld",
    "PostalCode": "4211",
    "Longitude": 153.328936,
    "Latitude": -27.943362
  },
  {
    "TenantName": "Harris, Dene",
    "UnitNumber": "5189",
    "BuildingNumber": 2.0,
    "Address": "1/3 Garfield Terrace",
    "City": "Surfers Paradise",
    "Region": "Qld",
    "PostalCode": "4217",
    "Longitude": 153.431755,
    "Latitude": -28.011252
  },
  {
    "TenantName": "Caton, Justin",
    "UnitNumber": "2162",
    "BuildingNumber": 1.0,
    "Address": "2/12 Metro Crescent",
    "City": "Oxenford",
    "Region": "Qld",
    "PostalCode": "4210",
    "Longitude": 153.325616,
    "Latitude": -27.924886
  },

  {
    "TenantName": "Hosler, Stephen",
    "UnitNumber": "5192",
    "BuildingNumber": 2.0,
    "Address": "11 Coonardoo Court",
    "City": "Wongawallen",
    "Region": "Qld",
    "PostalCode": "4210",
    "Longitude": 153.234967,
    "Latitude": -27.875607
  },
  {
    "TenantName": "Macpherson, Hamish",
    "UnitNumber": "2055",
    "BuildingNumber": 1.0,
    "Address": "Unit 4306/88 The Esplanade",
    "City": "Surfers Paradise",
    "Region": "Qld",
    "PostalCode": "4218",
    "Longitude": 147.983115,
    "Latitude": -35.641505
  },
  {
    "TenantName": "Cook, David",
    "UnitNumber": "3037",
    "BuildingNumber": 1.0,
    "Address": "180 Heslop Road",
    "City": "Gaven",
    "Region": "Qld",
    "PostalCode": "4211",
    "Longitude": 153.335749,
    "Latitude": -27.938424
  },
  {
    "TenantName": "Cook, David",
    "UnitNumber": "3037",
    "BuildingNumber": 1.0,
    "Address": "180 Heslop Road",
    "City": "Gaven",
    "Region": "Qld",
    "PostalCode": "4211",
    "Longitude": 153.335749,
    "Latitude": -27.938424
  },
  {
    "TenantName": "Cook, David",
    "UnitNumber": "3037",
    "BuildingNumber": 1.0,
    "Address": "180 Heslop Road",
    "City": "Gaven",
    "Region": "Qld",
    "PostalCode": "4211",
    "Longitude": 153.335749,
    "Latitude": -27.938424
  },
  {
    "TenantName": "Ahern, Bridgette",
    "UnitNumber": "4110",
    "BuildingNumber": 2.0,
    "Address": "33 Ranch Street",
    "City": "Tingalpa",
    "Region": "Qld",
    "PostalCode": "4173",
    "Longitude": 153.126804,
    "Latitude": -27.471455
  },
  {
    "TenantName": "Chijoff, Gregory",
    "UnitNumber": "L21",
    "BuildingNumber": 1.0,
    "Address": "PO Box 612",
    "City": "Chirn Park",
    "Region": "QLD",
    "PostalCode": "4215",
    "Longitude": 153.399785,
    "Latitude": -27.955509
  },
  {
    "TenantName": "Haller, Brian",
    "UnitNumber": "L25",
    "BuildingNumber": 1.0,
    "Address": "19 Farm Road",
    "City": "Ruby Whale",
    "Region": "Qld",
    "PostalCode": "4702",
    "Longitude": 147.70061,
    "Latitude": -23.417062
  },
  {
    "TenantName": "Paasma, Silver",
    "UnitNumber": "2080",
    "BuildingNumber": 1.0,
    "Address": "106 Armstrong Way",
    "City": "Highland Park",
    "Region": "QLD",
    "PostalCode": "4211",
    "Longitude": 153.32665,
    "Latitude": -28.019269
  },
  {
    "TenantName": "Chapman, Natasha",
    "UnitNumber": "3065",
    "BuildingNumber": 1.0,
    "Address": "39 Peranga Street",
    "City": "Manly",
    "Region": "Qld",
    "PostalCode": "4179",
    "Longitude": 153.177484,
    "Latitude": -27.455266
  },
  {
    "TenantName": "Stawaruk, Giorgia",
    "UnitNumber": "4143",
    "BuildingNumber": 2.0,
    "Address": "PO Box 453",
    "City": "Southport Business Centre",
    "Region": "Qld",
    "PostalCode": "4215",
    "Longitude": 138.596713,
    "Latitude": -34.849969
  },
  {
    "TenantName": "Eckart, Jamie",
    "UnitNumber": "1039",
    "BuildingNumber": 1.0,
    "Address": "8 Park Street",
    "City": "Maudsland",
    "Region": "Qld",
    "PostalCode": "4210",
    "Longitude": 153.291261,
    "Latitude": -27.921637
  },
  {
    "TenantName": "Connery, Darren",
    "UnitNumber": "2079",
    "BuildingNumber": 1.0,
    "Address": "C/o 10/37 Azure Way",
    "City": "Hope Island",
    "Region": "Qld",
    "PostalCode": "4212",
    "Longitude": 153.357706,
    "Latitude": -27.873206
  },
 
  {
    "TenantName": "Borm, Gavin",
    "UnitNumber": "4128",
    "BuildingNumber": 2.0,
    "Address": "28 Allspice Drive",
    "City": "Ashmore",
    "Region": "Qld",
    "PostalCode": "4214",
    "Longitude": 153.390323,
    "Latitude": -27.992446
  },
  {
    "TenantName": "King, Nick",
    "UnitNumber": "5188",
    "BuildingNumber": 2.0,
    "Address": "62 Rivermill Tce",
    "City": "Maudsland",
    "Region": "Qld",
    "PostalCode": "4210",
    "Longitude": 153.274812,
    "Latitude": -27.911726
  },
  {
    "TenantName": "Porter, Sharon",
    "UnitNumber": "1068",
    "BuildingNumber": 1.0,
    "Address": "Unit 2/28 Careel Close",
    "City": "Helensvale",
    "Region": "Qld",
    "PostalCode": "4212",
    "Longitude": 153.33767,
    "Latitude": -27.91979
  },
  {
    "TenantName": "Stawaruk, Giorgia",
    "UnitNumber": "4070",
    "BuildingNumber": 2.0,
    "Address": "PO Box 453",
    "City": "Southport Business Centre",
    "Region": "Qld",
    "PostalCode": "4215",
    "Longitude": 138.596713,
    "Latitude": -34.849969
  },
  {
    "TenantName": "Kua, Erlinda",
    "UnitNumber": "5153",
    "BuildingNumber": 2.0,
    "Address": "3 Daintree Drive",
    "City": "Parkwood",
    "Region": "Qld",
    "PostalCode": "4214",
    "Longitude": 153.348061,
    "Latitude": -27.948699
  },
  {
    "TenantName": "Burton, Dennis",
    "UnitNumber": "4080",
    "BuildingNumber": 2.0,
    "Address": "2/16 Inga Avenue",
    "City": "Surfers Paradise",
    "Region": "Qld",
    "PostalCode": "4217",
    "Longitude": 153.41481,
    "Latitude": -28.00464
  },
  {
    "TenantName": "Stawaruk, Giorgia",
    "UnitNumber": "4111",
    "BuildingNumber": 2.0,
    "Address": "Level 1, 28-30 Queen Street",
    "City": "Chippendale",
    "Region": "NSW",
    "PostalCode": "2008",
    "Longitude": 151.200985,
    "Latitude": -33.886858
  },
  {
    "TenantName": "Stawaruk, Giorgia",
    "UnitNumber": "4111",
    "BuildingNumber": 2.0,
    "Address": "Level 1, 28-30 Queen Street",
    "City": "Chippendale",
    "Region": "NSW",
    "PostalCode": "2008",
    "Longitude": 151.200985,
    "Latitude": -33.886858
  },
  {
    "TenantName": "Stawaruk, Giorgia",
    "UnitNumber": "4111",
    "BuildingNumber": 2.0,
    "Address": "Level 1, 28-30 Queen Street",
    "City": "Chippendale",
    "Region": "NSW",
    "PostalCode": "2008",
    "Longitude": 151.200985,
    "Latitude": -33.886858
  },
  {
    "TenantName": "Gomez, Anderson",
    "UnitNumber": "L600",
    "BuildingNumber": 1.0,
    "Address": "201/9 Machinery St",
    "City": "Bowen Hills",
    "Region": "QLD",
    "PostalCode": "4006",
    "Longitude": 153.032941,
    "Latitude": -27.452608
  },
  {
    "TenantName": "Johansen, Wesley",
    "UnitNumber": "5136",
    "BuildingNumber": 2.0,
    "Address": "7 High Ridge Road",
    "City": "Gaven",
    "Region": "Qld",
    "PostalCode": "4211",
    "Longitude": 153.329503,
    "Latitude": -27.93189
  },
  {
    "TenantName": "Fairall, Eric",
    "UnitNumber": "4142",
    "BuildingNumber": 2.0,
    "Address": "PO Box 49",
    "City": "Cleveland",
    "Region": "QLD",
    "PostalCode": "4163",
    "Longitude": 153.044536,
    "Latitude": -27.500507
  },
  {
    "TenantName": "Fairall, Eric",
    "UnitNumber": "4141",
    "BuildingNumber": 2.0,
    "Address": "PO Box 49",
    "City": "Cleveland",
    "Region": "QLD",
    "PostalCode": "4163",
    "Longitude": 153.044536,
    "Latitude": -27.500507
  },
  {
    "TenantName": "Valenzuela, Edith",
    "UnitNumber": "2010",
    "BuildingNumber": 1.0,
    "Address": "12 Longcove Place",
    "City": "Peregian Springs",
    "Region": "Qld",
    "PostalCode": "4573",
    "Longitude": 153.070611,
    "Latitude": -26.483136
  },
  {
    "TenantName": "Mather, Stacey",
    "UnitNumber": "5004",
    "BuildingNumber": 2.0,
    "Address": "24 Codrington Crt",
    "City": "Pacific Pines",
    "Region": "Qld",
    "PostalCode": "4211",
    "Longitude": 153.310454,
    "Latitude": -27.94771
  },
  {
    "TenantName": "Adams, Kevin",
    "UnitNumber": "4079",
    "BuildingNumber": 2.0,
    "Address": "35 Synergy Drive",
    "City": "Coomera",
    "Region": "Qld",
    "PostalCode": "4209",
    "Longitude": 153.340639,
    "Latitude": -27.845822
  },
  {
    "TenantName": "Jenkins, Ricki",
    "UnitNumber": "5082",
    "BuildingNumber": 2.0,
    "Address": "9 Kurrawa Avenue",
    "City": "Mermaid Waters",
    "Region": "Qld",
    "PostalCode": "4218",
    "Longitude": 153.43375,
    "Latitude": -28.052662
  },
  {
    "TenantName": "Fletcher, Mark",
    "UnitNumber": "3009",
    "BuildingNumber": 1.0,
    "Address": "Site 84, 2 Reserve Road",
    "City": "Upper Coomera",
    "Region": "Qld",
    "PostalCode": "4209",
    "Longitude": 153.284502,
    "Latitude": -27.896699
  },
  {
    "TenantName": "Jarvis, Emma",
    "UnitNumber": "3159",
    "BuildingNumber": 1.0,
    "Address": "271 Austinville Rd",
    "City": "Austinville",
    "Region": "QLD",
    "PostalCode": "4213",
    "Longitude": 153.320155,
    "Latitude": -28.137313
  },
  {
    "TenantName": "McCombe, Simon",
    "UnitNumber": "5009",
    "BuildingNumber": 2.0,
    "Address": "23 Casey Street",
    "City": "Pimpama",
    "Region": "Qld",
    "PostalCode": "4209",
    "Longitude": 153.287598,
    "Latitude": -27.814201
  },
  {
    "TenantName": "Phillips, Cassy",
    "UnitNumber": "1030",
    "BuildingNumber": 1.0,
    "Address": "1/8 Pirelli Street",
    "City": "Pacific Pines",
    "Region": "QLD",
    "PostalCode": "4211",
    "Longitude": 153.326772,
    "Latitude": -27.933191
  },
  {
    "TenantName": "Shapter, John",
    "UnitNumber": "5061",
    "BuildingNumber": 2.0,
    "Address": "14 Springdale Street",
    "City": "Upper Coomera",
    "Region": "Qld",
    "PostalCode": "4209",
    "Longitude": 153.299042,
    "Latitude": -27.856634
  },
  {
    "TenantName": "Kumar, Kirti",
    "UnitNumber": "2059",
    "BuildingNumber": 1.0,
    "Address": "14 Respall Way",
    "City": "Arundel",
    "Region": "QLD",
    "PostalCode": "4214",
    "Longitude": 153.354041,
    "Latitude": -27.937281
  },
  {
    "TenantName": "Pervan, Susan",
    "UnitNumber": "4061",
    "BuildingNumber": 2.0,
    "Address": "8 Hillgrove Court",
    "City": "Oxenford",
    "Region": "Qld",
    "PostalCode": "4210",
    "Longitude": 153.299443,
    "Latitude": -27.897471
  },
  {
    "TenantName": "Jang, Suo (Nick)",
    "UnitNumber": "5191",
    "BuildingNumber": 2.0,
    "Address": "48/2 Town Centre Close",
    "City": "Carrara",
    "Region": "QLD",
    "PostalCode": "4211",
    "Longitude": 153.373448,
    "Latitude": -28.015584
  },
  {
    "TenantName": "Jennings, Darryn",
    "UnitNumber": "1020",
    "BuildingNumber": 1.0,
    "Address": "PO Box 3292",
    "City": "Helensvale Town Centre",
    "Region": "Qld",
    "PostalCode": "4212",
    "Longitude": 153.339389,
    "Latitude": -27.891731
  },
  {
    "TenantName": "Rivett, Nathan",
    "UnitNumber": "5062",
    "BuildingNumber": 2.0,
    "Address": "43 Village Way",
    "City": "Oxenford",
    "Region": "Qld",
    "PostalCode": "4210",
    "Longitude": 153.316275,
    "Latitude": -27.921679
  },
  {
    "TenantName": "Harper, Steve",
    "UnitNumber": "5184",
    "BuildingNumber": 2.0,
    "Address": "3 Ozone Parade",
    "City": "Miami",
    "Region": "Qld",
    "PostalCode": "4220",
    "Longitude": 153.434444,
    "Latitude": -28.064263
  },
  {
    "TenantName": "Auld, Robert",
    "UnitNumber": "2104",
    "BuildingNumber": 1.0,
    "Address": "24 Iando Street",
    "City": "Coombabah",
    "Region": "Qld",
    "PostalCode": "4216",
    "Longitude": 153.376149,
    "Latitude": -27.896928
  },
  {
    "TenantName": "Macey, Charlotte",
    "UnitNumber": "L09",
    "BuildingNumber": 1.0,
    "Address": "3 Miller Street",
    "City": "Melbourne",
    "Region": "Vic",
    "PostalCode": "3181",
    "Longitude": 145.001865,
    "Latitude": -37.848459
  },
  {
    "TenantName": "Baghurst, Gregory",
    "UnitNumber": "L601",
    "BuildingNumber": 1.0,
    "Address": "19 Arlene Park Terrace",
    "City": "Helensvale",
    "Region": "Qld",
    "PostalCode": "4212",
    "Longitude": 153.33675,
    "Latitude": -27.886552
  },
  {
    "TenantName": "Madan, Joy",
    "UnitNumber": "4112",
    "BuildingNumber": 2.0,
    "Address": "11 Helensvale Rd",
    "City": "Helensvale",
    "Region": "Qld",
    "PostalCode": "4212",
    "Longitude": 153.3202,
    "Latitude": -27.904132
  },
  {
    "TenantName": "Nelson, Sarah",
    "UnitNumber": "2073",
    "BuildingNumber": 1.0,
    "Address": "73 Brighton Street",
    "City": "Biggera Waters",
    "Region": "QLD",
    "PostalCode": "4216",
    "Longitude": 153.405021,
    "Latitude": -27.93214
  },
  {
    "TenantName": "Cook, David",
    "UnitNumber": "1054",
    "BuildingNumber": 1.0,
    "Address": "180 Heslop Road",
    "City": "Gaven",
    "Region": "Qld",
    "PostalCode": "4211",
    "Longitude": 153.335749,
    "Latitude": -27.938424
  },
  {
    "TenantName": "Pietrini, Logan",
    "UnitNumber": "4104",
    "BuildingNumber": 2.0,
    "Address": "1209/17 Bath Street",
    "City": "Labrador",
    "Region": "Qld",
    "PostalCode": "4215",
    "Longitude": 153.405867,
    "Latitude": -27.93949
  },
  {
    "TenantName": "Matarrelli, Bruno",
    "UnitNumber": "4017",
    "BuildingNumber": 2.0,
    "Address": "59 Springwood Avenue",
    "City": "Pacific Pines",
    "Region": "QLD",
    "PostalCode": "4211",
    "Longitude": 153.304216,
    "Latitude": -27.941444
  },
  {
    "TenantName": "Standring, Denyce",
    "UnitNumber": "3019",
    "BuildingNumber": 1.0,
    "Address": "41 MidwayTce",
    "City": "Pacific Pines",
    "Region": "QLD",
    "PostalCode": "4211",
    "Longitude": 153.326772,
    "Latitude": -27.933191
  }

]

