[
  {
    "SiteID":51104,
    "TenantName":"Kharel, Nirmal",
    "Address":"0414802504",
    "City":"PIMPAMA (QLD)",
    "Region":"QLD",
    "PostalCode":"4209",
    "FullAddress":"0414802504, PIMPAMA (QLD), QLD, 4209, Australia",
    "Longitude":138.603055,
    "Latitude":-34.908545
  },
  {
    "SiteID":51104,
    "TenantName":"Bryant & Reeve, Russell, Ros",
    "Address":"8 Brumm Court",
    "City":"Ormeau Hils",
    "Region":"Qld",
    "PostalCode":"4208",
    "FullAddress":"8 Brumm Court, Ormeau Hils, Qld, 4208, Australia",
    "Longitude":153.253793,
    "Latitude":-27.793465
  },
  {
    "SiteID":51104,
    "TenantName":"Mcbean, Stuart",
    "Address":"52 Lauradale Crescent",
    "City":"Ormeau",
    "Region":"QLD",
    "PostalCode":"4208",
    "FullAddress":"52 Lauradale Crescent, Ormeau, QLD, 4208, Australia",
    "Longitude":153.270843,
    "Latitude":-27.776458
  },
  {
    "SiteID":51104,
    "TenantName":"Edwards, Grant",
    "Address":"L24 180 Ann St",
    "City":"Brisbane",
    "Region":"QLD",
    "PostalCode":"4000",
    "FullAddress":"L24 180 Ann St, Brisbane, QLD, 4000, Australia",
    "Longitude":153.024377,
    "Latitude":-27.466887
  },
  {
    "SiteID":51104,
    "TenantName":"Barrett, Vincent",
    "Address":"unit 1 136 Bryants oad",
    "City":"Shailer Park",
    "Region":"QLD",
    "PostalCode":"4128",
    "FullAddress":"unit 1 136 Bryants oad, Shailer Park, QLD, 4128, Australia",
    "Longitude":153.185903,
    "Latitude":-27.665181
  },
  {
    "SiteID":51104,
    "TenantName":"Healy, Leroy",
    "Address":"4 Gemini Circuit",
    "City":"Coomera",
    "Region":"QLD",
    "PostalCode":"4209",
    "FullAddress":"4 Gemini Circuit, Coomera, QLD, 4209, Australia",
    "Longitude":153.329122,
    "Latitude":-27.836443
  },
  {
    "SiteID":51104,
    "TenantName":"Batchelor, Kayla",
    "Address":"5,79 Dorset drive rochedale south",
    "City":"Brisbane",
    "Region":"Qld",
    "PostalCode":"4123",
    "FullAddress":"5,79 Dorset drive rochedale south, Brisbane, Qld, 4123, Australia",
    "Longitude":153.139278,
    "Latitude":-27.607639
  },
  {
    "SiteID":51104,
    "TenantName":"Caslick, Tanya",
    "Address":"33 strathburn crescent",
    "City":"Ormeau",
    "Region":"Qld",
    "PostalCode":"4208",
    "FullAddress":"33 strathburn crescent, Ormeau, Qld, 4208, Australia",
    "Longitude":153.27312,
    "Latitude":-27.777143
  },
  {
    "SiteID":51104,
    "TenantName":"Ross, Sharon",
    "Address":"17 Custodian Crescent",
    "City":"Ormeau",
    "Region":"Qld",
    "PostalCode":"4208",
    "FullAddress":"17 Custodian Crescent, Ormeau, Qld, 4208, Australia",
    "Longitude":153.264106,
    "Latitude":-27.791904
  },
  {
    "SiteID":51104,
    "TenantName":"Licciardo, Joan",
    "Address":"11 Lindsay Crt",
    "City":"Cornubia",
    "Region":"QLD",
    "PostalCode":"4130",
    "FullAddress":"11 Lindsay Crt, Cornubia, QLD, 4130, Australia",
    "Longitude":153.198178,
    "Latitude":-27.661686
  },
  {
    "SiteID":51104,
    "TenantName":"White, Cidney",
    "Address":"6 Keyatta Street",
    "City":"Zillmere",
    "Region":"QLD",
    "PostalCode":"4032",
    "FullAddress":"6 Keyatta Street, Zillmere, QLD, 4032, Australia",
    "Longitude":153.046298,
    "Latitude":-27.352803
  },
  {
    "SiteID":51104,
    "TenantName":"Hopkins, Craig",
    "Address":"unit 15 430 Gainsborough Drive",
    "City":"Pimpama",
    "Region":"QLD",
    "PostalCode":"4208",
    "FullAddress":"unit 15 430 Gainsborough Drive, Pimpama, QLD, 4208, Australia",
    "Longitude":153.306286,
    "Latitude":-27.821925
  },
  {
    "SiteID":51104,
    "TenantName":"Cohen, Ann",
    "Address":"46 Rix Drive",
    "City":"Upper Coomera",
    "Region":"QLD",
    "PostalCode":"4209",
    "FullAddress":"46 Rix Drive, Upper Coomera, QLD, 4209, Australia",
    "Longitude":153.296812,
    "Latitude":-27.863585
  },
  {
    "SiteID":51104,
    "TenantName":"Araujo-perez, Silvia",
    "Address":"24 ellenborough ave",
    "City":"Ormeau Hills",
    "Region":"QLD",
    "PostalCode":"4208",
    "FullAddress":"24 ellenborough ave, Ormeau Hills, QLD, 4208, Australia",
    "Longitude":153.252511,
    "Latitude":-27.800474
  },
  {
    "SiteID":51104,
    "TenantName":"English, Stuart",
    "Address":"20 Matthews Crescent",
    "City":"Pimpama",
    "Region":"QLD",
    "PostalCode":"4209",
    "FullAddress":"20 Matthews Crescent, Pimpama, QLD, 4209, Australia",
    "Longitude":153.282886,
    "Latitude":-27.821936
  },
  {
    "SiteID":51104,
    "TenantName":"Kane, Jess",
    "Address":"19 Melville Drive",
    "City":"Pimpama",
    "Region":"QLD",
    "PostalCode":"4208",
    "FullAddress":"19 Melville Drive, Pimpama, QLD, 4208, Australia",
    "Longitude":153.327182,
    "Latitude":-27.820526
  },
  {
    "SiteID":51104,
    "TenantName":"Clarke, Annette",
    "Address":"3 Meg Lane",
    "City":"Coomera",
    "Region":"QLD",
    "PostalCode":"24209",
    "FullAddress":"3 Meg Lane, Coomera, QLD, 24209, Australia",
    "Longitude":153.334275,
    "Latitude":-27.827323
  },
  {
    "SiteID":51104,
    "TenantName":"Galt, Colin",
    "Address":"106 Fountain St PIMPAMA, 4209 QLD Austra",
    "City":"Pimpana",
    "Region":"Queensland",
    "PostalCode":"4209",
    "FullAddress":"106 Fountain St PIMPAMA, 4209 QLD Austra, Pimpana, Queensland, 4209, Australia",
    "Longitude":153.287332,
    "Latitude":-27.81531
  },
  {
    "SiteID":51104,
    "TenantName":"Cumming, Kyal",
    "Address":"5 Lilyvale Cresent",
    "City":"Ormeau",
    "Region":"QLD",
    "PostalCode":"4208",
    "FullAddress":"5 Lilyvale Cresent, Ormeau, QLD, 4208, Australia",
    "Longitude":153.269467,
    "Latitude":-27.774244
  },
  {
    "SiteID":51104,
    "TenantName":"Cook, Adam",
    "Address":"unit 1 39 Fountain St",
    "City":"Pimpama",
    "Region":"QLD",
    "PostalCode":"4208",
    "FullAddress":"unit 1 39 Fountain St, Pimpama, QLD, 4208, Australia",
    "Longitude":153.289144,
    "Latitude":-27.813598
  },
  {
    "SiteID":51104,
    "TenantName":"Turoczi, Rob",
    "Address":"36 Collingrove Circuit",
    "City":"Pimpama",
    "Region":"QLD",
    "PostalCode":"4209",
    "FullAddress":"36 Collingrove Circuit, Pimpama, QLD, 4209, Australia",
    "Longitude":153.324172,
    "Latitude":-27.826694
  },
  {
    "SiteID":51104,
    "TenantName":"Wall, Narelle",
    "Address":"29 Andromeda Dr",
    "City":"Coomera",
    "Region":"Qld",
    "PostalCode":"4209",
    "FullAddress":"29 Andromeda Dr, Coomera, Qld, 4209, Australia",
    "Longitude":153.331019,
    "Latitude":-27.845846
  },
  {
    "SiteID":51104,
    "TenantName":"Jacklin, Joseph",
    "Address":"270 Proud Road",
    "City":"Burbank",
    "Region":"QLD",
    "PostalCode":"4156",
    "FullAddress":"270 Proud Road, Burbank, QLD, 4156, Australia",
    "Longitude":153.142578,
    "Latitude":-27.526658
  },
  {
    "SiteID":51104,
    "TenantName":"Murdock, Janet",
    "Address":"6 NightShade Crescent",
    "City":"Pimpama",
    "Region":"QLD",
    "PostalCode":"4209",
    "FullAddress":"6 NightShade Crescent, Pimpama, QLD, 4209, Australia",
    "Longitude":153.288045,
    "Latitude":-27.827544
  },
  {
    "SiteID":51104,
    "TenantName":"Magallanes, Tania",
    "Address":"38 Cassidy Crescent",
    "City":"Willow Vale",
    "Region":"QLD",
    "PostalCode":"4208",
    "FullAddress":"38 Cassidy Crescent, Willow Vale, QLD, 4208, Australia",
    "Longitude":153.283909,
    "Latitude":-27.830073
  },
  {
    "SiteID":51104,
    "TenantName":"Slasor, Meredith",
    "Address":"94 Girtin Circuit",
    "City":"Pimpama",
    "Region":"QLD",
    "PostalCode":"4209",
    "FullAddress":"94 Girtin Circuit, Pimpama, QLD, 4209, Australia",
    "Longitude":153.327264,
    "Latitude":-27.830808
  },
  {
    "SiteID":51104,
    "TenantName":"Lamb, Michelle",
    "Address":"74 Peachey Road",
    "City":"Ormeau",
    "Region":"QLD",
    "PostalCode":"4208",
    "FullAddress":"74 Peachey Road, Ormeau, QLD, 4208, Australia",
    "Longitude":153.239556,
    "Latitude":-27.781558
  },
  {
    "SiteID":51104,
    "TenantName":"Townson, Ryan",
    "Address":"36 Proudlock Drive",
    "City":"Willow Vale",
    "Region":"QLD",
    "PostalCode":"4209",
    "FullAddress":"36 Proudlock Drive, Willow Vale, QLD, 4209, Australia",
    "Longitude":153.246527,
    "Latitude":-27.836494
  },
  {
    "SiteID":51104,
    "TenantName":"Shannon, Ben",
    "Address":"94 Bridie Dr",
    "City":"Upper Coomera",
    "Region":"QLD",
    "PostalCode":"4209",
    "FullAddress":"94 Bridie Dr, Upper Coomera, QLD, 4209, Australia",
    "Longitude":153.287575,
    "Latitude":-27.848959
  },
  {
    "SiteID":51104,
    "TenantName":"Potts, John",
    "Address":"37 Jasmine Circuit",
    "City":"Ormeau",
    "Region":"QLD",
    "PostalCode":"4208",
    "FullAddress":"37 Jasmine Circuit, Ormeau, QLD, 4208, Australia",
    "Longitude":153.268312,
    "Latitude":-27.782857
  },
  {
    "SiteID":51104,
    "TenantName":"Booth, Justin",
    "Address":"35 Matthews Crescent",
    "City":"Pimpama",
    "Region":"QLD",
    "PostalCode":"4209",
    "FullAddress":"35 Matthews Crescent, Pimpama, QLD, 4209, Australia",
    "Longitude":153.284887,
    "Latitude":-27.819879
  },
  {
    "SiteID":51104,
    "TenantName":"Hamilton, Daisy",
    "Address":"12 Moonstone St",
    "City":"Pimpama",
    "Region":"QLD",
    "PostalCode":"4209",
    "FullAddress":"12 Moonstone St, Pimpama, QLD, 4209, Australia",
    "Longitude":153.308869,
    "Latitude":-27.834572
  },
  {
    "SiteID":51104,
    "TenantName":"Carpenter, Kobe",
    "Address":"7a lilyvale Cr",
    "City":"Ormeau",
    "Region":"QLD",
    "PostalCode":"4208",
    "FullAddress":"7a lilyvale Cr, Ormeau, QLD, 4208, Australia",
    "Longitude":153.269412,
    "Latitude":-27.774072
  },
  {
    "SiteID":51104,
    "TenantName":"Murray, Penney",
    "Address":"Unit 8, 214-224 Lahrs Road",
    "City":"Ormeau",
    "Region":"Qld",
    "PostalCode":"4208",
    "FullAddress":"Unit 8, 214-224 Lahrs Road, Ormeau, Qld, 4208, Australia",
    "Longitude":153.253481,
    "Latitude":-27.778453
  },
  {
    "SiteID":51104,
    "TenantName":"Minchinton, Grace",
    "Address":"47 Fairview drive",
    "City":"Willow vale",
    "Region":"Qld",
    "PostalCode":"4209",
    "FullAddress":"47 Fairview drive, Willow vale, Qld, 4209, Australia",
    "Longitude":153.259212,
    "Latitude":-27.836905
  },
  {
    "SiteID":51104,
    "TenantName":"Andrews, Benjamin",
    "Address":"25 Ioannou Place",
    "City":"Coomera",
    "Region":"QLD",
    "PostalCode":"4209",
    "FullAddress":"25 Ioannou Place, Coomera, QLD, 4209, Australia",
    "Longitude":153.344248,
    "Latitude":-27.83793
  },
  {
    "SiteID":51104,
    "TenantName":"Moore, Georgia",
    "Address":"3 Ridgevale boulevard",
    "City":"Holmview",
    "Region":"QLD",
    "PostalCode":"4207",
    "FullAddress":"3 Ridgevale boulevard, Holmview, QLD, 4207, Australia",
    "Longitude":153.159413,
    "Latitude":-27.714852
  },
  {
    "SiteID":51104,
    "TenantName":"Mcintyre, Joel",
    "Address":"suite 3, level 2, enterprise",
    "City":"Woolloongong",
    "Region":"NSW",
    "PostalCode":"2500",
    "FullAddress":"suite 3, level 2, enterprise, Woolloongong, NSW, 2500, Australia",
    "Longitude":151.315005,
    "Latitude":-33.516813
  },
  {
    "SiteID":51104,
    "TenantName":"Martin, Ashka",
    "Address":"16 Moss Terrace",
    "City":"Pimpama",
    "Region":"Qld",
    "PostalCode":"4209",
    "FullAddress":"16 Moss Terrace, Pimpama, Qld, 4209, Australia",
    "Longitude":153.281711,
    "Latitude":-27.8233
  },
  {
    "SiteID":51104,
    "TenantName":"Thompson, Michael",
    "Address":"24 Caitlin Crescent",
    "City":"Broulee",
    "Region":"NSW",
    "PostalCode":"2537",
    "FullAddress":"24 Caitlin Crescent, Broulee, NSW, 2537, Australia",
    "Longitude":150.172275,
    "Latitude":-35.841535
  },
  {
    "SiteID":51104,
    "TenantName":"Mckenzie, Karyn",
    "Address":"20 Akoonah Street",
    "City":"Hope Island",
    "Region":"Qld",
    "PostalCode":"4212",
    "FullAddress":"20 Akoonah Street, Hope Island, Qld, 4212, Australia",
    "Longitude":153.353386,
    "Latitude":-27.856078
  },
  {
    "SiteID":51104,
    "TenantName":"Morrow, Corinne",
    "Address":"36 Oxford Street",
    "City":"Pimpama",
    "Region":"Qld",
    "PostalCode":"4209",
    "FullAddress":"36 Oxford Street, Pimpama, Qld, 4209, Australia",
    "Longitude":153.315326,
    "Latitude":-27.834741
  },
  {
    "SiteID":51104,
    "TenantName":"Hulm, Ben",
    "Address":"1477 Ipswich Road",
    "City":"Rocklea",
    "Region":"Qld",
    "PostalCode":"4106",
    "FullAddress":"1477 Ipswich Road, Rocklea, Qld, 4106, Australia",
    "Longitude":153.007135,
    "Latitude":-27.549061
  },
  {
    "SiteID":51104,
    "TenantName":"Wells, Okahu",
    "Address":"38 Marshall Cct",
    "City":"Coomera",
    "Region":"QLD",
    "PostalCode":"4208",
    "FullAddress":"38 Marshall Cct, Coomera, QLD, 4208, Australia",
    "Longitude":153.342217,
    "Latitude":-27.834018
  },
  {
    "SiteID":51104,
    "TenantName":"Mehta, Harsh",
    "Address":"7 \/ 27 Fortune Street",
    "City":"Coomera",
    "Region":"QLD",
    "PostalCode":"4209",
    "FullAddress":"7 \/ 27 Fortune Street, Coomera, QLD, 4209, Australia",
    "Longitude":153.317781,
    "Latitude":-27.874592
  },
  {
    "SiteID":51104,
    "TenantName":"Gurnani, Vijai",
    "Address":"13 myrtle ave",
    "City":"Ormeau",
    "Region":"QLD",
    "PostalCode":"4208",
    "FullAddress":"13 myrtle ave, Ormeau, QLD, 4208, Australia",
    "Longitude":153.270932,
    "Latitude":-27.781727
  },
  {
    "SiteID":51104,
    "TenantName":"Hennessy, Todd",
    "Address":"72 Ningaloo Drive",
    "City":"Pimpama",
    "Region":"Qld",
    "PostalCode":"4209",
    "FullAddress":"72 Ningaloo Drive, Pimpama, Qld, 4209, Australia",
    "Longitude":153.303569,
    "Latitude":-27.815544
  },
  {
    "SiteID":51104,
    "TenantName":"Vickers, Anthea",
    "Address":"1-49 Dandalup Ave",
    "City":"Ormeau Hills",
    "Region":"QLD",
    "PostalCode":"4208",
    "FullAddress":"1-49 Dandalup Ave, Ormeau Hills, QLD, 4208, Australia",
    "Longitude":153.249837,
    "Latitude":-27.798196
  },
  {
    "SiteID":51104,
    "TenantName":"Ndjobanti, Henri",
    "Address":"18 Tallowood Street",
    "City":"Spring Mountain",
    "Region":"Qld",
    "PostalCode":"4300",
    "FullAddress":"18 Tallowood Street, Spring Mountain, Qld, 4300, Australia",
    "Longitude":152.904876,
    "Latitude":-27.69765
  },
  {
    "SiteID":51104,
    "TenantName":"Howell, Robert",
    "Address":"25 Riverside Sanctuary Terrace",
    "City":"Ormeau",
    "Region":"Queensland",
    "PostalCode":"4208",
    "FullAddress":"25 Riverside Sanctuary Terrace, Ormeau, Queensland, 4208, Australia",
    "Longitude":153.268711,
    "Latitude":-27.785862
  },
  {
    "SiteID":51104,
    "TenantName":"Quinn, Rachel",
    "Address":"2 Caffrun Court",
    "City":"Ormeau",
    "Region":"QLD",
    "PostalCode":"4208",
    "FullAddress":"2 Caffrun Court, Ormeau, QLD, 4208, Australia",
    "Longitude":153.239921,
    "Latitude":-27.771764
  },
  {
    "SiteID":51104,
    "TenantName":"Rodway, Leanne",
    "Address":"28 Zeus Circuit",
    "City":"Coomera",
    "Region":"Qld",
    "PostalCode":"4209",
    "FullAddress":"28 Zeus Circuit, Coomera, Qld, 4209, Australia",
    "Longitude":153.358142,
    "Latitude":-27.83907
  },
  {
    "SiteID":51104,
    "TenantName":"Welsh - Qia Group, Craig",
    "Address":"Unit 6\/8 Hopper Ave",
    "City":"Ormeau",
    "Region":"Qld",
    "PostalCode":"4208",
    "FullAddress":"Unit 6\/8 Hopper Ave, Ormeau, Qld, 4208, Australia",
    "Longitude":153.255593,
    "Latitude":-27.781072
  },
  {
    "SiteID":51104,
    "TenantName":"Newton, Blake",
    "Address":"31 Guara Grove",
    "City":"Pimpama",
    "Region":"Qld",
    "PostalCode":"4209",
    "FullAddress":"31 Guara Grove, Pimpama, Qld, 4209, Australia",
    "Longitude":153.2774,
    "Latitude":-27.80698
  },
  {
    "SiteID":51104,
    "TenantName":"Brealey, Colin",
    "Address":"80 Girtin Crt",
    "City":"Pimpama",
    "Region":"Qld",
    "PostalCode":"4209",
    "FullAddress":"80 Girtin Crt, Pimpama, Qld, 4209, Australia",
    "Longitude":153.328269,
    "Latitude":-27.831052
  },
  {
    "SiteID":51104,
    "TenantName":"Matenga, Api",
    "Address":"12 Seaford Street",
    "City":"Pimpama",
    "Region":"QLD",
    "PostalCode":"4209",
    "FullAddress":"12 Seaford Street, Pimpama, QLD, 4209, Australia",
    "Longitude":153.288714,
    "Latitude":-27.811138
  },
  {
    "SiteID":51104,
    "TenantName":"Ransfield, Kelly",
    "Address":"24 eumudi Street",
    "City":"Ormeau",
    "Region":"Qld",
    "PostalCode":"4208",
    "FullAddress":"24 eumudi Street, Ormeau, Qld, 4208, Australia",
    "Longitude":153.262124,
    "Latitude":-27.778912
  },
  {
    "SiteID":51104,
    "TenantName":"Coleman, Monique",
    "Address":"1\/2 Nightshade Crt",
    "City":"Pimpama",
    "Region":"Qld",
    "PostalCode":"4209",
    "FullAddress":"1\/2 Nightshade Crt, Pimpama, Qld, 4209, Australia",
    "Longitude":153.28806,
    "Latitude":-27.827256
  },
  {
    "SiteID":51104,
    "TenantName":"Lett, Tamara",
    "Address":"30 Pamphlet Lane",
    "City":"Coomera",
    "Region":"Qld",
    "PostalCode":"4208",
    "FullAddress":"30 Pamphlet Lane, Coomera, Qld, 4208, Australia",
    "Longitude":153.3368,
    "Latitude":-27.84499
  },
  {
    "SiteID":51104,
    "TenantName":"Moore, Lynette",
    "Address":"15 Macarthur Street",
    "City":"Pimpama",
    "Region":"Qld",
    "PostalCode":"4209",
    "FullAddress":"15 Macarthur Street, Pimpama, Qld, 4209, Australia",
    "Longitude":153.28694,
    "Latitude":-27.814553
  },
  {
    "SiteID":51104,
    "TenantName":"Johnson, Don",
    "Address":"7 laverton St",
    "City":"ormeau",
    "Region":"QLD",
    "PostalCode":"4208",
    "FullAddress":"7 laverton St, ormeau, QLD, 4208, Australia",
    "Longitude":153.261399,
    "Latitude":-27.766696
  },
  {
    "SiteID":51104,
    "TenantName":"Philpott, Jerome",
    "Address":"7 Earleham Court",
    "City":"Pimpama",
    "Region":"QLD",
    "PostalCode":"4209",
    "FullAddress":"7 Earleham Court, Pimpama, QLD, 4209, Australia",
    "Longitude":153.287956,
    "Latitude":-27.824258
  },
  {
    "SiteID":51104,
    "TenantName":"Weare, Rachel",
    "Address":"29 Hazelmere Crescent",
    "City":"Ormeau",
    "Region":"QLD",
    "PostalCode":"4208",
    "FullAddress":"29 Hazelmere Crescent, Ormeau, QLD, 4208, Australia",
    "Longitude":153.272223,
    "Latitude":-27.77812
  },
  {
    "SiteID":51104,
    "TenantName":"Mcfarlane, Christopher",
    "Address":"Unit 803\/430Marine Parade",
    "City":"Biggarwaters",
    "Region":"Qld",
    "PostalCode":"4216",
    "FullAddress":"Unit 803\/430Marine Parade, Biggarwaters, Qld, 4216, Australia",
    "Longitude":153.406557,
    "Latitude":-27.935855
  },
  {
    "SiteID":51104,
    "TenantName":"Smith, Sally",
    "Address":"272 \/ 42 Goldmine Road",
    "City":"Ormeau",
    "Region":"QLD",
    "PostalCode":"4208",
    "FullAddress":"272 \/ 42 Goldmine Road, Ormeau, QLD, 4208, Australia",
    "Longitude":153.257765,
    "Latitude":-27.7792
  },
  {
    "SiteID":51104,
    "TenantName":"Caldwell, Neilda",
    "Address":"22\/31 Jotown Drive",
    "City":"Coomera",
    "Region":"Qld",
    "PostalCode":"4209",
    "FullAddress":"22\/31 Jotown Drive, Coomera, Qld, 4209, Australia",
    "Longitude":153.333473,
    "Latitude":-27.85238
  },
  {
    "SiteID":51104,
    "TenantName":"Casey, Haidi",
    "Address":"2314\/1 Grant Avenue",
    "City":"Gold Coast",
    "Region":"Qld",
    "PostalCode":"4212",
    "FullAddress":"2314\/1 Grant Avenue, Gold Coast, Qld, 4212, Australia",
    "Longitude":153.368628,
    "Latitude":-27.874285
  },
  {
    "SiteID":51104,
    "TenantName":"Haddad, Jacob",
    "Address":"1\/21 Fitzpatrick Street",
    "City":"Upper Coomera",
    "Region":"QLD",
    "PostalCode":"4209",
    "FullAddress":"1\/21 Fitzpatrick Street, Upper Coomera, QLD, 4209, Australia",
    "Longitude":153.29741,
    "Latitude":-27.858786
  },
  {
    "SiteID":51104,
    "TenantName":"Persephone, Sabrina",
    "Address":"5\/10 Monaco Street",
    "City":"Surfers Paradise",
    "Region":"QLD",
    "PostalCode":"4217",
    "FullAddress":"5\/10 Monaco Street, Surfers Paradise, QLD, 4217, Australia",
    "Longitude":153.42843,
    "Latitude":-28.017926
  },
  {
    "SiteID":51104,
    "TenantName":"Gooch, Paul",
    "Address":"29 Stirling Circuit",
    "City":"Pimpama",
    "Region":"Qld",
    "PostalCode":"4209",
    "FullAddress":"29 Stirling Circuit, Pimpama, Qld, 4209, Australia",
    "Longitude":153.301242,
    "Latitude":-27.815468
  },
  {
    "SiteID":51104,
    "TenantName":"Green, Michael",
    "Address":"116 Sheehan Ave",
    "City":"Hope Island",
    "Region":"QLD",
    "PostalCode":"4212",
    "FullAddress":"116 Sheehan Ave, Hope Island, QLD, 4212, Australia",
    "Longitude":153.378363,
    "Latitude":-27.869408
  },
  {
    "SiteID":51104,
    "TenantName":"Henningsen, Rosemary",
    "Address":"unit 13\/15 bedford Road",
    "City":"Pimpana",
    "Region":"qld",
    "PostalCode":"4209",
    "FullAddress":"unit 13\/15 bedford Road, Pimpana, qld, 4209, Australia",
    "Longitude":153.292797,
    "Latitude":-27.818207
  },
  {
    "SiteID":51104,
    "TenantName":"Mills, Brad",
    "Address":"5 Norfolk Street",
    "City":"Pimpama",
    "Region":"QLD",
    "PostalCode":"4209",
    "FullAddress":"5 Norfolk Street, Pimpama, QLD, 4209, Australia",
    "Longitude":153.284546,
    "Latitude":-27.815731
  },
  {
    "SiteID":51104,
    "TenantName":"Yigit, Rebecca",
    "Address":"13 Corkwood Ct",
    "City":"Coomera",
    "Region":"QLD",
    "PostalCode":"4209",
    "FullAddress":"13 Corkwood Ct, Coomera, QLD, 4209, Australia",
    "Longitude":153.345999,
    "Latitude":-27.84336
  },
  {
    "SiteID":51104,
    "TenantName":"Ferguson, Robert",
    "Address":"12 Binnowee Way",
    "City":"Pimpama",
    "Region":"QLD",
    "PostalCode":"4209",
    "FullAddress":"12 Binnowee Way, Pimpama, QLD, 4209, Australia",
    "Longitude":153.276552,
    "Latitude":-27.798386
  },
  {
    "SiteID":51104,
    "TenantName":"Cooper, Dana",
    "Address":"17 Blueash Crescent",
    "City":"Oxenford",
    "Region":"QLD",
    "PostalCode":"4210",
    "FullAddress":"17 Blueash Crescent, Oxenford, QLD, 4210, Australia",
    "Longitude":153.298851,
    "Latitude":-27.889907
  },
  {
    "SiteID":51104,
    "TenantName":"Harrison, Michelle",
    "Address":"18 Stag Court",
    "City":"Upper Coomera",
    "Region":"QLD",
    "PostalCode":"4209",
    "FullAddress":"18 Stag Court, Upper Coomera, QLD, 4209, Australia",
    "Longitude":153.304833,
    "Latitude":-27.875743
  },
  {
    "SiteID":51104,
    "TenantName":"Jenner, Brendan",
    "Address":"PO Box 713",
    "City":"Ormeau",
    "Region":"QLD",
    "PostalCode":"4208",
    "FullAddress":"PO Box 713, Ormeau, QLD, 4208, Australia",
    "Longitude":138.602858,
    "Latitude":-34.908656
  },
  {
    "SiteID":51104,
    "TenantName":"Henry, Tracey",
    "Address":"410 Gold Coast Springbrook Road",
    "City":"Mudgeeraba",
    "Region":"QLD",
    "PostalCode":"4213",
    "FullAddress":"410 Gold Coast Springbrook Road, Mudgeeraba, QLD, 4213, Australia",
    "Longitude":153.329333,
    "Latitude":-28.094698
  },
  {
    "SiteID":51104,
    "TenantName":"Coutts, Martyn",
    "Address":"122 \/ 269 Stewart Street",
    "City":"Brunswick East",
    "Region":"Vic",
    "PostalCode":"3057",
    "FullAddress":"122 \/ 269 Stewart Street, Brunswick East, Vic, 3057, Australia",
    "Longitude":144.982307,
    "Latitude":-37.765521
  },
  {
    "SiteID":51104,
    "TenantName":"Mangal, Ashu",
    "Address":"160 Dixon Drive",
    "City":"Pimpana",
    "Region":"QLD",
    "PostalCode":"4209",
    "FullAddress":"160 Dixon Drive, Pimpana, QLD, 4209, Australia",
    "Longitude":153.320816,
    "Latitude":-27.834542
  },
  {
    "SiteID":51104,
    "TenantName":"Morten, Maurice",
    "Address":"5 Isetta Crt",
    "City":"Upper Coomera",
    "Region":"Qld",
    "PostalCode":"4209",
    "FullAddress":"5 Isetta Crt, Upper Coomera, Qld, 4209, Australia",
    "Longitude":153.296613,
    "Latitude":-27.8548
  },
  {
    "SiteID":51104,
    "TenantName":"Priddle, Eden",
    "Address":"77 Steiglitz Road",
    "City":"Steiglitz",
    "Region":"QLD",
    "PostalCode":"4207",
    "FullAddress":"77 Steiglitz Road, Steiglitz, QLD, 4207, Australia",
    "Longitude":153.353344,
    "Latitude":-27.744241
  },
  {
    "SiteID":51104,
    "TenantName":"Robinson, Nicole",
    "Address":"19 Dorchechester",
    "City":"Pimpama",
    "Region":"Qld",
    "PostalCode":"4209",
    "FullAddress":"19 Dorchechester, Pimpama, Qld, 4209, Australia",
    "Longitude":138.603055,
    "Latitude":-34.908545
  },
  {
    "SiteID":51104,
    "TenantName":"Swinton, Caitlin",
    "Address":"24\/4 Koala Town Rd",
    "City":"Upper Coomera",
    "Region":"QLD",
    "PostalCode":"4209",
    "FullAddress":"24\/4 Koala Town Rd, Upper Coomera, QLD, 4209, Australia",
    "Longitude":153.311114,
    "Latitude":-27.875848
  },
  {
    "SiteID":51104,
    "TenantName":"Chillman, Kobi",
    "Address":"4 Shearwater Tce",
    "City":"Ballajura",
    "Region":"WA",
    "PostalCode":"6066",
    "FullAddress":"4 Shearwater Tce, Ballajura, WA, 6066, Australia",
    "Longitude":115.89569,
    "Latitude":-31.84179
  },
  {
    "SiteID":51104,
    "TenantName":"Byers, Scott",
    "Address":"4 Kimberly Creek Road",
    "City":"Upper Coomera",
    "Region":"QLD",
    "PostalCode":"4209",
    "FullAddress":"4 Kimberly Creek Road, Upper Coomera, QLD, 4209, Australia",
    "Longitude":153.271378,
    "Latitude":-27.892678
  },
  {
    "SiteID":51104,
    "TenantName":"Frazer, Caitlyn",
    "Address":"31 Tooraneedin Road",
    "City":"Gold Coast",
    "Region":"QLD",
    "PostalCode":"4209",
    "FullAddress":"31 Tooraneedin Road, Gold Coast, QLD, 4209, Australia",
    "Longitude":153.360794,
    "Latitude":-27.84514
  },
  {
    "SiteID":51104,
    "TenantName":"Zanella, Bianca",
    "Address":"3\/34 Chaleyer ST",
    "City":"Reservoir",
    "Region":"VIC",
    "PostalCode":"3073",
    "FullAddress":"3\/34 Chaleyer ST, Reservoir, VIC, 3073, Australia",
    "Longitude":145.024001,
    "Latitude":-37.727451
  },
  {
    "SiteID":51104,
    "TenantName":"Klingner, Karen",
    "Address":"66 Ormeau Ridge Road",
    "City":"Ormeau",
    "Region":"Qld",
    "PostalCode":"4208",
    "FullAddress":"66 Ormeau Ridge Road, Ormeau, Qld, 4208, Australia",
    "Longitude":153.253957,
    "Latitude":-27.79779
  },
  {
    "SiteID":51104,
    "TenantName":"Mcgill, Isaiah",
    "Address":"14 Louis street",
    "City":"Beeneligh",
    "Region":"Qld",
    "PostalCode":"4207",
    "FullAddress":"14 Louis street, Beeneligh, Qld, 4207, Australia",
    "Longitude":153.190314,
    "Latitude":-27.722237
  },
  {
    "SiteID":51104,
    "TenantName":"Pammenter, Trish",
    "Address":"12 Pimpama Rivers Drive",
    "City":"Ormeau",
    "Region":"Qld",
    "PostalCode":"4208",
    "FullAddress":"12 Pimpama Rivers Drive, Ormeau, Qld, 4208, Australia",
    "Longitude":153.262774,
    "Latitude":-27.792542
  },
  {
    "SiteID":51104,
    "TenantName":"Wyatt, Jason",
    "Address":"11 Claire Close",
    "City":"Ormeau",
    "Region":"QLD",
    "PostalCode":"4208",
    "FullAddress":"11 Claire Close, Ormeau, QLD, 4208, Australia",
    "Longitude":153.235901,
    "Latitude":-27.764017
  },
  {
    "SiteID":51104,
    "TenantName":"Pead, Tanya",
    "Address":"PO BOX 3381",
    "City":"Heleosvale Town Centre",
    "Region":"Qld",
    "PostalCode":"4212",
    "FullAddress":"PO BOX 3381, Heleosvale Town Centre, Qld, 4212, Australia",
    "Longitude":143.735627,
    "Latitude":-37.034317
  },
  {
    "SiteID":51104,
    "TenantName":"Niha, Peter",
    "Address":"12 Mieka Cr",
    "City":"Pimpama",
    "Region":"QLD",
    "PostalCode":"4209",
    "FullAddress":"12 Mieka Cr, Pimpama, QLD, 4209, Australia",
    "Longitude":153.313364,
    "Latitude":-27.835037
  },
  {
    "SiteID":51104,
    "TenantName":"Varkoly, Chris",
    "Address":"134 Paradise Parade",
    "City":"Jacobs Well",
    "Region":"QLD",
    "PostalCode":"4208",
    "FullAddress":"134 Paradise Parade, Jacobs Well, QLD, 4208, Australia",
    "Longitude":153.376423,
    "Latitude":-27.79757
  },
  {
    "SiteID":51104,
    "TenantName":"Hickey, Mike",
    "Address":"122 Paradise Pde",
    "City":"Jacobs Well",
    "Region":"QLD",
    "PostalCode":"4208",
    "FullAddress":"122 Paradise Pde, Jacobs Well, QLD, 4208, Australia",
    "Longitude":153.377576,
    "Latitude":-27.79744
  },
  {
    "SiteID":51104,
    "TenantName":"Owen, Ashleigh",
    "Address":"49 centurion circuit",
    "City":"Holmview",
    "Region":"Queensland",
    "PostalCode":"4207",
    "FullAddress":"49 centurion circuit, Holmview, Queensland, 4207, Australia",
    "Longitude":153.161947,
    "Latitude":-27.724141
  },
  {
    "SiteID":51104,
    "TenantName":"Hoek, Skye",
    "Address":"4 Ivanhoe drive",
    "City":"Bethania",
    "Region":"Qld",
    "PostalCode":"4205",
    "FullAddress":"4 Ivanhoe drive, Bethania, Qld, 4205, Australia",
    "Longitude":153.157249,
    "Latitude":-27.697019
  },
  {
    "SiteID":51104,
    "TenantName":"Roestorf, Jan",
    "Address":"unit2\/28 Collings St",
    "City":"Balmoral",
    "Region":"Qld",
    "PostalCode":"4171",
    "FullAddress":"unit2\/28 Collings St, Balmoral, Qld, 4171, Australia",
    "Longitude":153.064633,
    "Latitude":-27.460488
  },
  {
    "SiteID":51104,
    "TenantName":"Collins, Sam",
    "Address":"5 Jimmy Street",
    "City":"Coomera",
    "Region":"QLD",
    "PostalCode":"4209",
    "FullAddress":"5 Jimmy Street, Coomera, QLD, 4209, Australia",
    "Longitude":153.330035,
    "Latitude":-27.847416
  },
  {
    "SiteID":51104,
    "TenantName":"Gillie, Adam",
    "Address":"13 Rampage Street",
    "City":"Coomera",
    "Region":"QLD",
    "PostalCode":"4209",
    "FullAddress":"13 Rampage Street, Coomera, QLD, 4209, Australia",
    "Longitude":153.361296,
    "Latitude":-27.839546
  },
  {
    "SiteID":51104,
    "TenantName":"Foale, Rob",
    "Address":"77 Woodrose Cct",
    "City":"Pimpama",
    "Region":"QLD",
    "PostalCode":"4209",
    "FullAddress":"77 Woodrose Cct, Pimpama, QLD, 4209, Australia",
    "Longitude":153.311719,
    "Latitude":-27.833359
  },
  {
    "SiteID":51104,
    "TenantName":"Ant, Bee",
    "Address":"Rm 1 20 James Close",
    "City":"ORMEAU",
    "Region":"QLD",
    "PostalCode":"4208",
    "FullAddress":"Rm 1 20 James Close, ORMEAU, QLD, 4208, Australia",
    "Longitude":153.2617,
    "Latitude":-27.794283
  },
  {
    "SiteID":51104,
    "TenantName":"Edwards, Jonathan",
    "Address":"54 Major Mitchell Drive",
    "City":"Coomera",
    "Region":"QLD",
    "PostalCode":"4209",
    "FullAddress":"54 Major Mitchell Drive, Coomera, QLD, 4209, Australia",
    "Longitude":153.287243,
    "Latitude":-27.840069
  },
  {
    "SiteID":51104,
    "TenantName":"Sonter, Broddie",
    "Address":"7 Shonter Street",
    "City":"Pimpama",
    "Region":"Qld",
    "PostalCode":"4209",
    "FullAddress":"7 Shonter Street, Pimpama, Qld, 4209, Australia",
    "Longitude":137.574592,
    "Latitude":-34.06656
  },
  {
    "SiteID":51104,
    "TenantName":"Griffin, Maree",
    "Address":"17 Collins Crescent",
    "City":"Benowa",
    "Region":"QLD",
    "PostalCode":"4217",
    "FullAddress":"17 Collins Crescent, Benowa, QLD, 4217, Australia",
    "Longitude":153.393295,
    "Latitude":-28.001096
  },
  {
    "SiteID":51104,
    "TenantName":"Woodley, Aidan",
    "Address":"10 Barron Court",
    "City":"Pimpama",
    "Region":"QLD",
    "PostalCode":"4209",
    "FullAddress":"10 Barron Court, Pimpama, QLD, 4209, Australia",
    "Longitude":153.293612,
    "Latitude":-27.83476
  },
  {
    "SiteID":51104,
    "TenantName":"Ross, Jessica",
    "Address":"1\/4 Bidmead Cct",
    "City":"Pimpama",
    "Region":"QLD",
    "PostalCode":"4209",
    "FullAddress":"1\/4 Bidmead Cct, Pimpama, QLD, 4209, Australia",
    "Longitude":153.29363,
    "Latitude":-27.818974
  },
  {
    "SiteID":51104,
    "TenantName":"Packman, Carole",
    "Address":"34 Reedmans Road",
    "City":"Ormeau",
    "Region":"QLD",
    "PostalCode":"4208",
    "FullAddress":"34 Reedmans Road, Ormeau, QLD, 4208, Australia",
    "Longitude":153.263796,
    "Latitude":-27.791231
  },
  {
    "SiteID":51104,
    "TenantName":"Mckenzie, Kathryn",
    "Address":"U26\/2-4 Elizabeth Street",
    "City":"Beenleigh",
    "Region":"Qld",
    "PostalCode":"4207",
    "FullAddress":"U26\/2-4 Elizabeth Street, Beenleigh, Qld, 4207, Australia",
    "Longitude":153.198197,
    "Latitude":-27.717569
  },
  {
    "SiteID":51104,
    "TenantName":"Tutavaha, Charles",
    "Address":"8a Clarondone Ave",
    "City":"Bethania",
    "Region":"QLD",
    "PostalCode":"4205",
    "FullAddress":"8a Clarondone Ave, Bethania, QLD, 4205, Australia",
    "Longitude":138.876795,
    "Latitude":-34.691122
  },
  {
    "SiteID":51104,
    "TenantName":"Carter, Helene",
    "Address":"7 Alisma Cort",
    "City":"Ormeau",
    "Region":"Qld",
    "PostalCode":"4208",
    "FullAddress":"7 Alisma Cort, Ormeau, Qld, 4208, Australia",
    "Longitude":153.261934,
    "Latitude":-27.781253
  },
  {
    "SiteID":51104,
    "TenantName":"Prpic, Linda",
    "Address":"39 Amy drive",
    "City":"Coomera",
    "Region":"Queensland",
    "PostalCode":"4209",
    "FullAddress":"39 Amy drive, Coomera, Queensland, 4209, Australia",
    "Longitude":153.333305,
    "Latitude":-27.82713
  },
  {
    "SiteID":51104,
    "TenantName":"Wood, Michael",
    "Address":"10 Homestead Cres",
    "City":"Kingsholm",
    "Region":"QLD",
    "PostalCode":"4208",
    "FullAddress":"10 Homestead Cres, Kingsholm, QLD, 4208, Australia",
    "Longitude":153.26245,
    "Latitude":-27.818166
  },
  {
    "SiteID":51104,
    "TenantName":"Ying, Chun",
    "Address":"27 Cormorant Cr",
    "City":"jacobs well",
    "Region":"Qld",
    "PostalCode":"4208",
    "FullAddress":"27 Cormorant Cr, jacobs well, Qld, 4208, Australia",
    "Longitude":153.360169,
    "Latitude":-27.774986
  },
  {
    "SiteID":51104,
    "TenantName":"Dubauskas, Daniel",
    "Address":"4 Allora Crescent",
    "City":"Ormeau Hills",
    "Region":"Qld",
    "PostalCode":"4209",
    "FullAddress":"4 Allora Crescent, Ormeau Hills, Qld, 4209, Australia",
    "Longitude":153.023965,
    "Latitude":-27.343955
  },
  {
    "SiteID":51104,
    "TenantName":"Hodgetts, Cody",
    "Address":"26 Merlin Place",
    "City":"Ormeau",
    "Region":"QLD",
    "PostalCode":"4208",
    "FullAddress":"26 Merlin Place, Ormeau, QLD, 4208, Australia",
    "Longitude":153.259995,
    "Latitude":-27.785837
  },
  {
    "SiteID":51104,
    "TenantName":"Sutherland, Sarah",
    "Address":"112\/57 Vulture Street",
    "City":"West End",
    "Region":"QLD",
    "PostalCode":"4101",
    "FullAddress":"112\/57 Vulture Street, West End, QLD, 4101, Australia",
    "Longitude":153.009716,
    "Latitude":-27.480838
  },
  {
    "SiteID":51104,
    "TenantName":"Ellis, Craig",
    "Address":"PO BOX 260",
    "City":"UPPER COOMERA",
    "Region":"QLD",
    "PostalCode":"4209",
    "FullAddress":"PO BOX 260, UPPER COOMERA, QLD, 4209, Australia",
    "Longitude":152.923999,
    "Latitude":-27.02948
  },
  {
    "SiteID":51104,
    "TenantName":"Griffin, Duncan",
    "Address":"1 Mowbray Street",
    "City":"Pimpama",
    "Region":"Qld",
    "PostalCode":"4209",
    "FullAddress":"1 Mowbray Street, Pimpama, Qld, 4209, Australia",
    "Longitude":153.297136,
    "Latitude":-27.814704
  },
  {
    "SiteID":51104,
    "TenantName":"Liao, Robin",
    "Address":"18 Elvire Street",
    "City":"Ormeau",
    "Region":"QLD",
    "PostalCode":"4208",
    "FullAddress":"18 Elvire Street, Ormeau, QLD, 4208, Australia",
    "Longitude":153.25344,
    "Latitude":-27.801242
  },
  {
    "SiteID":51104,
    "TenantName":"Basset - Rouge, Stan",
    "Address":"15 Yarwood Crescent",
    "City":"Ormeau Hills",
    "Region":"Qld",
    "PostalCode":"4208",
    "FullAddress":"15 Yarwood Crescent, Ormeau Hills, Qld, 4208, Australia",
    "Longitude":153.255833,
    "Latitude":-27.794956
  },
  {
    "SiteID":51104,
    "TenantName":"Snashall, Madisen",
    "Address":"5 Booyong court",
    "City":"Ormeau",
    "Region":"QLD",
    "PostalCode":"4208",
    "FullAddress":"5 Booyong court, Ormeau, QLD, 4208, Australia",
    "Longitude":153.244647,
    "Latitude":-27.770581
  },
  {
    "SiteID":51104,
    "TenantName":"Alexander, Gaynor",
    "Address":"9\/400 Ruffles Road",
    "City":"Willow Vale",
    "Region":"QLD",
    "PostalCode":"4209",
    "FullAddress":"9\/400 Ruffles Road, Willow Vale, QLD, 4209, Australia",
    "Longitude":153.262058,
    "Latitude":-27.865053
  },
  {
    "SiteID":51104,
    "TenantName":"Constantine, Troy",
    "Address":"4\/54 Notar drive",
    "City":"Ormeau",
    "Region":"Qld",
    "PostalCode":"4208",
    "FullAddress":"4\/54 Notar drive, Ormeau, Qld, 4208, Australia",
    "Longitude":153.250941,
    "Latitude":-27.761487
  },
  {
    "SiteID":51104,
    "TenantName":"Rantall, Michael",
    "Address":"Uni2 2676 Ipswich Road",
    "City":"Darra",
    "Region":"QLD",
    "PostalCode":"4069",
    "FullAddress":"Uni2 2676 Ipswich Road, Darra, QLD, 4069, Australia",
    "Longitude":152.956776,
    "Latitude":-27.573947
  },
  {
    "SiteID":51104,
    "TenantName":"Davis, Wes",
    "Address":"10 Amelda Way",
    "City":"Pimpama",
    "Region":"Qld",
    "PostalCode":"4209",
    "FullAddress":"10 Amelda Way, Pimpama, Qld, 4209, Australia",
    "Longitude":153.308632,
    "Latitude":-27.835497
  },
  {
    "SiteID":51104,
    "TenantName":"Stein, Gareth",
    "Address":"4\/18 Charlton Street",
    "City":"Southport",
    "Region":"QLD",
    "PostalCode":"4215",
    "FullAddress":"4\/18 Charlton Street, Southport, QLD, 4215, Australia",
    "Longitude":153.412291,
    "Latitude":-27.981045
  },
  {
    "SiteID":51104,
    "TenantName":"Grundy, Brenton",
    "Address":"27 Kingslake Crs",
    "City":"Pimpama",
    "Region":"Qld",
    "PostalCode":"4209",
    "FullAddress":"27 Kingslake Crs, Pimpama, Qld, 4209, Australia",
    "Longitude":153.308425,
    "Latitude":-27.821116
  },
  {
    "SiteID":51104,
    "TenantName":"Rooney-Donaldson, Phoebe",
    "Address":"3 ondine Crt",
    "City":"Coomera",
    "Region":"Qld",
    "PostalCode":"4208",
    "FullAddress":"3 ondine Crt, Coomera, Qld, 4208, Australia",
    "Longitude":153.348571,
    "Latitude":-27.840051
  },
  {
    "SiteID":51104,
    "TenantName":"Mason, Stephen",
    "Address":"10Carmilla Street",
    "City":"Rochedale",
    "Region":"QLD",
    "PostalCode":"4123",
    "FullAddress":"10Carmilla Street, Rochedale, QLD, 4123, Australia",
    "Longitude":153.141412,
    "Latitude":-27.595523
  },
  {
    "SiteID":51104,
    "TenantName":"Tran, Tommy",
    "Address":"8 Hasemann Cresent",
    "City":"Upper Coomera",
    "Region":"QLD",
    "PostalCode":"4209",
    "FullAddress":"8 Hasemann Cresent, Upper Coomera, QLD, 4209, Australia",
    "Longitude":153.295722,
    "Latitude":-27.847752
  },
  {
    "SiteID":51104,
    "TenantName":"Ale, Sammy",
    "Address":"3 Addisyn Street",
    "City":"Pimpama",
    "Region":"QLD",
    "PostalCode":"4209",
    "FullAddress":"3 Addisyn Street, Pimpama, QLD, 4209, Australia",
    "Longitude":153.31435,
    "Latitude":-27.834273
  },
  {
    "SiteID":51104,
    "TenantName":"Manser, Bayley",
    "Address":"20 Panarama Drive",
    "City":"Crumbin",
    "Region":"Qld",
    "PostalCode":"4223",
    "FullAddress":"20 Panarama Drive, Crumbin, Qld, 4223, Australia",
    "Longitude":153.481593,
    "Latitude":-28.133669
  },
  {
    "SiteID":51104,
    "TenantName":"Horne, Lisa",
    "Address":"6 Senten Street",
    "City":"Fairfield",
    "Region":"QLD",
    "PostalCode":"4103",
    "FullAddress":"6 Senten Street, Fairfield, QLD, 4103, Australia",
    "Longitude":153.029852,
    "Latitude":-27.507401
  },
  {
    "SiteID":51104,
    "TenantName":"Allan, Peter",
    "Address":"23 , Kumgum Street",
    "City":"Jacobs Well",
    "Region":"Queenland",
    "PostalCode":"4208",
    "FullAddress":"23 , Kumgum Street, Jacobs Well, Queenland, 4208, Australia",
    "Longitude":153.363847,
    "Latitude":-27.783174
  },
  {
    "SiteID":51104,
    "TenantName":"Simon, Nathan",
    "Address":"11 blanck street",
    "City":"ormeau",
    "Region":"Queensland",
    "PostalCode":"4208",
    "FullAddress":"11 blanck street, ormeau, Queensland, 4208, Australia",
    "Longitude":153.25498,
    "Latitude":-27.780312
  },
  {
    "SiteID":51104,
    "TenantName":"Banks, Sharma",
    "Address":"1\/50 Montana circuit",
    "City":"Logan reserve",
    "Region":"QLD",
    "PostalCode":"4133",
    "FullAddress":"1\/50 Montana circuit, Logan reserve, QLD, 4133, Australia",
    "Longitude":153.117161,
    "Latitude":-27.72006
  },
  {
    "SiteID":51104,
    "TenantName":"Seabrook, Lee",
    "Address":"8 Island View Terrace",
    "City":"Ormeau Hills",
    "Region":"QLD",
    "PostalCode":"4209",
    "FullAddress":"8 Island View Terrace, Ormeau Hills, QLD, 4209, Australia",
    "Longitude":150.13728,
    "Latitude":-36.056438
  },
  {
    "SiteID":51104,
    "TenantName":"Bagent, Bronwyn",
    "Address":"Unit 1\/52 tavistock St",
    "City":"Oxley",
    "Region":"Qld",
    "PostalCode":"4075",
    "FullAddress":"Unit 1\/52 tavistock St, Oxley, Qld, 4075, Australia",
    "Longitude":152.972447,
    "Latitude":-27.554468
  },
  {
    "SiteID":51104,
    "TenantName":"Thomas, Brayden Luke",
    "Address":"29 Korong St",
    "City":"Southport",
    "Region":"Qld",
    "PostalCode":"4217",
    "FullAddress":"29 Korong St, Southport, Qld, 4217, Australia",
    "Longitude":153.41534,
    "Latitude":-27.988613
  },
  {
    "SiteID":51104,
    "TenantName":"Giles, Chad",
    "Address":"173 Galleon Way",
    "City":"Currumbin Water",
    "Region":"QLD",
    "PostalCode":"4223",
    "FullAddress":"173 Galleon Way, Currumbin Water, QLD, 4223, Australia",
    "Longitude":153.458015,
    "Latitude":-28.156192
  },
  {
    "SiteID":51104,
    "TenantName":"Ewington, Katrina",
    "Address":"91 Fountain Street",
    "City":"Pimpama",
    "Region":"QLD",
    "PostalCode":"4209",
    "FullAddress":"91 Fountain Street, Pimpama, QLD, 4209, Australia",
    "Longitude":153.286379,
    "Latitude":-27.814325
  },
  {
    "SiteID":51104,
    "TenantName":"Patten, Nathan",
    "Address":"9\/900 Brunswick Street",
    "City":"New Farm",
    "Region":"Qld",
    "PostalCode":"4005",
    "FullAddress":"9\/900 Brunswick Street, New Farm, Qld, 4005, Australia",
    "Longitude":153.047046,
    "Latitude":-27.467337
  },
  {
    "SiteID":51104,
    "TenantName":"Bolz, Vanesa",
    "Address":"46 wyndham cct",
    "City":"Holmview",
    "Region":"Qld",
    "PostalCode":"4207",
    "FullAddress":"46 wyndham cct, Holmview, Qld, 4207, Australia",
    "Longitude":153.169327,
    "Latitude":-27.719221
  },
  {
    "SiteID":51104,
    "TenantName":"Dumont, Torh",
    "Address":"2\/3 Angela way pimpama",
    "City":"Goldcoast",
    "Region":"QLD",
    "PostalCode":"4209",
    "FullAddress":"2\/3 Angela way pimpama, Goldcoast, QLD, 4209, Australia",
    "Longitude":153.304818,
    "Latitude":-27.825372
  },
  {
    "SiteID":51104,
    "TenantName":"Singh, Jagdish",
    "Address":"35 Kalgoorlie Street",
    "City":"Pimpama",
    "Region":"QLD",
    "PostalCode":"4209",
    "FullAddress":"35 Kalgoorlie Street, Pimpama, QLD, 4209, Australia",
    "Longitude":153.304107,
    "Latitude":-27.817625
  },
  {
    "SiteID":51104,
    "TenantName":"Brissett, Grant",
    "Address":"85 Sir Charles Holm Drive",
    "City":"Ormeau Hills",
    "Region":"QLD",
    "PostalCode":"4208",
    "FullAddress":"85 Sir Charles Holm Drive, Ormeau Hills, QLD, 4208, Australia",
    "Longitude":153.245467,
    "Latitude":-27.796098
  },
  {
    "SiteID":51104,
    "TenantName":"Campbell, John",
    "Address":"23 Thorne Drive",
    "City":"Pimpama",
    "Region":"QLD",
    "PostalCode":"4209",
    "FullAddress":"23 Thorne Drive, Pimpama, QLD, 4209, Australia",
    "Longitude":153.312649,
    "Latitude":-27.834342
  },
  {
    "SiteID":51104,
    "TenantName":"Scott, Sarah",
    "Address":"53\/5344 harbour view drive",
    "City":"Hope island",
    "Region":"Qld",
    "PostalCode":"4212",
    "FullAddress":"53\/5344 harbour view drive, Hope island, Qld, 4212, Australia",
    "Longitude":136.940985,
    "Latitude":-33.675502
  },
  {
    "SiteID":51104,
    "TenantName":"Van Dijk, Kerry",
    "Address":"6 Deepak Drive",
    "City":"Pimpama",
    "Region":"Qld",
    "PostalCode":"4209",
    "FullAddress":"6 Deepak Drive, Pimpama, Qld, 4209, Australia",
    "Longitude":153.2829,
    "Latitude":-27.82355
  },
  {
    "SiteID":51104,
    "TenantName":"Desilva, Shanice",
    "Address":"64 Hill Drive",
    "City":"Pimpama",
    "Region":"QLD",
    "PostalCode":"4209",
    "FullAddress":"64 Hill Drive, Pimpama, QLD, 4209, Australia",
    "Longitude":153.298822,
    "Latitude":-27.831922
  },
  {
    "SiteID":51104,
    "TenantName":"Walley, Ron",
    "Address":"15 Christeph St",
    "City":"Pimpama",
    "Region":"Qld",
    "PostalCode":"4209",
    "FullAddress":"15 Christeph St, Pimpama, Qld, 4209, Australia",
    "Longitude":138.603055,
    "Latitude":-34.908545
  },
  {
    "SiteID":51104,
    "TenantName":"Strong, Allyn",
    "Address":"16Ribbonwood Place",
    "City":"Terranora",
    "Region":"NSW",
    "PostalCode":"2486",
    "FullAddress":"16Ribbonwood Place, Terranora, NSW, 2486, Australia",
    "Longitude":153.490598,
    "Latitude":-28.234961
  },
  {
    "SiteID":51104,
    "TenantName":"Dos Anjos, Joe",
    "Address":"45 McVeigh Street",
    "City":"Pimpama",
    "Region":"Queensland",
    "PostalCode":"4209",
    "FullAddress":"45 McVeigh Street, Pimpama, Queensland, 4209, Australia",
    "Longitude":153.305847,
    "Latitude":-27.825147
  },
  {
    "SiteID":51104,
    "TenantName":"Gulta, Narmein",
    "Address":"16 Montego Hills Drive",
    "City":"Kingsholme",
    "Region":"QLD",
    "PostalCode":"4208",
    "FullAddress":"16 Montego Hills Drive, Kingsholme, QLD, 4208, Australia",
    "Longitude":153.257572,
    "Latitude":-27.809139
  },
  {
    "SiteID":51104,
    "TenantName":"Mclean, Hunter",
    "Address":"17\/20 fortune st coomera",
    "City":"Coomera",
    "Region":"QLD",
    "PostalCode":"4209",
    "FullAddress":"17\/20 fortune st coomera, Coomera, QLD, 4209, Australia",
    "Longitude":153.317538,
    "Latitude":-27.873903
  },
  {
    "SiteID":51104,
    "TenantName":"Bailey, Justine",
    "Address":"49 Swan Road",
    "City":"Pimpama",
    "Region":"QLD",
    "PostalCode":"4209",
    "FullAddress":"49 Swan Road, Pimpama, QLD, 4209, Australia",
    "Longitude":153.306238,
    "Latitude":-27.817768
  },
  {
    "SiteID":51104,
    "TenantName":"Colley, Ken",
    "Address":"19B Tarella Court",
    "City":"Ormeau",
    "Region":"QLD",
    "PostalCode":"4208",
    "FullAddress":"19B Tarella Court, Ormeau, QLD, 4208, Australia",
    "Longitude":153.268065,
    "Latitude":-27.776321
  },
  {
    "SiteID":51104,
    "TenantName":"Sauners, Kim",
    "Address":"22 Garden Rd",
    "City":"Coomera",
    "Region":"Qld",
    "PostalCode":"4209",
    "FullAddress":"22 Garden Rd, Coomera, Qld, 4209, Australia",
    "Longitude":153.332103,
    "Latitude":-27.851153
  },
  {
    "SiteID":51104,
    "TenantName":"Ta Paea, Lana",
    "Address":"39 Mingaloo Drive",
    "City":"Pimpama",
    "Region":"QLD",
    "PostalCode":"4209",
    "FullAddress":"39 Mingaloo Drive, Pimpama, QLD, 4209, Australia",
    "Longitude":153.303702,
    "Latitude":-27.818017
  },
  {
    "SiteID":51104,
    "TenantName":"Hutchison, Robert",
    "Address":"106 Guara Grove",
    "City":"Pimpama",
    "Region":"Qld",
    "PostalCode":"4209",
    "FullAddress":"106 Guara Grove, Pimpama, Qld, 4209, Australia",
    "Longitude":153.2842,
    "Latitude":-27.802149
  },
  {
    "SiteID":51104,
    "TenantName":"Smith, Judy",
    "Address":"8 banka ave",
    "City":"Jacobs well",
    "Region":"Qld",
    "PostalCode":"4208",
    "FullAddress":"8 banka ave, Jacobs well, Qld, 4208, Australia",
    "Longitude":153.356735,
    "Latitude":-27.776746
  },
  {
    "SiteID":51104,
    "TenantName":"Nash, Brayden",
    "Address":"1\/17 Nankeen Avenue",
    "City":"Paradise Point",
    "Region":"Queensland",
    "PostalCode":"4216",
    "FullAddress":"1\/17 Nankeen Avenue, Paradise Point, Queensland, 4216, Australia",
    "Longitude":153.394695,
    "Latitude":-27.882188
  },
  {
    "SiteID":51104,
    "TenantName":"Windus, Mandi",
    "Address":"34 Ragamuffin Drive West",
    "City":"Coomera Waters",
    "Region":"QLD",
    "PostalCode":"4209",
    "FullAddress":"34 Ragamuffin Drive West, Coomera Waters, QLD, 4209, Australia",
    "Longitude":153.356013,
    "Latitude":-27.838938
  },
  {
    "SiteID":51104,
    "TenantName":"Martin, Chris",
    "Address":"16 Rocklea Street",
    "City":"Archerfield",
    "Region":"Qld",
    "PostalCode":"4108",
    "FullAddress":"16 Rocklea Street, Archerfield, Qld, 4108, Australia",
    "Longitude":153.015189,
    "Latitude":-27.559063
  },
  {
    "SiteID":51104,
    "TenantName":"Swain, Simone",
    "Address":"35 rivina cuircit coomera",
    "City":"Gold coast",
    "Region":"Qld",
    "PostalCode":"4209",
    "FullAddress":"35 rivina cuircit coomera, Gold coast, Qld, 4209, Australia",
    "Longitude":153.321837,
    "Latitude":-27.846089
  },
  {
    "SiteID":51104,
    "TenantName":"Lainez, Antonio",
    "Address":"12 Penfolds Close",
    "City":"Pimpama",
    "Region":"Qld",
    "PostalCode":"4209",
    "FullAddress":"12 Penfolds Close, Pimpama, Qld, 4209, Australia",
    "Longitude":153.319774,
    "Latitude":-27.829293
  },
  {
    "SiteID":51104,
    "TenantName":"Boshier, Hannah",
    "Address":"u\/10 Beattie Road",
    "City":"Coomera",
    "Region":"Qld",
    "PostalCode":"4209",
    "FullAddress":"u\/10 Beattie Road, Coomera, Qld, 4209, Australia",
    "Longitude":153.316816,
    "Latitude":-27.866845
  },
  {
    "SiteID":51104,
    "TenantName":"Fitzgerald, Bronwyn",
    "Address":"1010\/154 Musgrave Avenue",
    "City":"Southport",
    "Region":"Qld",
    "PostalCode":"4215",
    "FullAddress":"1010\/154 Musgrave Avenue, Southport, Qld, 4215, Australia",
    "Longitude":153.388899,
    "Latitude":-27.956193
  },
  {
    "SiteID":51104,
    "TenantName":"Alonso, Maria",
    "Address":"U5 66-70 Grand Terrace",
    "City":"waterford",
    "Region":"Qld",
    "PostalCode":"4133",
    "FullAddress":"U5 66-70 Grand Terrace, waterford, Qld, 4133, Australia",
    "Longitude":153.153165,
    "Latitude":-27.717145
  },
  {
    "SiteID":51104,
    "TenantName":"Cairns, Marc",
    "Address":"5 Imelda Way, PIMPAMA QLD 4209",
    "City":"Pimpama",
    "Region":"QLD",
    "PostalCode":"4209",
    "FullAddress":"5 Imelda Way, PIMPAMA QLD 4209, Pimpama, QLD, 4209, Australia",
    "Longitude":153.308456,
    "Latitude":-27.835069
  },
  {
    "SiteID":51104,
    "TenantName":"Woods, Marilou",
    "Address":"48 Betterview Drive",
    "City":"Ormeau",
    "Region":"QLD",
    "PostalCode":"4208",
    "FullAddress":"48 Betterview Drive, Ormeau, QLD, 4208, Australia",
    "Longitude":138.602858,
    "Latitude":-34.908656
  },
  {
    "SiteID":51104,
    "TenantName":"Dodds, Mark",
    "Address":"77 River Run Cct",
    "City":"Ormeau Hills",
    "Region":"QLD",
    "PostalCode":"4208",
    "FullAddress":"77 River Run Cct, Ormeau Hills, QLD, 4208, Australia",
    "Longitude":153.249101,
    "Latitude":-27.800803
  },
  {
    "SiteID":51104,
    "TenantName":"Tehuia, William",
    "Address":"34 Dixon Drive",
    "City":"Pimpama",
    "Region":"QLD",
    "PostalCode":"4209",
    "FullAddress":"34 Dixon Drive, Pimpama, QLD, 4209, Australia",
    "Longitude":153.316325,
    "Latitude":-27.827439
  },
  {
    "SiteID":51104,
    "TenantName":"Cross, Bianca",
    "Address":"6 McGuire Ct",
    "City":"Maudsland",
    "Region":"QLD",
    "PostalCode":"4210",
    "FullAddress":"6 McGuire Ct, Maudsland, QLD, 4210, Australia",
    "Longitude":153.294462,
    "Latitude":-27.943666
  },
  {
    "SiteID":51104,
    "TenantName":"Torrey, Dalyn",
    "Address":"53 Charles Ave",
    "City":"Pimpana",
    "Region":"QLD",
    "PostalCode":"4209",
    "FullAddress":"53 Charles Ave, Pimpana, QLD, 4209, Australia",
    "Longitude":153.320307,
    "Latitude":-27.833196
  },
  {
    "SiteID":51104,
    "TenantName":"Aldred, Daniel",
    "Address":"47 Jilbard Drive",
    "City":"Springwood",
    "Region":"QLD",
    "PostalCode":"4127",
    "FullAddress":"47 Jilbard Drive, Springwood, QLD, 4127, Australia",
    "Longitude":153.145033,
    "Latitude":-27.630118
  },
  {
    "SiteID":51104,
    "TenantName":"Pendergast, Dianne",
    "Address":"23 Lumeah Ave",
    "City":"Pimpama",
    "Region":"Qld",
    "PostalCode":"4209",
    "FullAddress":"23 Lumeah Ave, Pimpama, Qld, 4209, Australia",
    "Longitude":153.276016,
    "Latitude":-27.804553
  },
  {
    "SiteID":51104,
    "TenantName":"Band, Kellie",
    "Address":"12 Dewrang Drive",
    "City":"Pimpama",
    "Region":"QLD",
    "PostalCode":"4209",
    "FullAddress":"12 Dewrang Drive, Pimpama, QLD, 4209, Australia",
    "Longitude":153.275221,
    "Latitude":-27.809025
  },
  {
    "SiteID":51104,
    "TenantName":"Ralph, Brett",
    "Address":"89 River Oak Drive",
    "City":"Helensvale",
    "Region":"QLD",
    "PostalCode":"4212",
    "FullAddress":"89 River Oak Drive, Helensvale, QLD, 4212, Australia",
    "Longitude":153.316932,
    "Latitude":-27.900585
  },
  {
    "SiteID":51104,
    "TenantName":"Craggs, Nicholas",
    "Address":"33 Summerlea Crescent",
    "City":"Ormeau",
    "Region":"QLD",
    "PostalCode":"4208",
    "FullAddress":"33 Summerlea Crescent, Ormeau, QLD, 4208, Australia",
    "Longitude":153.275458,
    "Latitude":-27.778884
  },
  {
    "SiteID":51104,
    "TenantName":"Ryan, Scott",
    "Address":"36 Girramay Street",
    "City":"Yarabilba",
    "Region":"QLD",
    "PostalCode":"4207",
    "FullAddress":"36 Girramay Street, Yarabilba, QLD, 4207, Australia",
    "Longitude":153.128131,
    "Latitude":-27.814215
  },
  {
    "SiteID":51104,
    "TenantName":"Hodge, Amy",
    "Address":"5 Windward Place",
    "City":"Jacobs Well",
    "Region":"QLD",
    "PostalCode":"4208",
    "FullAddress":"5 Windward Place, Jacobs Well, QLD, 4208, Australia",
    "Longitude":153.375191,
    "Latitude":-27.792982
  },
  {
    "SiteID":51104,
    "TenantName":"Aldred, Heidi",
    "Address":"47 Jilbard Dr",
    "City":"Springwood",
    "Region":"QLD",
    "PostalCode":"4127",
    "FullAddress":"47 Jilbard Dr, Springwood, QLD, 4127, Australia",
    "Longitude":153.145033,
    "Latitude":-27.630118
  },
  {
    "SiteID":51104,
    "TenantName":"West, Amelia",
    "Address":"16 Shannonbrook Ave",
    "City":"Ormeau",
    "Region":"QLD",
    "PostalCode":"4208",
    "FullAddress":"16 Shannonbrook Ave, Ormeau, QLD, 4208, Australia",
    "Longitude":153.270461,
    "Latitude":-27.773354
  },
  {
    "SiteID":51104,
    "TenantName":"Stasiakowski, Ronja",
    "Address":"PO box 1523",
    "City":"Oxenford",
    "Region":"Qld",
    "PostalCode":"4210",
    "FullAddress":"PO box 1523, Oxenford, Qld, 4210, Australia",
    "Longitude":138.602858,
    "Latitude":-34.908656
  },
  {
    "SiteID":51104,
    "TenantName":"Williams, C J",
    "Address":"20 Bottle Brush Circuit",
    "City":"Coomera",
    "Region":"Qld",
    "PostalCode":"4209",
    "FullAddress":"20 Bottle Brush Circuit, Coomera, Qld, 4209, Australia",
    "Longitude":153.33357,
    "Latitude":-27.839974
  },
  {
    "SiteID":51104,
    "TenantName":"Fulton, Arlene",
    "Address":"13 Nakula St",
    "City":"Gaven",
    "Region":"Qld",
    "PostalCode":"4211",
    "FullAddress":"13 Nakula St, Gaven, Qld, 4211, Australia",
    "Longitude":153.34082,
    "Latitude":-27.964168
  },
  {
    "SiteID":51104,
    "TenantName":"Kiwi Kiwi, Te Kiri Ahi",
    "Address":"25 Rundla Ave",
    "City":"Pimpama",
    "Region":"Qld",
    "PostalCode":"4209",
    "FullAddress":"25 Rundla Ave, Pimpama, Qld, 4209, Australia",
    "Longitude":153.327787,
    "Latitude":-27.819877
  },
  {
    "SiteID":51104,
    "TenantName":"Lincoln, Jennifer",
    "Address":"10 Blue Cove Crescent",
    "City":"Hope Island",
    "Region":"QLD",
    "PostalCode":"4212",
    "FullAddress":"10 Blue Cove Crescent, Hope Island, QLD, 4212, Australia",
    "Longitude":150.122158,
    "Latitude":-36.230846
  },
  {
    "SiteID":51104,
    "TenantName":"Winkler, Alexander",
    "Address":"10 Omar Street",
    "City":"Ipswich",
    "Region":"QLD",
    "PostalCode":"4305",
    "FullAddress":"10 Omar Street, Ipswich, QLD, 4305, Australia",
    "Longitude":152.751559,
    "Latitude":-27.619135
  },
  {
    "SiteID":51104,
    "TenantName":"O'Neill, Claudia Rose",
    "Address":"12 Wandilla Drive",
    "City":"Helensvale",
    "Region":"QLD",
    "PostalCode":"4212",
    "FullAddress":"12 Wandilla Drive, Helensvale, QLD, 4212, Australia",
    "Longitude":153.331031,
    "Latitude":-27.908012
  },
  {
    "SiteID":51104,
    "TenantName":"Anderson, Donna",
    "Address":"Unit 3 10 Bailer Street",
    "City":"Coomera",
    "Region":"QLD",
    "PostalCode":"4209",
    "FullAddress":"Unit 3 10 Bailer Street, Coomera, QLD, 4209, Australia",
    "Longitude":153.324624,
    "Latitude":-27.848329
  },
  {
    "SiteID":51104,
    "TenantName":"Diack, Liam",
    "Address":"u 68 1 Isla Street",
    "City":"PIMPAMA (QLD)",
    "Region":"Qld",
    "PostalCode":"4209",
    "FullAddress":"u 68 1 Isla Street, PIMPAMA (QLD), Qld, 4209, Australia",
    "Longitude":153.290187,
    "Latitude":-27.81242
  },
  {
    "SiteID":51104,
    "TenantName":"Lemusu, Jeni",
    "Address":"unit 3509 4 Oakey Creek Road",
    "City":"Coomera",
    "Region":"Qld",
    "PostalCode":"4209",
    "FullAddress":"unit 3509 4 Oakey Creek Road, Coomera, Qld, 4209, Australia",
    "Longitude":153.335418,
    "Latitude":-27.854609
  },
  {
    "SiteID":51104,
    "TenantName":"Stewart, Mark",
    "Address":"374 Jacobs Well Road",
    "City":"Pimpama",
    "Region":"QLD",
    "PostalCode":"4209",
    "FullAddress":"374 Jacobs Well Road, Pimpama, QLD, 4209, Australia",
    "Longitude":153.297534,
    "Latitude":-27.794318
  },
  {
    "SiteID":51104,
    "TenantName":"Smits, Consuelo",
    "Address":"65 Philben Drive",
    "City":"Ormeau",
    "Region":"QLD",
    "PostalCode":"4208",
    "FullAddress":"65 Philben Drive, Ormeau, QLD, 4208, Australia",
    "Longitude":153.24273,
    "Latitude":-27.774652
  },
  {
    "SiteID":51104,
    "TenantName":"Aldred, Dan",
    "Address":"47 jilbard drive",
    "City":"Springwood",
    "Region":"QLD",
    "PostalCode":"4127",
    "FullAddress":"47 jilbard drive, Springwood, QLD, 4127, Australia",
    "Longitude":153.145033,
    "Latitude":-27.630118
  },
  {
    "SiteID":51104,
    "TenantName":"Jackson, Audrey",
    "Address":"8\/30 Stretton Drive",
    "City":"Helensvale",
    "Region":"QLD",
    "PostalCode":"4212",
    "FullAddress":"8\/30 Stretton Drive, Helensvale, QLD, 4212, Australia",
    "Longitude":153.333077,
    "Latitude":-27.912391
  },
  {
    "SiteID":51104,
    "TenantName":"Groenewald, Shirlee",
    "Address":"4 Paddy Circuit",
    "City":"Ormeau",
    "Region":"QLD",
    "PostalCode":"4208",
    "FullAddress":"4 Paddy Circuit, Ormeau, QLD, 4208, Australia",
    "Longitude":153.263091,
    "Latitude":-27.795527
  },
  {
    "SiteID":51104,
    "TenantName":"Oberholster, Mandy",
    "Address":"16 Annabelle Crescent",
    "City":"Upper Coomera",
    "Region":"Queensland",
    "PostalCode":"4209",
    "FullAddress":"16 Annabelle Crescent, Upper Coomera, Queensland, 4209, Australia",
    "Longitude":153.293893,
    "Latitude":-27.859304
  },
  {
    "SiteID":51104,
    "TenantName":"Adams, Chad",
    "Address":"1\/18 Millstream Place",
    "City":"Pimpama",
    "Region":"Qld",
    "PostalCode":"QLD",
    "FullAddress":"1\/18 Millstream Place, Pimpama, Qld, QLD, Australia",
    "Longitude":153.302494,
    "Latitude":-27.819677
  },
  {
    "SiteID":51104,
    "TenantName":"Mcintyre, Mitchell",
    "Address":"3 Sapphire Place",
    "City":"pimpama",
    "Region":"qld",
    "PostalCode":"4209",
    "FullAddress":"3 Sapphire Place, pimpama, qld, 4209, Australia",
    "Longitude":153.308843,
    "Latitude":-27.833202
  },
  {
    "SiteID":51104,
    "TenantName":"Rainback, Chris",
    "Address":"174 Pacific Highway",
    "City":"Tuggerah",
    "Region":"NSW",
    "PostalCode":"2259",
    "FullAddress":"174 Pacific Highway, Tuggerah, NSW, 2259, Australia",
    "Longitude":151.421565,
    "Latitude":-33.296422
  },
  {
    "SiteID":51104,
    "TenantName":"Miller, Taylor",
    "Address":"4 nightshade Cr",
    "City":"Pimpama",
    "Region":"Qld",
    "PostalCode":"4209",
    "FullAddress":"4 nightshade Cr, Pimpama, Qld, 4209, Australia",
    "Longitude":153.288068,
    "Latitude":-27.827414
  },
  {
    "SiteID":51104,
    "TenantName":"Thind, Roby",
    "Address":"127 Balmain Rd",
    "City":"Mickleham",
    "Region":"Vic",
    "PostalCode":"3064",
    "FullAddress":"127 Balmain Rd, Mickleham, Vic, 3064, Australia",
    "Longitude":144.909943,
    "Latitude":-37.533057
  },
  {
    "SiteID":51104,
    "TenantName":"Nevill, Jordan",
    "Address":"30Bushgum crs",
    "City":"Upper Coomera",
    "Region":"Qld",
    "PostalCode":"4209",
    "FullAddress":"30Bushgum crs, Upper Coomera, Qld, 4209, Australia",
    "Longitude":153.298586,
    "Latitude":-27.877957
  },
  {
    "SiteID":51104,
    "TenantName":"Subritzky, Elena",
    "Address":"68 Fountain Street",
    "City":"Pimpama",
    "Region":"Qld",
    "PostalCode":"4209",
    "FullAddress":"68 Fountain Street, Pimpama, Qld, 4209, Australia",
    "Longitude":153.287531,
    "Latitude":-27.813756
  },
  {
    "SiteID":51104,
    "TenantName":"Case, Anthony",
    "Address":"1 Isla st",
    "City":"Pimpama",
    "Region":"Qld",
    "PostalCode":"4209",
    "FullAddress":"1 Isla st, Pimpama, Qld, 4209, Australia",
    "Longitude":153.290187,
    "Latitude":-27.81242
  },
  {
    "SiteID":51104,
    "TenantName":"Tormey, Cooper",
    "Address":"46 Gawain Drive",
    "City":"Ormeau",
    "Region":"QLD",
    "PostalCode":"4208",
    "FullAddress":"46 Gawain Drive, Ormeau, QLD, 4208, Australia",
    "Longitude":153.264796,
    "Latitude":-27.790817
  },
  {
    "SiteID":51104,
    "TenantName":"Dodds, Jeffery",
    "Address":"18 Walter Street",
    "City":"Lowood",
    "Region":"Qld",
    "PostalCode":"4311",
    "FullAddress":"18 Walter Street, Lowood, Qld, 4311, Australia",
    "Longitude":152.578819,
    "Latitude":-27.462462
  },
  {
    "SiteID":51104,
    "TenantName":"Brown, Steven",
    "Address":"2 Rockford Street",
    "City":"Pimpama",
    "Region":"QLD",
    "PostalCode":"4209",
    "FullAddress":"2 Rockford Street, Pimpama, QLD, 4209, Australia",
    "Longitude":153.285601,
    "Latitude":-27.814088
  },
  {
    "SiteID":51104,
    "TenantName":"Xin, Simon",
    "Address":"7 York Street",
    "City":"Pimpama",
    "Region":"QLD",
    "PostalCode":"4209",
    "FullAddress":"7 York Street, Pimpama, QLD, 4209, Australia",
    "Longitude":153.284703,
    "Latitude":-27.814762
  },
  {
    "SiteID":51104,
    "TenantName":"Waara, Natalia",
    "Address":"104 edwardson drive",
    "City":"Gold coast",
    "Region":"Queensland",
    "PostalCode":"4209",
    "FullAddress":"104 edwardson drive, Gold coast, Queensland, 4209, Australia",
    "Longitude":153.331934,
    "Latitude":-27.839303
  },
  {
    "SiteID":51104,
    "TenantName":"Campbell, Brian",
    "Address":"u 2405 1 Marina Prom",
    "City":"Paradise Point",
    "Region":"Qld",
    "PostalCode":"421+6",
    "FullAddress":"u 2405 1 Marina Prom, Paradise Point, Qld, 421+6, Australia",
    "Longitude":153.397578,
    "Latitude":-27.874388
  },
  {
    "SiteID":51104,
    "TenantName":"Dando, Kevin",
    "Address":"11 Danbulla Street",
    "City":"Pimpama",
    "Region":"Qld",
    "PostalCode":"4209",
    "FullAddress":"11 Danbulla Street, Pimpama, Qld, 4209, Australia",
    "Longitude":153.324151,
    "Latitude":-27.824667
  },
  {
    "SiteID":51104,
    "TenantName":"Constantine, Matthew",
    "Address":"7 Yelka st",
    "City":"Ormeau",
    "Region":"Qld",
    "PostalCode":"4208",
    "FullAddress":"7 Yelka st, Ormeau, Qld, 4208, Australia",
    "Longitude":153.26959,
    "Latitude":-27.777219
  },
  {
    "SiteID":51104,
    "TenantName":"Fleming, Jarrod",
    "Address":"31 Paradise Parade",
    "City":"Jacobs Well",
    "Region":"Qld",
    "PostalCode":"4208",
    "FullAddress":"31 Paradise Parade, Jacobs Well, Qld, 4208, Australia",
    "Longitude":153.373488,
    "Latitude":-27.794226
  },
  {
    "SiteID":51104,
    "TenantName":"Plucinski, Marian",
    "Address":"15 Remarkable Street",
    "City":"Pimpama",
    "Region":"QLD",
    "PostalCode":"4209",
    "FullAddress":"15 Remarkable Street, Pimpama, QLD, 4209, Australia",
    "Longitude":153.320664,
    "Latitude":-27.822403
  },
  {
    "SiteID":51104,
    "TenantName":"Thompson, Brent",
    "Address":"18 Stag Court",
    "City":"Upper Coomera",
    "Region":"QLD",
    "PostalCode":"4209",
    "FullAddress":"18 Stag Court, Upper Coomera, QLD, 4209, Australia",
    "Longitude":153.304833,
    "Latitude":-27.875743
  },
  {
    "SiteID":51104,
    "TenantName":"Burger, Julie",
    "Address":"69 Harbour Boulevard",
    "City":"jacobs well",
    "Region":"Qld",
    "PostalCode":"4208",
    "FullAddress":"69 Harbour Boulevard, jacobs well, Qld, 4208, Australia",
    "Longitude":153.3612,
    "Latitude":-27.78782
  },
  {
    "SiteID":51104,
    "TenantName":"Reyes, Fredy",
    "Address":"34 McIvor Court",
    "City":"Ormeau",
    "Region":"QLD",
    "PostalCode":"4208",
    "FullAddress":"34 McIvor Court, Ormeau, QLD, 4208, Australia",
    "Longitude":153.236236,
    "Latitude":-27.783294
  },
  {
    "SiteID":51104,
    "TenantName":"Mcmab, Mathew",
    "Address":"19 Caplick Outlook",
    "City":"Ormeau",
    "Region":"qld",
    "PostalCode":"4208",
    "FullAddress":"19 Caplick Outlook, Ormeau, qld, 4208, Australia",
    "Longitude":153.247764,
    "Latitude":-27.788862
  },
  {
    "SiteID":51104,
    "TenantName":"Thurston, Mark",
    "Address":"PO Box 2192",
    "City":"Southport",
    "Region":"QLD",
    "PostalCode":"4215",
    "FullAddress":"PO Box 2192, Southport, QLD, 4215, Australia",
    "Longitude":138.603054,
    "Latitude":-34.908545
  },
  {
    "SiteID":51104,
    "TenantName":"Campbell, Terri",
    "Address":"10 Anembo Ave",
    "City":"Pimpama",
    "Region":"QLD",
    "PostalCode":"4209",
    "FullAddress":"10 Anembo Ave, Pimpama, QLD, 4209, Australia",
    "Longitude":153.272387,
    "Latitude":-27.795617
  },
  {
    "SiteID":51104,
    "TenantName":"Ritchard, Shaun",
    "Address":"19 jaxson Terrace",
    "City":"Pimpama",
    "Region":"Qld",
    "PostalCode":"4209",
    "FullAddress":"19 jaxson Terrace, Pimpama, Qld, 4209, Australia",
    "Longitude":153.285365,
    "Latitude":-27.82136
  },
  {
    "SiteID":51104,
    "TenantName":"Frost, Matthew",
    "Address":"Unit 2\/3 Christine Place",
    "City":"Capalaba",
    "Region":"QLD",
    "PostalCode":"4157",
    "FullAddress":"Unit 2\/3 Christine Place, Capalaba, QLD, 4157, Australia",
    "Longitude":153.205091,
    "Latitude":-27.531735
  },
  {
    "SiteID":51104,
    "TenantName":"Spence, Philip",
    "Address":"4 Castile Cres",
    "City":"Holmview",
    "Region":"QLD",
    "PostalCode":"4207",
    "FullAddress":"4 Castile Cres, Holmview, QLD, 4207, Australia",
    "Longitude":153.172544,
    "Latitude":-27.711071
  },
  {
    "SiteID":51104,
    "TenantName":"Madadi, Ritesh",
    "Address":"35 Marshall Circuit",
    "City":"Coomera",
    "Region":"QLD",
    "PostalCode":"4209",
    "FullAddress":"35 Marshall Circuit, Coomera, QLD, 4209, Australia",
    "Longitude":153.341926,
    "Latitude":-27.834352
  },
  {
    "SiteID":51104,
    "TenantName":"Giilliam, Linda",
    "Address":"13 Calabash St",
    "City":"Ormeau",
    "Region":"Qld",
    "PostalCode":"4208",
    "FullAddress":"13 Calabash St, Ormeau, Qld, 4208, Australia",
    "Longitude":153.239811,
    "Latitude":-27.76605
  },
  {
    "SiteID":51104,
    "TenantName":"Gilliam, Linda",
    "Address":"Calabash street",
    "City":"Ormeau",
    "Region":"Qld",
    "PostalCode":"4208",
    "FullAddress":"Calabash street, Ormeau, Qld, 4208, Australia",
    "Longitude":153.239809,
    "Latitude":-27.768042
  },
  {
    "SiteID":51104,
    "TenantName":"Paitai, Toni",
    "Address":"8 Laverton St",
    "City":"Ormeau",
    "Region":"QLD",
    "PostalCode":"4208",
    "FullAddress":"8 Laverton St, Ormeau, QLD, 4208, Australia",
    "Longitude":153.261856,
    "Latitude":-27.766773
  },
  {
    "SiteID":51104,
    "TenantName":"Harding, Jenny",
    "Address":"40 crestwood Drive",
    "City":"Nerang",
    "Region":"Qld",
    "PostalCode":"4211",
    "FullAddress":"40 crestwood Drive, Nerang, Qld, 4211, Australia",
    "Longitude":149.714716,
    "Latitude":-34.733604
  },
  {
    "SiteID":51104,
    "TenantName":"Jones, Thomas",
    "Address":"160 Monterey Keys Drive",
    "City":"Helensvale",
    "Region":"QLD",
    "PostalCode":"4212",
    "FullAddress":"160 Monterey Keys Drive, Helensvale, QLD, 4212, Australia",
    "Longitude":153.336914,
    "Latitude":-27.889704
  },
  {
    "SiteID":51104,
    "TenantName":"Pamment, Simon",
    "Address":"7 Rani Avenue",
    "City":"Coomera",
    "Region":"QLD",
    "PostalCode":"4209",
    "FullAddress":"7 Rani Avenue, Coomera, QLD, 4209, Australia",
    "Longitude":153.361049,
    "Latitude":-27.843671
  },
  {
    "SiteID":51104,
    "TenantName":"Muffett, Michael",
    "Address":"44 Collinggrove Crt",
    "City":"Pimpama",
    "Region":"Qld",
    "PostalCode":"4208",
    "FullAddress":"44 Collinggrove Crt, Pimpama, Qld, 4208, Australia",
    "Longitude":138.618058,
    "Latitude":-34.880201
  },
  {
    "SiteID":51104,
    "TenantName":"Pajpal, Jamie",
    "Address":"34 Glenafton Crt",
    "City":"Ormeau",
    "Region":"Qld",
    "PostalCode":"4208",
    "FullAddress":"34 Glenafton Crt, Ormeau, Qld, 4208, Australia",
    "Longitude":153.269491,
    "Latitude":-27.775513
  },
  {
    "SiteID":51104,
    "TenantName":"Halsall, Stuart",
    "Address":"68 Mirambeena Drive",
    "City":"Pimpama",
    "Region":"QLD",
    "PostalCode":"4209",
    "FullAddress":"68 Mirambeena Drive, Pimpama, QLD, 4209, Australia",
    "Longitude":153.284189,
    "Latitude":-27.798466
  },
  {
    "SiteID":51104,
    "TenantName":"Skarratts, Tania",
    "Address":"22\/20 Bedford Road",
    "City":"Pimpama",
    "Region":"Qld",
    "PostalCode":"4209",
    "FullAddress":"22\/20 Bedford Road, Pimpama, Qld, 4209, Australia",
    "Longitude":153.291721,
    "Latitude":-27.819095
  },
  {
    "SiteID":51104,
    "TenantName":"Naidu, Saj",
    "Address":"17 Driftwood Close,",
    "City":"KINGSHOLME",
    "Region":"Qld",
    "PostalCode":"4208",
    "FullAddress":"17 Driftwood Close,, KINGSHOLME, Qld, 4208, Australia",
    "Longitude":153.265358,
    "Latitude":-27.810757
  },
  {
    "SiteID":51104,
    "TenantName":"Mcdonald, Joel",
    "Address":"10 Yantara Close",
    "City":"Ormeau",
    "Region":"QLD",
    "PostalCode":"4208",
    "FullAddress":"10 Yantara Close, Ormeau, QLD, 4208, Australia",
    "Longitude":153.270527,
    "Latitude":-27.774376
  },
  {
    "SiteID":51104,
    "TenantName":"Byrne, Andrew",
    "Address":"13 Saltwater Street",
    "City":"Pimpama",
    "Region":"QLD",
    "PostalCode":"4209",
    "FullAddress":"13 Saltwater Street, Pimpama, QLD, 4209, Australia",
    "Longitude":153.300431,
    "Latitude":-27.81893
  },
  {
    "SiteID":51104,
    "TenantName":"Poole, Jess",
    "Address":"602 \/21 Kombi St",
    "City":"Bokarina",
    "Region":"Qld",
    "PostalCode":"4575",
    "FullAddress":"602 \/21 Kombi St, Bokarina, Qld, 4575, Australia",
    "Longitude":153.133356,
    "Latitude":-26.744081
  },
  {
    "SiteID":51104,
    "TenantName":"Leudo, German",
    "Address":"6 Snow Gum Crescent",
    "City":"Redland Bay",
    "Region":"QLD",
    "PostalCode":"4165",
    "FullAddress":"6 Snow Gum Crescent, Redland Bay, QLD, 4165, Australia",
    "Longitude":153.29937,
    "Latitude":-27.665775
  },
  {
    "SiteID":51104,
    "TenantName":"Sonnex-dunn, Jema-leigh",
    "Address":"7 McLachlan Circuit",
    "City":"Willow Vale",
    "Region":"QLD",
    "PostalCode":"4209",
    "FullAddress":"7 McLachlan Circuit, Willow Vale, QLD, 4209, Australia",
    "Longitude":153.283787,
    "Latitude":-27.826694
  },
  {
    "SiteID":51104,
    "TenantName":"Freeman, John",
    "Address":"9 Elven St",
    "City":"Ormeau Hills",
    "Region":"Qld",
    "PostalCode":"4208",
    "FullAddress":"9 Elven St, Ormeau Hills, Qld, 4208, Australia",
    "Longitude":115.850108,
    "Latitude":-31.933668
  },
  {
    "SiteID":51104,
    "TenantName":"Johnson, Luke",
    "Address":"44 Denham Circuit",
    "City":"Willow Vale",
    "Region":"QLD",
    "PostalCode":"4209",
    "FullAddress":"44 Denham Circuit, Willow Vale, QLD, 4209, Australia",
    "Longitude":153.281388,
    "Latitude":-27.826689
  },
  {
    "SiteID":51104,
    "TenantName":"Birch, Dawn",
    "Address":"6\/323 Christine ave",
    "City":"Varsity lakes",
    "Region":"QLD",
    "PostalCode":"4227",
    "FullAddress":"6\/323 Christine ave, Varsity lakes, QLD, 4227, Australia",
    "Longitude":153.411793,
    "Latitude":-28.084027
  },
  {
    "SiteID":51104,
    "TenantName":"Malley, Grahame",
    "Address":"723 \/ 64-66 Sickle Ave",
    "City":"Hope Island",
    "Region":"QLD",
    "PostalCode":"4212",
    "FullAddress":"723 \/ 64-66 Sickle Ave, Hope Island, QLD, 4212, Australia",
    "Longitude":153.371951,
    "Latitude":-27.870239
  },
  {
    "SiteID":51104,
    "TenantName":"King, Jayden",
    "Address":"2\/20 coral st pimpama",
    "City":"Surfers paradise",
    "Region":"Qld",
    "PostalCode":"4209",
    "FullAddress":"2\/20 coral st pimpama, Surfers paradise, Qld, 4209, Australia",
    "Longitude":153.286276,
    "Latitude":-27.811831
  },
  {
    "SiteID":51104,
    "TenantName":"Whittaker, Tara",
    "Address":"553c stanmore Road",
    "City":"Luscombe",
    "Region":"Qld",
    "PostalCode":"4207",
    "FullAddress":"553c stanmore Road, Luscombe, Qld, 4207, Australia",
    "Longitude":153.196229,
    "Latitude":-27.774159
  },
  {
    "SiteID":51104,
    "TenantName":"Nahona, Para",
    "Address":"36 Cox Road",
    "City":"Pimpama",
    "Region":"Qld",
    "PostalCode":"4209",
    "FullAddress":"36 Cox Road, Pimpama, Qld, 4209, Australia",
    "Longitude":153.304016,
    "Latitude":-27.8251
  },
  {
    "SiteID":51104,
    "TenantName":"Argo, Jason",
    "Address":"unit 27\/24 Jessica Drive",
    "City":"Coomera",
    "Region":"Qld",
    "PostalCode":"4209",
    "FullAddress":"unit 27\/24 Jessica Drive, Coomera, Qld, 4209, Australia",
    "Longitude":153.296773,
    "Latitude":-27.866193
  },
  {
    "SiteID":51104,
    "TenantName":"Mcquoid, Philip",
    "Address":"13 Saltwater Street",
    "City":"Pimpama",
    "Region":"Qld",
    "PostalCode":"4209",
    "FullAddress":"13 Saltwater Street, Pimpama, Qld, 4209, Australia",
    "Longitude":153.300431,
    "Latitude":-27.81893
  },
  {
    "SiteID":51104,
    "TenantName":"Thompson, Jake",
    "Address":"u 2 1 Angela Way",
    "City":"Pimpama",
    "Region":"Qld",
    "PostalCode":"4209",
    "FullAddress":"u 2 1 Angela Way, Pimpama, Qld, 4209, Australia",
    "Longitude":153.305339,
    "Latitude":-27.824991
  },
  {
    "SiteID":51104,
    "TenantName":"Divuya, Lili",
    "Address":"22 Holterman Court",
    "City":"Larapinta",
    "Region":"QLD",
    "PostalCode":"0875",
    "FullAddress":"22 Holterman Court, Larapinta, QLD, 0875, Australia",
    "Longitude":133.831277,
    "Latitude":-23.693337
  },
  {
    "SiteID":51104,
    "TenantName":"Carbery, Dean",
    "Address":"u 61 54 Gemvail Road",
    "City":"Reedy Creek",
    "Region":"Qld",
    "PostalCode":"4227",
    "FullAddress":"u 61 54 Gemvail Road, Reedy Creek, Qld, 4227, Australia",
    "Longitude":153.40344,
    "Latitude":-28.117329
  },
  {
    "SiteID":51104,
    "TenantName":"Heidt, Daniel",
    "Address":"12 Bodacious terrace",
    "City":"Pimpama",
    "Region":"Qld",
    "PostalCode":"4309",
    "FullAddress":"12 Bodacious terrace, Pimpama, Qld, 4309, Australia",
    "Longitude":153.281049,
    "Latitude":-27.824232
  },
  {
    "SiteID":51104,
    "TenantName":"Crane, John",
    "Address":"13 summer hill cres",
    "City":"maudsland",
    "Region":"qld",
    "PostalCode":"4210",
    "FullAddress":"13 summer hill cres, maudsland, qld, 4210, Australia",
    "Longitude":153.282777,
    "Latitude":-27.920598
  },
  {
    "SiteID":51104,
    "TenantName":"Tipasa, Nive",
    "Address":"2\/4 Robert dr",
    "City":"Pimpama",
    "Region":"Qld",
    "PostalCode":"4209",
    "FullAddress":"2\/4 Robert dr, Pimpama, Qld, 4209, Australia",
    "Longitude":153.305946,
    "Latitude":-27.822916
  },
  {
    "SiteID":51104,
    "TenantName":"Winterford, Tony",
    "Address":"1038 Pimpama Jacobs Well Road",
    "City":"Jacobs Well",
    "Region":"QLD",
    "PostalCode":"4208",
    "FullAddress":"1038 Pimpama Jacobs Well Road, Jacobs Well, QLD, 4208, Australia",
    "Longitude":153.355024,
    "Latitude":-27.78545
  },
  {
    "SiteID":51104,
    "TenantName":"Cowdrey, Kristil",
    "Address":"50 Stinson Circuit",
    "City":"Coomera",
    "Region":"QLD",
    "PostalCode":"4209",
    "FullAddress":"50 Stinson Circuit, Coomera, QLD, 4209, Australia",
    "Longitude":153.344056,
    "Latitude":-27.842471
  },
  {
    "SiteID":51104,
    "TenantName":"Maihi, Elijah",
    "Address":"150 George Alexander Way",
    "City":"Coomera",
    "Region":"QLD",
    "PostalCode":"4209",
    "FullAddress":"150 George Alexander Way, Coomera, QLD, 4209, Australia",
    "Longitude":153.32287,
    "Latitude":-27.842501
  },
  {
    "SiteID":51104,
    "TenantName":"Hissey, Chantelle",
    "Address":"64 Bedivere Dr",
    "City":"Ormeau",
    "Region":"QLD",
    "PostalCode":"420&",
    "FullAddress":"64 Bedivere Dr, Ormeau, QLD, 420&, Australia",
    "Longitude":153.262798,
    "Latitude":-27.789092
  },
  {
    "SiteID":51104,
    "TenantName":"Gao, Ming",
    "Address":"71 girtin cct",
    "City":"pimpama",
    "Region":"\u6606\u58eb\u5170\u5dde",
    "PostalCode":"4209",
    "FullAddress":"71 girtin cct, pimpama, \u6606\u58eb\u5170\u5dde, 4209, Australia",
    "Longitude":153.327522,
    "Latitude":-27.83018
  },
  {
    "SiteID":51104,
    "TenantName":"Mifsud, David",
    "Address":"77 Burrendong Road",
    "City":"Coombahba",
    "Region":"QLD",
    "PostalCode":"4216",
    "FullAddress":"77 Burrendong Road, Coombahba, QLD, 4216, Australia",
    "Longitude":153.382992,
    "Latitude":-27.893365
  },
  {
    "SiteID":51104,
    "TenantName":"Karan, Anil",
    "Address":"57 Fairbourne Terrace",
    "City":"Pimpama",
    "Region":"QLD",
    "PostalCode":"4209",
    "FullAddress":"57 Fairbourne Terrace, Pimpama, QLD, 4209, Australia",
    "Longitude":153.285143,
    "Latitude":-27.812103
  },
  {
    "SiteID":51104,
    "TenantName":"Knott, Michael",
    "Address":"16 Christina Drive",
    "City":"Coomera Waters",
    "Region":"Qld",
    "PostalCode":"4209",
    "FullAddress":"16 Christina Drive, Coomera Waters, Qld, 4209, Australia",
    "Longitude":153.349797,
    "Latitude":-27.837918
  },
  {
    "SiteID":51104,
    "TenantName":"Russell, Lindsay",
    "Address":"106 Fountain Street",
    "City":"Pimpama",
    "Region":"QLD",
    "PostalCode":"4209",
    "FullAddress":"106 Fountain Street, Pimpama, QLD, 4209, Australia",
    "Longitude":153.287332,
    "Latitude":-27.81531
  },
  {
    "SiteID":51104,
    "TenantName":"Mason, Matt",
    "Address":"23 Kilkivan Drive",
    "City":"Ormeau",
    "Region":"QLD",
    "PostalCode":"4208",
    "FullAddress":"23 Kilkivan Drive, Ormeau, QLD, 4208, Australia",
    "Longitude":153.267398,
    "Latitude":-27.778324
  },
  {
    "SiteID":51104,
    "TenantName":"Edwards, Rebecca",
    "Address":"12 Kingsford Drive",
    "City":"Upper Coomera",
    "Region":"QLD",
    "PostalCode":"4209",
    "FullAddress":"12 Kingsford Drive, Upper Coomera, QLD, 4209, Australia",
    "Longitude":153.307489,
    "Latitude":-27.864206
  },
  {
    "SiteID":51104,
    "TenantName":"Stevenson, Annette",
    "Address":"unit 7205 323 Bayview St",
    "City":"Hollywell",
    "Region":"QLD",
    "PostalCode":"4216",
    "FullAddress":"unit 7205 323 Bayview St, Hollywell, QLD, 4216, Australia",
    "Longitude":153.399562,
    "Latitude":-27.894835
  },
  {
    "SiteID":51104,
    "TenantName":"Warner, Scott",
    "Address":"33 Hanover Drive",
    "City":"Pimpama",
    "Region":"Queensland",
    "PostalCode":"4209",
    "FullAddress":"33 Hanover Drive, Pimpama, Queensland, 4209, Australia",
    "Longitude":153.289398,
    "Latitude":-27.823632
  },
  {
    "SiteID":51104,
    "TenantName":"Freame, Vicki",
    "Address":"PO Box 553",
    "City":"Rochedale South",
    "Region":"QLD",
    "PostalCode":"4123",
    "FullAddress":"PO Box 553, Rochedale South, QLD, 4123, Australia",
    "Longitude":152.923911,
    "Latitude":-27.029457
  },
  {
    "SiteID":51104,
    "TenantName":"Hippisley, Mark",
    "Address":"10 Cessna Street",
    "City":"Upper Coomera",
    "Region":"QLD",
    "PostalCode":"4209",
    "FullAddress":"10 Cessna Street, Upper Coomera, QLD, 4209, Australia",
    "Longitude":153.31036,
    "Latitude":-27.866435
  },
  {
    "SiteID":51104,
    "TenantName":"Mackie, Tanya",
    "Address":"25b Leichardt Avenue",
    "City":"Rothwell",
    "Region":"Queensland",
    "PostalCode":"4022",
    "FullAddress":"25b Leichardt Avenue, Rothwell, Queensland, 4022, Australia",
    "Longitude":153.040642,
    "Latitude":-27.21159
  },
  {
    "SiteID":51104,
    "TenantName":"Gentle, Rohan",
    "Address":"53 sudbury drive",
    "City":"Pimpama",
    "Region":"QLD",
    "PostalCode":"4209",
    "FullAddress":"53 sudbury drive, Pimpama, QLD, 4209, Australia",
    "Longitude":153.326789,
    "Latitude":-27.831032
  },
  {
    "SiteID":51104,
    "TenantName":"Khan, Shazrina",
    "Address":"6\/282 Marine Parade",
    "City":"Labrador",
    "Region":"QLD",
    "PostalCode":"4215",
    "FullAddress":"6\/282 Marine Parade, Labrador, QLD, 4215, Australia",
    "Longitude":153.409616,
    "Latitude":-27.946433
  },
  {
    "SiteID":51104,
    "TenantName":"Lascala, Gaetano",
    "Address":"47A Blacks Road",
    "City":"Willow Vale",
    "Region":"QLD",
    "PostalCode":"4209",
    "FullAddress":"47A Blacks Road, Willow Vale, QLD, 4209, Australia",
    "Longitude":153.252563,
    "Latitude":-27.845952
  },
  {
    "SiteID":51104,
    "TenantName":"Postans, Lester",
    "Address":"265\/7 Halcyon Drive",
    "City":"Pimpana",
    "Region":"QLD",
    "PostalCode":"4209",
    "FullAddress":"265\/7 Halcyon Drive, Pimpana, QLD, 4209, Australia",
    "Longitude":153.314241,
    "Latitude":-27.815893
  },
  {
    "SiteID":51104,
    "TenantName":"Warwick, Maryanne",
    "Address":"63 Taurus Circuit",
    "City":"Coomera",
    "Region":"Qld",
    "PostalCode":"4209",
    "FullAddress":"63 Taurus Circuit, Coomera, Qld, 4209, Australia",
    "Longitude":153.325942,
    "Latitude":-27.837206
  },
  {
    "SiteID":51104,
    "TenantName":"Edwards, Bradley",
    "Address":"2\/3 Jacqueline Avenue",
    "City":"Labrador",
    "Region":"QLD",
    "PostalCode":"4215",
    "FullAddress":"2\/3 Jacqueline Avenue, Labrador, QLD, 4215, Australia",
    "Longitude":153.392485,
    "Latitude":-27.949225
  },
  {
    "SiteID":51104,
    "TenantName":"Sachdeva, Silky",
    "Address":"459 Gainsborough Drive",
    "City":"Pimpama",
    "Region":"QLD",
    "PostalCode":"4209",
    "FullAddress":"459 Gainsborough Drive, Pimpama, QLD, 4209, Australia",
    "Longitude":153.304628,
    "Latitude":-27.82101
  },
  {
    "SiteID":51104,
    "TenantName":"Atkinson, Cameron",
    "Address":"125 Fairbourne Terrace",
    "City":"Pimpama",
    "Region":"QLD",
    "PostalCode":"4209",
    "FullAddress":"125 Fairbourne Terrace, Pimpama, QLD, 4209, Australia",
    "Longitude":153.29049,
    "Latitude":-27.811082
  },
  {
    "SiteID":51104,
    "TenantName":"Howard, Elise",
    "Address":"4 Comic court",
    "City":"Wellington Point",
    "Region":"Qld",
    "PostalCode":"4160",
    "FullAddress":"4 Comic court, Wellington Point, Qld, 4160, Australia",
    "Longitude":153.22703,
    "Latitude":-27.503615
  },
  {
    "SiteID":51104,
    "TenantName":"Fisk, Benjamin",
    "Address":"11 Emilia street",
    "City":"Coomera",
    "Region":"QLD",
    "PostalCode":"4209",
    "FullAddress":"11 Emilia street, Coomera, QLD, 4209, Australia",
    "Longitude":153.324151,
    "Latitude":-27.841279
  },
  {
    "SiteID":51104,
    "TenantName":"Bacolor, Fritzie",
    "Address":"20 Balla Balla Cres",
    "City":"Ormeau Hills",
    "Region":"QLD",
    "PostalCode":"4208",
    "FullAddress":"20 Balla Balla Cres, Ormeau Hills, QLD, 4208, Australia",
    "Longitude":153.247442,
    "Latitude":-27.800257
  },
  {
    "SiteID":51104,
    "TenantName":"Kingi, Robina",
    "Address":"84\/188 Gainsborough Drive",
    "City":"PIMPAMA",
    "Region":"QLD",
    "PostalCode":"4209",
    "FullAddress":"84\/188 Gainsborough Drive, PIMPAMA, QLD, 4209, Australia",
    "Longitude":153.316523,
    "Latitude":-27.823624
  },
  {
    "SiteID":51104,
    "TenantName":"Ghotra, Sarabjeet",
    "Address":"34 Edmonds Street",
    "City":"Coomera",
    "Region":"QLD",
    "PostalCode":"4209",
    "FullAddress":"34 Edmonds Street, Coomera, QLD, 4209, Australia",
    "Longitude":153.345256,
    "Latitude":-27.853907
  },
  {
    "SiteID":51104,
    "TenantName":"Kelly, Michael",
    "Address":"10 Palmerston Drive",
    "City":"Oxenford",
    "Region":"QLD",
    "PostalCode":"4210",
    "FullAddress":"10 Palmerston Drive, Oxenford, QLD, 4210, Australia",
    "Longitude":153.308709,
    "Latitude":-27.922186
  },
  {
    "SiteID":51104,
    "TenantName":"Pollard, Amy",
    "Address":"10 Bonita Crt",
    "City":"Mudgeeraba",
    "Region":"Qld",
    "PostalCode":"4213",
    "FullAddress":"10 Bonita Crt, Mudgeeraba, Qld, 4213, Australia",
    "Longitude":153.373327,
    "Latitude":-28.089165
  },
  {
    "SiteID":51104,
    "TenantName":"Neylan, Luke",
    "Address":"70 Beaudesert Nerang Road",
    "City":"Nerang",
    "Region":"QLD",
    "PostalCode":"4211",
    "FullAddress":"70 Beaudesert Nerang Road, Nerang, QLD, 4211, Australia",
    "Longitude":153.333096,
    "Latitude":-27.993149
  },
  {
    "SiteID":51104,
    "TenantName":"Smith, Brock",
    "Address":"18 Brett st",
    "City":"Pimpama",
    "Region":"Qld",
    "PostalCode":"4209",
    "FullAddress":"18 Brett st, Pimpama, Qld, 4209, Australia",
    "Longitude":153.314803,
    "Latitude":-27.827335
  },
  {
    "SiteID":51104,
    "TenantName":"Bitzer, Nicole",
    "Address":"2\/67 Fireboun Tc",
    "City":"Pimpama",
    "Region":"Qld",
    "PostalCode":"4209",
    "FullAddress":"2\/67 Fireboun Tc, Pimpama, Qld, 4209, Australia",
    "Longitude":138.603055,
    "Latitude":-34.908545
  },
  {
    "SiteID":51104,
    "TenantName":"Dolan, Sophia",
    "Address":"Dolan St",
    "City":"Eagleby",
    "Region":"Qld",
    "PostalCode":"4207",
    "FullAddress":"Dolan St, Eagleby, Qld, 4207, Australia",
    "Longitude":153.222725,
    "Latitude":-27.688082
  },
  {
    "SiteID":51104,
    "TenantName":"Lockwood, Michael",
    "Address":"85 Fairbourne Terrace",
    "City":"Pimpama",
    "Region":"Qld",
    "PostalCode":"4209",
    "FullAddress":"85 Fairbourne Terrace, Pimpama, Qld, 4209, Australia",
    "Longitude":153.287426,
    "Latitude":-27.810819
  },
  {
    "SiteID":51104,
    "TenantName":"Baker, Mathew",
    "Address":"3 Carnarvon Court",
    "City":"Pimpama",
    "Region":"QLD",
    "PostalCode":"4209",
    "FullAddress":"3 Carnarvon Court, Pimpama, QLD, 4209, Australia",
    "Longitude":153.323428,
    "Latitude":-27.830279
  },
  {
    "SiteID":51104,
    "TenantName":"Schmidt, Jaelee",
    "Address":"3 Antonio Place Coom",
    "City":"Coomera",
    "Region":"QLD",
    "PostalCode":"4209",
    "FullAddress":"3 Antonio Place Coom, Coomera, QLD, 4209, Australia",
    "Longitude":153.341503,
    "Latitude":-27.839333
  },
  {
    "SiteID":51104,
    "TenantName":"Gowland, Martyn",
    "Address":"85 Ormeau Ridge Road",
    "City":"Ormeau Hills",
    "Region":"Queensland",
    "PostalCode":"4208",
    "FullAddress":"85 Ormeau Ridge Road, Ormeau Hills, Queensland, 4208, Australia",
    "Longitude":153.249481,
    "Latitude":-27.796525
  },
  {
    "SiteID":51104,
    "TenantName":"Hurst, Ella",
    "Address":"8 Belconnen Drive",
    "City":"Pimpama",
    "Region":"QLD",
    "PostalCode":"4209",
    "FullAddress":"8 Belconnen Drive, Pimpama, QLD, 4209, Australia",
    "Longitude":153.306827,
    "Latitude":-27.819842
  },
  {
    "SiteID":51104,
    "TenantName":"Walia, Bhanu",
    "Address":"HS G 15 Ashburton Street",
    "City":"Ormeau Hills",
    "Region":"QLD",
    "PostalCode":"4208",
    "FullAddress":"HS G 15 Ashburton Street, Ormeau Hills, QLD, 4208, Australia",
    "Longitude":153.252763,
    "Latitude":-27.800883
  },
  {
    "SiteID":51104,
    "TenantName":"Magno, Xavier",
    "Address":"10 Drumbeat Place",
    "City":"Coomera",
    "Region":"QLD",
    "PostalCode":"4209",
    "FullAddress":"10 Drumbeat Place, Coomera, QLD, 4209, Australia",
    "Longitude":153.359052,
    "Latitude":-27.841734
  },
  {
    "SiteID":51104,
    "TenantName":"Cann, Madison",
    "Address":"5 Emperor Street",
    "City":"Kanimbla",
    "Region":"QLD",
    "PostalCode":"4870",
    "FullAddress":"5 Emperor Street, Kanimbla, QLD, 4870, Australia",
    "Longitude":145.722421,
    "Latitude":-16.922768
  },
  {
    "SiteID":51104,
    "TenantName":"Coles, Simon",
    "Address":"PO Box 201",
    "City":"Ormeau",
    "Region":"QLD",
    "PostalCode":"4208",
    "FullAddress":"PO Box 201, Ormeau, QLD, 4208, Australia",
    "Longitude":138.602858,
    "Latitude":-34.908656
  },
  {
    "SiteID":51104,
    "TenantName":"Hart, Arella",
    "Address":"19 Imperial Parade, Unit 418",
    "City":"Labrador",
    "Region":"QLD",
    "PostalCode":"4215",
    "FullAddress":"19 Imperial Parade, Unit 418, Labrador, QLD, 4215, Australia",
    "Longitude":153.408282,
    "Latitude":-27.94385
  },
  {
    "SiteID":51104,
    "TenantName":"Niha, Terri",
    "Address":"65 Melbrook Street",
    "City":"Pimpama",
    "Region":"QLD",
    "PostalCode":"4209",
    "FullAddress":"65 Melbrook Street, Pimpama, QLD, 4209, Australia",
    "Longitude":153.313795,
    "Latitude":-27.830401
  },
  {
    "SiteID":51104,
    "TenantName":"Shacklock, Alice",
    "Address":"5 Drew Court",
    "City":"Ormeau",
    "Region":"QLD",
    "PostalCode":"4208",
    "FullAddress":"5 Drew Court, Ormeau, QLD, 4208, Australia",
    "Longitude":153.263499,
    "Latitude":-27.791021
  },
  {
    "SiteID":51104,
    "TenantName":"Gimenez, Daniel",
    "Address":"16 Carinya Crt",
    "City":"Pimpama",
    "Region":"QLD",
    "PostalCode":"4209",
    "FullAddress":"16 Carinya Crt, Pimpama, QLD, 4209, Australia",
    "Longitude":153.284427,
    "Latitude":-27.808431
  },
  {
    "SiteID":51104,
    "TenantName":"Rankin, Sue",
    "Address":"unit 3\/ 1 Plantain Road",
    "City":"Shailer Park",
    "Region":"Qld",
    "PostalCode":"4212",
    "FullAddress":"unit 3\/ 1 Plantain Road, Shailer Park, Qld, 4212, Australia",
    "Longitude":153.184407,
    "Latitude":-27.664199
  },
  {
    "SiteID":51104,
    "TenantName":"Kenny, Tracy",
    "Address":"17 stone creek drive",
    "City":"Upper coomera",
    "Region":"QLD",
    "PostalCode":"4209",
    "FullAddress":"17 stone creek drive, Upper coomera, QLD, 4209, Australia",
    "Longitude":153.270841,
    "Latitude":-27.895295
  },
  {
    "SiteID":51104,
    "TenantName":"Te Maeva, Piri",
    "Address":"3 Martina Court",
    "City":"Capalaba",
    "Region":"QLD",
    "PostalCode":"4157",
    "FullAddress":"3 Martina Court, Capalaba, QLD, 4157, Australia",
    "Longitude":153.20169,
    "Latitude":-27.538382
  },
  {
    "SiteID":51104,
    "TenantName":"Simmonds, Brett",
    "Address":"77 Cobaki Rd",
    "City":"Cobaki",
    "Region":"NSW",
    "PostalCode":"2486",
    "FullAddress":"77 Cobaki Rd, Cobaki, NSW, 2486, Australia",
    "Longitude":153.477527,
    "Latitude":-28.197029
  },
  {
    "SiteID":51104,
    "TenantName":"Isiade, Oluseye",
    "Address":"8 Swan Road",
    "City":"Pimpama",
    "Region":"QLD",
    "PostalCode":"4209",
    "FullAddress":"8 Swan Road, Pimpama, QLD, 4209, Australia",
    "Longitude":153.305157,
    "Latitude":-27.821114
  },
  {
    "SiteID":51104,
    "TenantName":"Hofmann-young, Bree",
    "Address":"3\/21 Bedford Road",
    "City":"Pimpama",
    "Region":"QLD",
    "PostalCode":"4209",
    "FullAddress":"3\/21 Bedford Road, Pimpama, QLD, 4209, Australia",
    "Longitude":153.291522,
    "Latitude":-27.818088
  },
  {
    "SiteID":51104,
    "TenantName":"Wiggins, Jon",
    "Address":"3 Epping Avenue",
    "City":"pimpama",
    "Region":"QLD",
    "PostalCode":"4209",
    "FullAddress":"3 Epping Avenue, pimpama, QLD, 4209, Australia",
    "Longitude":153.323427,
    "Latitude":-27.81698
  },
  {
    "SiteID":51104,
    "TenantName":"Dunstan, Renee",
    "Address":"101 River Run Circuit",
    "City":"Ormeau Hills",
    "Region":"Qld",
    "PostalCode":"4218",
    "FullAddress":"101 River Run Circuit, Ormeau Hills, Qld, 4218, Australia",
    "Longitude":153.249227,
    "Latitude":-27.802929
  },
  {
    "SiteID":51104,
    "TenantName":"Mikaheal, Andrew",
    "Address":"24 summerhill st",
    "City":"victoria point",
    "Region":"qld",
    "PostalCode":"4165",
    "FullAddress":"24 summerhill st, victoria point, qld, 4165, Australia",
    "Longitude":153.270043,
    "Latitude":-27.59108
  },
  {
    "SiteID":51104,
    "TenantName":"Bonner, Jaxon",
    "Address":"24 Aaron street",
    "City":"Gold coast",
    "Region":"Qld",
    "PostalCode":"4209",
    "FullAddress":"24 Aaron street, Gold coast, Qld, 4209, Australia",
    "Longitude":153.448781,
    "Latitude":-28.124922
  },
  {
    "SiteID":51104,
    "TenantName":"Clancy, Michael",
    "Address":"3\/427 Oxley drive",
    "City":"Runaway bay",
    "Region":"QLD",
    "PostalCode":"4216",
    "FullAddress":"3\/427 Oxley drive, Runaway bay, QLD, 4216, Australia",
    "Longitude":153.388138,
    "Latitude":-27.917146
  },
  {
    "SiteID":51104,
    "TenantName":"Richter, Michael",
    "Address":"22 Island View Terrace",
    "City":"Ormeau Hills",
    "Region":"Qld",
    "PostalCode":"4208",
    "FullAddress":"22 Island View Terrace, Ormeau Hills, Qld, 4208, Australia",
    "Longitude":150.13907,
    "Latitude":-36.056951
  },
  {
    "SiteID":51104,
    "TenantName":"Jackson, Elly",
    "Address":"31 highview pl",
    "City":"Parkwood",
    "Region":"QLD",
    "PostalCode":"4214",
    "FullAddress":"31 highview pl, Parkwood, QLD, 4214, Australia",
    "Longitude":153.349728,
    "Latitude":-27.95279
  },
  {
    "SiteID":51104,
    "TenantName":"Taylor, Donna",
    "Address":"91 Annabelle Crs",
    "City":"Upper Coomera",
    "Region":"Qld",
    "PostalCode":"4209",
    "FullAddress":"91 Annabelle Crs, Upper Coomera, Qld, 4209, Australia",
    "Longitude":153.291206,
    "Latitude":-27.861984
  },
  {
    "SiteID":51104,
    "TenantName":"Wilson, Naera",
    "Address":"5 Desley St.",
    "City":"Marsden",
    "Region":"Qld",
    "PostalCode":"4132",
    "FullAddress":"5 Desley St., Marsden, Qld, 4132, Australia",
    "Longitude":153.101666,
    "Latitude":-27.678084
  },
  {
    "SiteID":51104,
    "TenantName":"Wright, David",
    "Address":"25 Cliff Barrons Road",
    "City":"Kingsholme",
    "Region":"QLD",
    "PostalCode":"4208",
    "FullAddress":"25 Cliff Barrons Road, Kingsholme, QLD, 4208, Australia",
    "Longitude":153.222712,
    "Latitude":-27.811888
  },
  {
    "SiteID":51104,
    "TenantName":"Slade, Ethan",
    "Address":"57 Mirinae Court",
    "City":"Pimpama",
    "Region":"QLD",
    "PostalCode":"4209",
    "FullAddress":"57 Mirinae Court, Pimpama, QLD, 4209, Australia",
    "Longitude":153.313857,
    "Latitude":-27.825782
  },
  {
    "SiteID":51104,
    "TenantName":"Sanches, Gerardo",
    "Address":"3 BYRAM CRT",
    "City":"Ormeau Hills",
    "Region":"Qld",
    "PostalCode":"4209",
    "FullAddress":"3 BYRAM CRT, Ormeau Hills, Qld, 4209, Australia",
    "Longitude":153.247362,
    "Latitude":-27.794785
  },
  {
    "SiteID":51104,
    "TenantName":"Arona, Tania",
    "Address":"0451775339",
    "City":"Pimpama",
    "Region":"QLD",
    "PostalCode":"4209",
    "FullAddress":"0451775339, Pimpama, QLD, 4209, Australia",
    "Longitude":138.603055,
    "Latitude":-34.908545
  },
  {
    "SiteID":51104,
    "TenantName":"Reis, Adrian",
    "Address":"30 Beaufort Crescent Ormeau Hills",
    "City":"Gold coast",
    "Region":"QLD",
    "PostalCode":"4208",
    "FullAddress":"30 Beaufort Crescent Ormeau Hills, Gold coast, QLD, 4208, Australia",
    "Longitude":153.247157,
    "Latitude":-27.803214
  },
  {
    "SiteID":51104,
    "TenantName":"Daly, Brett",
    "Address":"90 Fountain St",
    "City":"Pimpama",
    "Region":"Qld",
    "PostalCode":"4209",
    "FullAddress":"90 Fountain St, Pimpama, Qld, 4209, Australia",
    "Longitude":153.286409,
    "Latitude":-27.814999
  },
  {
    "SiteID":51104,
    "TenantName":"Madadi, Madhuri",
    "Address":"35 Marshal Crt",
    "City":"Pimpama",
    "Region":"Qld",
    "PostalCode":"4209",
    "FullAddress":"35 Marshal Crt, Pimpama, Qld, 4209, Australia",
    "Longitude":144.790047,
    "Latitude":-37.848037
  },
  {
    "SiteID":51104,
    "TenantName":"Mcdonald, Bruce",
    "Address":"36 Benwerrrin St",
    "City":"Pimpama",
    "Region":"Qld",
    "PostalCode":"4209",
    "FullAddress":"36 Benwerrrin St, Pimpama, Qld, 4209, Australia",
    "Longitude":153.311367,
    "Latitude":-27.829982
  },
  {
    "SiteID":51104,
    "TenantName":"Malo, Janine",
    "Address":"12 Poinciana Place",
    "City":"Jacobs Well",
    "Region":"QLD",
    "PostalCode":"4208",
    "FullAddress":"12 Poinciana Place, Jacobs Well, QLD, 4208, Australia",
    "Longitude":153.375348,
    "Latitude":-27.793879
  },
  {
    "SiteID":51104,
    "TenantName":"Himstedt, Alexis",
    "Address":"26 dahlia Crt",
    "City":"Ormeau",
    "Region":"Qld",
    "PostalCode":"4208",
    "FullAddress":"26 dahlia Crt, Ormeau, Qld, 4208, Australia",
    "Longitude":153.263346,
    "Latitude":-27.781523
  },
  {
    "SiteID":51104,
    "TenantName":"East, Katie",
    "Address":"28 Macleay Circuit",
    "City":"Upper Coomera",
    "Region":"QLD",
    "PostalCode":"4209",
    "FullAddress":"28 Macleay Circuit, Upper Coomera, QLD, 4209, Australia",
    "Longitude":153.274631,
    "Latitude":-27.889261
  },
  {
    "SiteID":51104,
    "TenantName":"Vuavua, Semisi",
    "Address":"12 Poinciana Place",
    "City":"Jacobs Well",
    "Region":"Qld",
    "PostalCode":"42080",
    "FullAddress":"12 Poinciana Place, Jacobs Well, Qld, 42080, Australia",
    "Longitude":153.375348,
    "Latitude":-27.793879
  },
  {
    "SiteID":51104,
    "TenantName":"O'hearn, Shannon",
    "Address":"0411569162",
    "City":"PIMPAMA (QLD)",
    "Region":"Qld",
    "PostalCode":"4209",
    "FullAddress":"0411569162, PIMPAMA (QLD), Qld, 4209, Australia",
    "Longitude":138.603055,
    "Latitude":-34.908545
  },
  {
    "SiteID":51104,
    "TenantName":"Newton, Ross",
    "Address":"31 Guara Grove",
    "City":"Pimpama",
    "Region":"Queensland",
    "PostalCode":"4209",
    "FullAddress":"31 Guara Grove, Pimpama, Queensland, 4209, Australia",
    "Longitude":153.2774,
    "Latitude":-27.80698
  },
  {
    "SiteID":51104,
    "TenantName":"Edwards, Hannah",
    "Address":"9 McVeigh street, Pimpama",
    "City":"Gold Coast",
    "Region":"QLD",
    "PostalCode":"4209",
    "FullAddress":"9 McVeigh street, Pimpama, Gold Coast, QLD, 4209, Australia",
    "Longitude":153.303781,
    "Latitude":-27.824813
  },
  {
    "SiteID":51104,
    "TenantName":"Garcia, Gus",
    "Address":"5 Koolkuna court",
    "City":"PIMPAMA (QLD)",
    "Region":"QLD",
    "PostalCode":"4209",
    "FullAddress":"5 Koolkuna court, PIMPAMA (QLD), QLD, 4209, Australia",
    "Longitude":153.274919,
    "Latitude":-27.796854
  },
  {
    "SiteID":51104,
    "TenantName":"O'loughlin, Richard",
    "Address":"11 Mary Place",
    "City":"Ormeau",
    "Region":"QLD",
    "PostalCode":"4208",
    "FullAddress":"11 Mary Place, Ormeau, QLD, 4208, Australia",
    "Longitude":153.26638,
    "Latitude":-27.795856
  },
  {
    "SiteID":51104,
    "TenantName":"Lowry, Robert",
    "Address":"167 Peppertree Drive",
    "City":"Jimboomba",
    "Region":"QLD",
    "PostalCode":"4280",
    "FullAddress":"167 Peppertree Drive, Jimboomba, QLD, 4280, Australia",
    "Longitude":153.034829,
    "Latitude":-27.865675
  },
  {
    "SiteID":51104,
    "TenantName":"Willison, Ree",
    "Address":"31 Brentnall Street",
    "City":"Norman Park",
    "Region":"QLD",
    "PostalCode":"4170",
    "FullAddress":"31 Brentnall Street, Norman Park, QLD, 4170, Australia",
    "Longitude":153.0586,
    "Latitude":-27.477381
  },
  {
    "SiteID":51104,
    "TenantName":"Hill, Jennifer",
    "Address":"34 Reedman Road",
    "City":"Ormeau",
    "Region":"QLD",
    "PostalCode":"4208",
    "FullAddress":"34 Reedman Road, Ormeau, QLD, 4208, Australia",
    "Longitude":153.263796,
    "Latitude":-27.791231
  },
  {
    "SiteID":51104,
    "TenantName":"Zipf, Mackaela",
    "Address":"66 Vaughan drive",
    "City":"Ormeau",
    "Region":"QLD",
    "PostalCode":"4208",
    "FullAddress":"66 Vaughan drive, Ormeau, QLD, 4208, Australia",
    "Longitude":153.24209,
    "Latitude":-27.780475
  },
  {
    "SiteID":51104,
    "TenantName":"Conroy, Michael",
    "Address":"70\/188 Gainsborough Drive",
    "City":"Pimpama",
    "Region":"Qld",
    "PostalCode":"4209",
    "FullAddress":"70\/188 Gainsborough Drive, Pimpama, Qld, 4209, Australia",
    "Longitude":153.316523,
    "Latitude":-27.823624
  },
  {
    "SiteID":51104,
    "TenantName":"Milojkovic, Tia",
    "Address":"2 Paluma Crescent",
    "City":"Pimpama",
    "Region":"QLD",
    "PostalCode":"4209",
    "FullAddress":"2 Paluma Crescent, Pimpama, QLD, 4209, Australia",
    "Longitude":153.327032,
    "Latitude":-27.821477
  },
  {
    "SiteID":51104,
    "TenantName":"Farrell, Richard",
    "Address":"u13 32 formosa Street",
    "City":"Pimpama",
    "Region":"Qld",
    "PostalCode":"4209",
    "FullAddress":"u13 32 formosa Street, Pimpama, Qld, 4209, Australia",
    "Longitude":153.297562,
    "Latitude":-27.819338
  },
  {
    "SiteID":51104,
    "TenantName":"Dickson, Jacqui",
    "Address":"38 O'Reilly Drive",
    "City":"Coomera",
    "Region":"QLD",
    "PostalCode":"4209",
    "FullAddress":"38 O'Reilly Drive, Coomera, QLD, 4209, Australia",
    "Longitude":153.345164,
    "Latitude":-27.840822
  },
  {
    "SiteID":51104,
    "TenantName":"Samphire, Mark",
    "Address":"2\/21 Mc Vay st",
    "City":"PIMPAMA (QLD)",
    "Region":"Qld",
    "PostalCode":"4209",
    "FullAddress":"2\/21 Mc Vay st, PIMPAMA (QLD), Qld, 4209, Australia",
    "Longitude":153.289052,
    "Latitude":-27.817825
  },
  {
    "SiteID":51104,
    "TenantName":"Beck, Alison",
    "Address":"26\/2-6 Byth Street",
    "City":"Arundel",
    "Region":"QLD",
    "PostalCode":"4214",
    "FullAddress":"26\/2-6 Byth Street, Arundel, QLD, 4214, Australia",
    "Longitude":153.382969,
    "Latitude":-27.938392
  },
  {
    "SiteID":51104,
    "TenantName":"Tegg, Amee",
    "Address":"23 Enderbury Cres.",
    "City":"Pacific Pines",
    "Region":"QLD",
    "PostalCode":"4211",
    "FullAddress":"23 Enderbury Cres., Pacific Pines, QLD, 4211, Australia",
    "Longitude":153.334948,
    "Latitude":-27.939367
  },
  {
    "SiteID":51104,
    "TenantName":"Fox, Jeffrey",
    "Address":"11 Hidden Court",
    "City":"KINGSHOLME",
    "Region":"QLD",
    "PostalCode":"4208",
    "FullAddress":"11 Hidden Court, KINGSHOLME, QLD, 4208, Australia",
    "Longitude":153.249292,
    "Latitude":-27.816886
  },
  {
    "SiteID":51104,
    "TenantName":"Rawlings, Taylor",
    "Address":"104\/31 Langport parade Musgeeraba",
    "City":"Mudgeeraba",
    "Region":"QLD",
    "PostalCode":"4213",
    "FullAddress":"104\/31 Langport parade Musgeeraba, Mudgeeraba, QLD, 4213, Australia",
    "Longitude":153.385242,
    "Latitude":-28.090138
  },
  {
    "SiteID":51104,
    "TenantName":"Nanova, Ratu",
    "Address":"9 Flinders Street",
    "City":"Coomera",
    "Region":"QLD",
    "PostalCode":"4209",
    "FullAddress":"9 Flinders Street, Coomera, QLD, 4209, Australia",
    "Longitude":153.299724,
    "Latitude":-27.818493
  },
  {
    "SiteID":51104,
    "TenantName":"Wallace, Clinton",
    "Address":"151 Hotham Creek Road",
    "City":"Willow Vale",
    "Region":"QLD",
    "PostalCode":"4209",
    "FullAddress":"151 Hotham Creek Road, Willow Vale, QLD, 4209, Australia",
    "Longitude":153.275445,
    "Latitude":-27.83131
  },
  {
    "SiteID":51104,
    "TenantName":"Steve Harper, Main Beach Removals",
    "Address":"3 Ozone Parade",
    "City":"Miami",
    "Region":"Qld",
    "PostalCode":"4220",
    "FullAddress":"3 Ozone Parade, Miami, Qld, 4220, Australia",
    "Longitude":153.434439,
    "Latitude":-28.064293
  },
  {
    "SiteID":51104,
    "TenantName":"Collins, Audrey",
    "Address":"5 Geoffrey Miller Avnue",
    "City":"Pimpama",
    "Region":"QLD",
    "PostalCode":"4209",
    "FullAddress":"5 Geoffrey Miller Avnue, Pimpama, QLD, 4209, Australia",
    "Longitude":153.320952,
    "Latitude":-27.83627
  },
  {
    "SiteID":51104,
    "TenantName":"Kiss, Daniel",
    "Address":"31a Matas Drive",
    "City":"Pimpama",
    "Region":"QLD",
    "PostalCode":"4209",
    "FullAddress":"31a Matas Drive, Pimpama, QLD, 4209, Australia",
    "Longitude":153.307618,
    "Latitude":-27.832235
  },
  {
    "SiteID":51104,
    "TenantName":"Allsbury, Jenny",
    "Address":"60-70 Seaworld Drive",
    "City":"Main Beach",
    "Region":"Qld",
    "PostalCode":"4215",
    "FullAddress":"60-70 Seaworld Drive, Main Beach, Qld, 4215, Australia",
    "Longitude":153.426598,
    "Latitude":-27.969072
  },
  {
    "SiteID":51104,
    "TenantName":"Hooper, Bert",
    "Address":"27 Salzburg Rd",
    "City":"Pimpama",
    "Region":"QLD",
    "PostalCode":"4209",
    "FullAddress":"27 Salzburg Rd, Pimpama, QLD, 4209, Australia",
    "Longitude":153.295718,
    "Latitude":-27.818468
  },
  {
    "SiteID":51104,
    "TenantName":"Singh, Gurpratap",
    "Address":"53 macleay cct",
    "City":"gold coast",
    "Region":"queensland",
    "PostalCode":"4209",
    "FullAddress":"53 macleay cct, gold coast, queensland, 4209, Australia",
    "Longitude":153.275397,
    "Latitude":-27.890887
  },
  {
    "SiteID":51104,
    "TenantName":"Berryman, Boyso",
    "Address":"3 deidre Ann street",
    "City":"Raceview",
    "Region":"Queensland",
    "PostalCode":"4305",
    "FullAddress":"3 deidre Ann street, Raceview, Queensland, 4305, Australia",
    "Longitude":152.776329,
    "Latitude":-27.638946
  },
  {
    "SiteID":51104,
    "TenantName":"Forbes, Graham",
    "Address":"56 MARSHALL CCT",
    "City":"COOMERA",
    "Region":"QLD",
    "PostalCode":"4209",
    "FullAddress":"56 MARSHALL CCT, COOMERA, QLD, 4209, Australia",
    "Longitude":153.342755,
    "Latitude":-27.834834
  },
  {
    "SiteID":51104,
    "TenantName":"Karnib, Yolla",
    "Address":"17 Belconnen Drive",
    "City":"Pimpama",
    "Region":"QLD",
    "PostalCode":"4209",
    "FullAddress":"17 Belconnen Drive, Pimpama, QLD, 4209, Australia",
    "Longitude":153.307079,
    "Latitude":-27.820287
  },
  {
    "SiteID":51104,
    "TenantName":"Zeng, Andrew",
    "Address":"169 Dixon Drive",
    "City":"Pimpama",
    "Region":"QLD",
    "PostalCode":"4209",
    "FullAddress":"169 Dixon Drive, Pimpama, QLD, 4209, Australia",
    "Longitude":153.317483,
    "Latitude":-27.83398
  },
  {
    "SiteID":51104,
    "TenantName":"Bueno, Kevin",
    "Address":"49 Karall St",
    "City":"Ormeau",
    "Region":"QLD",
    "PostalCode":"4208",
    "FullAddress":"49 Karall St, Ormeau, QLD, 4208, Australia",
    "Longitude":153.240765,
    "Latitude":-27.769723
  },
  {
    "SiteID":51104,
    "TenantName":"Martin, Tatum",
    "Address":"3 Elizabeth court",
    "City":"Macleay island",
    "Region":"QLD",
    "PostalCode":"4184",
    "FullAddress":"3 Elizabeth court, Macleay island, QLD, 4184, Australia",
    "Longitude":153.354995,
    "Latitude":-27.624912
  },
  {
    "SiteID":51104,
    "TenantName":"Reynolds, Jonathon",
    "Address":"17 Wood Street",
    "City":"Warwick",
    "Region":"Qld",
    "PostalCode":"4370",
    "FullAddress":"17 Wood Street, Warwick, Qld, 4370, Australia",
    "Longitude":152.037139,
    "Latitude":-28.220711
  },
  {
    "SiteID":51104,
    "TenantName":"Mclean, Kathyrn",
    "Address":"10 Santa Monica Blvd",
    "City":"Hope Island",
    "Region":"QLD",
    "PostalCode":"4212",
    "FullAddress":"10 Santa Monica Blvd, Hope Island, QLD, 4212, Australia",
    "Longitude":153.352611,
    "Latitude":-27.868139
  },
  {
    "SiteID":51104,
    "TenantName":"Kahui, Richard",
    "Address":"2\/18 Foreshore Street",
    "City":"Coomera",
    "Region":"Qld",
    "PostalCode":"4209",
    "FullAddress":"2\/18 Foreshore Street, Coomera, Qld, 4209, Australia",
    "Longitude":153.343191,
    "Latitude":-27.855242
  },
  {
    "SiteID":51104,
    "TenantName":"Ketchell, Neil Benjamin",
    "Address":"55 Bella Boulevard",
    "City":"Willow Vale",
    "Region":"QLD",
    "PostalCode":"4209",
    "FullAddress":"55 Bella Boulevard, Willow Vale, QLD, 4209, Australia",
    "Longitude":153.282367,
    "Latitude":-27.827459
  },
  {
    "SiteID":51104,
    "TenantName":"Summers, Megan",
    "Address":"22 Pacha Close",
    "City":"Gold Coast",
    "Region":"QLD",
    "PostalCode":"4209",
    "FullAddress":"22 Pacha Close, Gold Coast, QLD, 4209, Australia",
    "Longitude":153.359955,
    "Latitude":-27.836032
  },
  {
    "SiteID":51104,
    "TenantName":"Mckenzie, Keely-jai",
    "Address":"55 seabright cct",
    "City":"Jacobs well",
    "Region":"Qld",
    "PostalCode":"4208",
    "FullAddress":"55 seabright cct, Jacobs well, Qld, 4208, Australia",
    "Longitude":153.358901,
    "Latitude":-27.783842
  },
  {
    "SiteID":51104,
    "TenantName":"Farrand, Wayne",
    "Address":"2 Laverton Street",
    "City":"Ormeau",
    "Region":"Queensland",
    "PostalCode":"4208",
    "FullAddress":"2 Laverton Street, Ormeau, Queensland, 4208, Australia",
    "Longitude":153.261922,
    "Latitude":-27.766418
  },
  {
    "SiteID":51104,
    "TenantName":"Sudweeks, Colin",
    "Address":"2 Stairway Street",
    "City":"Coomera",
    "Region":"QLD",
    "PostalCode":"4209",
    "FullAddress":"2 Stairway Street, Coomera, QLD, 4209, Australia",
    "Longitude":153.344486,
    "Latitude":-27.842118
  },
  {
    "SiteID":51104,
    "TenantName":"Summers, Liezel",
    "Address":"9 Yatala street",
    "City":"Pimpama",
    "Region":"Qld",
    "PostalCode":"4209",
    "FullAddress":"9 Yatala street, Pimpama, Qld, 4209, Australia",
    "Longitude":153.305557,
    "Latitude":-27.81503
  },
  {
    "SiteID":51104,
    "TenantName":"Templeton, Blaik",
    "Address":"3 forth Ave",
    "City":"Labrador",
    "Region":"Qld",
    "PostalCode":"42015",
    "FullAddress":"3 forth Ave, Labrador, Qld, 42015, Australia",
    "Longitude":153.400751,
    "Latitude":-27.954212
  },
  {
    "SiteID":51104,
    "TenantName":"Piyushkumar-kanubhai, Patel",
    "Address":"13\/37 Hillardt Street",
    "City":"Robertson",
    "Region":"QLD",
    "PostalCode":"4108",
    "FullAddress":"13\/37 Hillardt Street, Robertson, QLD, 4108, Australia",
    "Longitude":153.052497,
    "Latitude":-27.562593
  },
  {
    "SiteID":51104,
    "TenantName":"Julian, Jennifer",
    "Address":"19 Imelda Way",
    "City":"Pimpama",
    "Region":"Qld",
    "PostalCode":"4209",
    "FullAddress":"19 Imelda Way, Pimpama, Qld, 4209, Australia",
    "Longitude":153.308118,
    "Latitude":-27.834502
  },
  {
    "SiteID":51104,
    "TenantName":"Goode, Brian",
    "Address":"38",
    "City":"Eagleby",
    "Region":"QLD",
    "PostalCode":"4207",
    "FullAddress":"38, Eagleby, QLD, 4207, Australia",
    "Longitude":153.210553,
    "Latitude":-27.686344
  },
  {
    "SiteID":51104,
    "TenantName":"Quigan, Steve",
    "Address":"u 2708 grant Ave",
    "City":"Hope Island",
    "Region":"Qld",
    "PostalCode":"4212",
    "FullAddress":"u 2708 grant Ave, Hope Island, Qld, 4212, Australia",
    "Longitude":138.641527,
    "Latitude":-34.931461
  },
  {
    "SiteID":51104,
    "TenantName":"Chapman, Jeff",
    "Address":"11 Olivevale Street",
    "City":"Ormeau",
    "Region":"QLD",
    "PostalCode":"4208",
    "FullAddress":"11 Olivevale Street, Ormeau, QLD, 4208, Australia",
    "Longitude":153.270031,
    "Latitude":-27.780103
  },
  {
    "SiteID":51104,
    "TenantName":"Freeman, Coryna",
    "Address":"28 stoney creek circuit",
    "City":"ORMEAU",
    "Region":"Qld",
    "PostalCode":"4208",
    "FullAddress":"28 stoney creek circuit, ORMEAU, Qld, 4208, Australia",
    "Longitude":153.265454,
    "Latitude":-27.783048
  },
  {
    "SiteID":51104,
    "TenantName":"Mccormack, Charlie",
    "Address":"2300 Kerry Road",
    "City":"Kerry",
    "Region":"Qld",
    "PostalCode":"4285",
    "FullAddress":"2300 Kerry Road, Kerry, Qld, 4285, Australia",
    "Longitude":153.043137,
    "Latitude":-28.166619
  },
  {
    "SiteID":51104,
    "TenantName":"Willson, Mitch",
    "Address":"9 Allora Cressent",
    "City":"Ormeau Hills",
    "Region":"QLD",
    "PostalCode":"4208",
    "FullAddress":"9 Allora Cressent, Ormeau Hills, QLD, 4208, Australia",
    "Longitude":153.25833,
    "Latitude":-27.796347
  },
  {
    "SiteID":51104,
    "TenantName":"Te Riini, Rosanna",
    "Address":"479 Gainsborough Drive",
    "City":"Pimpama",
    "Region":"QLD",
    "PostalCode":"4209",
    "FullAddress":"479 Gainsborough Drive, Pimpama, QLD, 4209, Australia",
    "Longitude":153.302596,
    "Latitude":-27.820757
  },
  {
    "SiteID":51104,
    "TenantName":"Scotson, Michelle",
    "Address":"3 Frangipani Crt",
    "City":"Jacobs Well",
    "Region":"QLD",
    "PostalCode":"4208",
    "FullAddress":"3 Frangipani Crt, Jacobs Well, QLD, 4208, Australia",
    "Longitude":153.37391,
    "Latitude":-27.794907
  },
  {
    "SiteID":51104,
    "TenantName":"Devitt, Bronte",
    "Address":"15 Woodrow Street",
    "City":"Pimpama",
    "Region":"Qld",
    "PostalCode":"4209",
    "FullAddress":"15 Woodrow Street, Pimpama, Qld, 4209, Australia",
    "Longitude":153.286294,
    "Latitude":-27.815454
  },
  {
    "SiteID":51104,
    "TenantName":"Dix, Anita",
    "Address":"55 River Park Drive",
    "City":"Loganhome",
    "Region":"QLD",
    "PostalCode":"4129",
    "FullAddress":"55 River Park Drive, Loganhome, QLD, 4129, Australia",
    "Longitude":153.175168,
    "Latitude":-27.68479
  },
  {
    "SiteID":51104,
    "TenantName":"Sjolander, Sherry",
    "Address":"u6 15 Fortune Street",
    "City":"Coomera",
    "Region":"QLD",
    "PostalCode":"4209",
    "FullAddress":"u6 15 Fortune Street, Coomera, QLD, 4209, Australia",
    "Longitude":153.31621,
    "Latitude":-27.874635
  },
  {
    "SiteID":51104,
    "TenantName":"Petherick, Emma",
    "Address":"34\/51 Cottesloe Drive",
    "City":"Robina",
    "Region":"QLD",
    "PostalCode":"4226",
    "FullAddress":"34\/51 Cottesloe Drive, Robina, QLD, 4226, Australia",
    "Longitude":153.410115,
    "Latitude":-28.069528
  },
  {
    "SiteID":51104,
    "TenantName":"Widdowson, Bev",
    "Address":"506\/33 Clark Street",
    "City":"Biggera Waters",
    "Region":"QLD",
    "PostalCode":"4216",
    "FullAddress":"506\/33 Clark Street, Biggera Waters, QLD, 4216, Australia",
    "Longitude":153.402111,
    "Latitude":-27.934744
  },
  {
    "SiteID":51104,
    "TenantName":"Calderon Jiminez, Luis",
    "Address":"46 Nariah Crescent",
    "City":"Toormina",
    "Region":"NSW",
    "PostalCode":"2452",
    "FullAddress":"46 Nariah Crescent, Toormina, NSW, 2452, Australia",
    "Longitude":153.082043,
    "Latitude":-30.355624
  },
  {
    "SiteID":51104,
    "TenantName":"Newton, Cheryl",
    "Address":"203 Boonarang drive",
    "City":"Krralbym",
    "Region":"Qld",
    "PostalCode":"4285",
    "FullAddress":"203 Boonarang drive, Krralbym, Qld, 4285, Australia",
    "Longitude":138.603053,
    "Latitude":-34.908546
  },
  {
    "SiteID":51104,
    "TenantName":"Newton, Cherly",
    "Address":"203 Boomarang Drive",
    "City":"Kooralbyn",
    "Region":"Qld",
    "PostalCode":"4285",
    "FullAddress":"203 Boomarang Drive, Kooralbyn, Qld, 4285, Australia",
    "Longitude":152.860932,
    "Latitude":-28.080016
  },
  {
    "SiteID":51104,
    "TenantName":"Booth, David",
    "Address":"49 Oke strett",
    "City":"Pimpama",
    "Region":"Qld",
    "PostalCode":"4209",
    "FullAddress":"49 Oke strett, Pimpama, Qld, 4209, Australia",
    "Longitude":142.314974,
    "Latitude":-35.069831
  },
  {
    "SiteID":51104,
    "TenantName":"Willis, Paul",
    "Address":"14 Harlin Street",
    "City":"Ormeau Hills",
    "Region":"Qld",
    "PostalCode":"4208",
    "FullAddress":"14 Harlin Street, Ormeau Hills, Qld, 4208, Australia",
    "Longitude":153.257702,
    "Latitude":-27.79591
  },
  {
    "SiteID":51104,
    "TenantName":"Galea, Aj",
    "Address":"4 Hurley St",
    "City":"Pimpama",
    "Region":"QLD",
    "PostalCode":"4209",
    "FullAddress":"4 Hurley St, Pimpama, QLD, 4209, Australia",
    "Longitude":153.289337,
    "Latitude":-27.812045
  },
  {
    "SiteID":51104,
    "TenantName":"Webb, Monique",
    "Address":"33 Village Boulevard",
    "City":"Pimpama",
    "Region":"QLD",
    "PostalCode":"4206",
    "FullAddress":"33 Village Boulevard, Pimpama, QLD, 4206, Australia",
    "Longitude":153.285982,
    "Latitude":-27.814313
  },
  {
    "SiteID":51104,
    "TenantName":"Mcewan, Jodie",
    "Address":"4 Hurley Street",
    "City":"Pimpama",
    "Region":"Qld",
    "PostalCode":"4209",
    "FullAddress":"4 Hurley Street, Pimpama, Qld, 4209, Australia",
    "Longitude":153.289337,
    "Latitude":-27.812045
  },
  {
    "SiteID":51104,
    "TenantName":"Cooney, Tom",
    "Address":"2\/7 Vine Court",
    "City":"Oxenford",
    "Region":"QLD",
    "PostalCode":"4212",
    "FullAddress":"2\/7 Vine Court, Oxenford, QLD, 4212, Australia",
    "Longitude":153.317993,
    "Latitude":-27.920982
  },
  {
    "SiteID":51104,
    "TenantName":"Osorio, Viviano",
    "Address":"91 Reedmans Rd",
    "City":"Ormeau",
    "Region":"QLD",
    "PostalCode":"4206",
    "FullAddress":"91 Reedmans Rd, Ormeau, QLD, 4206, Australia",
    "Longitude":153.26531,
    "Latitude":-27.795559
  },
  {
    "SiteID":51104,
    "TenantName":"Hailo, Jayden",
    "Address":"Gideon gardens",
    "City":"Pimpama",
    "Region":"Qld",
    "PostalCode":"4209",
    "FullAddress":"Gideon gardens, Pimpama, Qld, 4209, Australia",
    "Longitude":153.315294,
    "Latitude":-27.833336
  },
  {
    "SiteID":51104,
    "TenantName":"Cannan, Taylor",
    "Address":"10\/458 Bonogin Rd",
    "City":"Bonogin",
    "Region":"QLD",
    "PostalCode":"4213",
    "FullAddress":"10\/458 Bonogin Rd, Bonogin, QLD, 4213, Australia",
    "Longitude":153.338796,
    "Latitude":-28.141596
  },
  {
    "SiteID":51104,
    "TenantName":"Pescara, Macarena",
    "Address":"13 Hillside Dr",
    "City":"Stapylton",
    "Region":"QLD",
    "PostalCode":"4207",
    "FullAddress":"13 Hillside Dr, Stapylton, QLD, 4207, Australia",
    "Longitude":153.234734,
    "Latitude":-27.731298
  },
  {
    "SiteID":51104,
    "TenantName":"O'Donnell, Maxine",
    "Address":"10 Caffium Court",
    "City":"Ormeau",
    "Region":"QLD",
    "PostalCode":"4208",
    "FullAddress":"10 Caffium Court, Ormeau, QLD, 4208, Australia",
    "Longitude":153.240612,
    "Latitude":-27.772162
  },
  {
    "SiteID":51104,
    "TenantName":"Rhodes, Akira",
    "Address":"6 Nightshade Cres",
    "City":"Pimpama",
    "Region":"QLD",
    "PostalCode":"4209",
    "FullAddress":"6 Nightshade Cres, Pimpama, QLD, 4209, Australia",
    "Longitude":153.288045,
    "Latitude":-27.827544
  },
  {
    "SiteID":51104,
    "TenantName":"Mccool, Terahk",
    "Address":"3202\/4 Oaky Creek Road",
    "City":"Coomera",
    "Region":"QLD",
    "PostalCode":"4209",
    "FullAddress":"3202\/4 Oaky Creek Road, Coomera, QLD, 4209, Australia",
    "Longitude":153.338751,
    "Latitude":-27.854257
  },
  {
    "SiteID":51104,
    "TenantName":"Jewell, Jade",
    "Address":"15\/7 angela way",
    "City":"Pimpama",
    "Region":"QLD",
    "PostalCode":"4209",
    "FullAddress":"15\/7 angela way, Pimpama, QLD, 4209, Australia",
    "Longitude":153.305257,
    "Latitude":-27.826429
  },
  {
    "SiteID":51104,
    "TenantName":"Robson-Petch, Matthew",
    "Address":"24 Warana Ave",
    "City":"Stiglitz",
    "Region":"Qld",
    "PostalCode":"4206",
    "FullAddress":"24 Warana Ave, Stiglitz, Qld, 4206, Australia",
    "Longitude":153.357184,
    "Latitude":-27.737351
  },
  {
    "SiteID":51104,
    "TenantName":"De Araujo Farnese, Bruno",
    "Address":"22,20 Commodore Drive",
    "City":"Surfers Paradise",
    "Region":"Queensland",
    "PostalCode":"4217",
    "FullAddress":"22,20 Commodore Drive, Surfers Paradise, Queensland, 4217, Australia",
    "Longitude":153.42505,
    "Latitude":-27.98535
  },
  {
    "SiteID":51104,
    "TenantName":"Crawford, Ian",
    "Address":"7 Watergum Street",
    "City":"Carseldine",
    "Region":"QLD",
    "PostalCode":"4034",
    "FullAddress":"7 Watergum Street, Carseldine, QLD, 4034, Australia",
    "Longitude":153.017127,
    "Latitude":-27.334506
  },
  {
    "SiteID":51104,
    "TenantName":"Abideen, Gerard",
    "Address":"6 Rockwood Drive",
    "City":"Ormeau",
    "Region":"QLD",
    "PostalCode":"4208",
    "FullAddress":"6 Rockwood Drive, Ormeau, QLD, 4208, Australia",
    "Longitude":153.26433,
    "Latitude":-27.774805
  },
  {
    "SiteID":51104,
    "TenantName":"Allmann, Nicole",
    "Address":"4659 the Park way",
    "City":"Hope Island",
    "Region":"Qld",
    "PostalCode":"4212",
    "FullAddress":"4659 the Park way, Hope Island, Qld, 4212, Australia",
    "Longitude":145.882939,
    "Latitude":-31.561875
  },
  {
    "SiteID":51104,
    "TenantName":"Susana, Mara",
    "Address":"30\/24 Beattie Road",
    "City":"Coomera",
    "Region":"QLD",
    "PostalCode":"4209",
    "FullAddress":"30\/24 Beattie Road, Coomera, QLD, 4209, Australia",
    "Longitude":153.318543,
    "Latitude":-27.868115
  },
  {
    "SiteID":51104,
    "TenantName":"Scott, Andrew",
    "Address":"1 Costello court Ormeau",
    "City":"Ormeau",
    "Region":"Qld",
    "PostalCode":"4208",
    "FullAddress":"1 Costello court Ormeau, Ormeau, Qld, 4208, Australia",
    "Longitude":153.23839,
    "Latitude":-27.77062
  },
  {
    "SiteID":51104,
    "TenantName":"Vanbrandwyk, Adriaan",
    "Address":"11 cascade St",
    "City":"Pimpana",
    "Region":"Qld",
    "PostalCode":"4209",
    "FullAddress":"11 cascade St, Pimpana, Qld, 4209, Australia",
    "Longitude":153.314843,
    "Latitude":-27.830188
  },
  {
    "SiteID":51104,
    "TenantName":"Mccabe, Stephen",
    "Address":"10waterline street",
    "City":"Pimpama",
    "Region":"Qld",
    "PostalCode":"4209",
    "FullAddress":"10waterline street, Pimpama, Qld, 4209, Australia",
    "Longitude":153.284322,
    "Latitude":-27.816315
  }
]