[
  {
    "SiteID":57875,
    "TenantName":"Oppel, Bruce",
    "Address":"13B Shirley Avenue",
    "City":"Mount Pleasant",
    "Region":"WA",
    "PostalCode":"6153",
    "FullAddress":"13B Shirley Avenue, Mount Pleasant, WA, 6153, Australia",
    "Longitude":115.85408,
    "Latitude":-32.03796
  },
  {
    "SiteID":57875,
    "TenantName":"Kucel, Shara A",
    "Address":"55 Kalangedy Drive",
    "City":"Riverton",
    "Region":"WA",
    "PostalCode":"6148",
    "FullAddress":"55 Kalangedy Drive, Riverton, WA, 6148, Australia",
    "Longitude":115.88771,
    "Latitude":-32.03798
  },
  {
    "SiteID":57875,
    "TenantName":"Chapuri, Kevin",
    "Address":"8 adelaide tce",
    "City":"South Perth",
    "Region":"WA",
    "PostalCode":"6151",
    "FullAddress":"8 adelaide tce, South Perth, WA, 6151, Australia",
    "Longitude":115.877339,
    "Latitude":-31.961281
  },
  {
    "SiteID":57875,
    "TenantName":"Mori, Tiziano",
    "Address":"18 burrill turn",
    "City":"BURNS BEACH",
    "Region":"WA",
    "PostalCode":"6028",
    "FullAddress":"18 burrill turn, BURNS BEACH, WA, 6028, Australia",
    "Longitude":115.725557,
    "Latitude":-31.727624
  },
  {
    "SiteID":57875,
    "TenantName":"Lemon, Md Riadul Rahman",
    "Address":"244 Wharf St",
    "City":"Queenspark",
    "Region":"WA",
    "PostalCode":"6107",
    "FullAddress":"244 Wharf St, Queenspark, WA, 6107, Australia",
    "Longitude":115.944727,
    "Latitude":-32.005853
  },
  {
    "SiteID":57875,
    "TenantName":"Pownall, Rhiannon (rae)",
    "Address":"144 Welshpool Rd",
    "City":"Welshpool",
    "Region":"WA",
    "PostalCode":"6106",
    "FullAddress":"144 Welshpool Rd, Welshpool, WA, 6106, Australia",
    "Longitude":115.93397,
    "Latitude":-31.99437
  },
  {
    "SiteID":57875,
    "TenantName":"Wilson, Nathan",
    "Address":"5\/128 Safety Bay Road",
    "City":"Shoalwater",
    "Region":"WA",
    "PostalCode":"6169",
    "FullAddress":"5\/128 Safety Bay Road, Shoalwater, WA, 6169, Australia",
    "Longitude":115.711058,
    "Latitude":-32.293737
  },
  {
    "SiteID":57875,
    "TenantName":"Lewis Jones, Timothy Michael",
    "Address":"20 Helena St",
    "City":"GUILDFORD",
    "Region":"Wa",
    "PostalCode":"6055",
    "FullAddress":"20 Helena St, GUILDFORD, Wa, 6055, Australia",
    "Longitude":115.977886,
    "Latitude":-31.901082
  },
  {
    "SiteID":57875,
    "TenantName":"Lewis, Timothy Michael",
    "Address":"20 Helena st",
    "City":"Guildford",
    "Region":"WA",
    "PostalCode":"6055",
    "FullAddress":"20 Helena st, Guildford, WA, 6055, Australia",
    "Longitude":115.977886,
    "Latitude":-31.901082
  },
  {
    "SiteID":57875,
    "TenantName":"Berrached, Simar",
    "Address":"15 Bauer Street",
    "City":"Cannington",
    "Region":"WA",
    "PostalCode":"6107",
    "FullAddress":"15 Bauer Street, Cannington, WA, 6107, Australia",
    "Longitude":115.93265,
    "Latitude":-32.01567
  },
  {
    "SiteID":57875,
    "TenantName":"Skuzny, Simon",
    "Address":"Level 8, 637 Flinders St",
    "City":"Docklands",
    "Region":"VIC",
    "PostalCode":"3122",
    "FullAddress":"Level 8, 637 Flinders St, Docklands, VIC, 3122, Australia",
    "Longitude":144.953105,
    "Latitude":-37.821948
  },
  {
    "SiteID":57875,
    "TenantName":"Hughes, Deb",
    "Address":"15A The Ridgeway",
    "City":"Swan View",
    "Region":"WA",
    "PostalCode":"6056",
    "FullAddress":"15A The Ridgeway, Swan View, WA, 6056, Australia",
    "Longitude":116.039057,
    "Latitude":-31.876737
  },
  {
    "SiteID":57875,
    "TenantName":"Merrick, Stacey",
    "Address":"74 Green st  6060",
    "City":"Joondana",
    "Region":"WA",
    "PostalCode":"6000",
    "FullAddress":"74 Green st  6060, Joondana, WA, 6000, Australia",
    "Longitude":115.83802,
    "Latitude":-31.91389
  },
  {
    "SiteID":57875,
    "TenantName":"Gonzales, Jofere",
    "Address":"2\/102 Gibbs street",
    "City":"East Canington",
    "Region":"WA",
    "PostalCode":"6107",
    "FullAddress":"2\/102 Gibbs street, East Canington, WA, 6107, Australia",
    "Longitude":115.952123,
    "Latitude":-32.008049
  },
  {
    "SiteID":57875,
    "TenantName":"Steele, Kylie",
    "Address":"161 Lilburne Rd",
    "City":"Duncraig",
    "Region":"WA",
    "PostalCode":"6023",
    "FullAddress":"161 Lilburne Rd, Duncraig, WA, 6023, Australia",
    "Longitude":115.77085,
    "Latitude":-31.82487
  },
  {
    "SiteID":57875,
    "TenantName":"Roberts, Ross",
    "Address":"55 Cargill St",
    "City":"Victoria Park",
    "Region":"WA",
    "PostalCode":"6101",
    "FullAddress":"55 Cargill St, Victoria Park, WA, 6101, Australia",
    "Longitude":115.8889,
    "Latitude":-31.97436
  },
  {
    "SiteID":57875,
    "TenantName":"Napoli, Andrew",
    "Address":"74A McMillan St",
    "City":"Victoria Park WA",
    "Region":"WA",
    "PostalCode":".",
    "FullAddress":"74A McMillan St, Victoria Park WA, WA, ., Australia",
    "Longitude":115.89221,
    "Latitude":-31.98013
  },
  {
    "SiteID":57875,
    "TenantName":"Kumar, Arjun",
    "Address":"14 Hynes Road",
    "City":"Dalkeith",
    "Region":"WA",
    "PostalCode":"6009",
    "FullAddress":"14 Hynes Road, Dalkeith, WA, 6009, Australia",
    "Longitude":115.79193,
    "Latitude":-31.99715
  },
  {
    "SiteID":57875,
    "TenantName":"Saengjaem, Waleerat (Apple)",
    "Address":"Unit 4, 175 Fern Road",
    "City":"Wilson",
    "Region":"WA",
    "PostalCode":"6107",
    "FullAddress":"Unit 4, 175 Fern Road, Wilson, WA, 6107, Australia",
    "Longitude":115.90667,
    "Latitude":-32.02446
  },
  {
    "SiteID":57875,
    "TenantName":"Levi, Shak",
    "Address":"11 The Gangway",
    "City":"South Hedland",
    "Region":"WA",
    "PostalCode":"6722",
    "FullAddress":"11 The Gangway, South Hedland, WA, 6722, Australia",
    "Longitude":118.61311,
    "Latitude":-20.410294
  },
  {
    "SiteID":57875,
    "TenantName":"Plecas, Racquel",
    "Address":"Unit 5 \/ 1937 Albany Highway",
    "City":"Maddington",
    "Region":"WA",
    "PostalCode":"6109",
    "FullAddress":"Unit 5 \/ 1937 Albany Highway, Maddington, WA, 6109, Australia",
    "Longitude":115.98625,
    "Latitude":-32.05339
  },
  {
    "SiteID":57875,
    "TenantName":"Gay, Ailin",
    "Address":"61 Arlington Ave.",
    "City":"Sout Perth",
    "Region":"wa",
    "PostalCode":"6151",
    "FullAddress":"61 Arlington Ave., Sout Perth, wa, 6151, Australia",
    "Longitude":115.87303,
    "Latitude":-31.98076
  },
  {
    "SiteID":57875,
    "TenantName":"Zainul Rashid, Firdaus",
    "Address":"6B Beveridge Street",
    "City":"Bentley",
    "Region":"WA",
    "PostalCode":"6102",
    "FullAddress":"6B Beveridge Street, Bentley, WA, 6102, Australia",
    "Longitude":115.901212,
    "Latitude":-32.010195
  },
  {
    "SiteID":57875,
    "TenantName":"Miller, Ellis",
    "Address":"Unit 7 19 - 21 Boundary road",
    "City":"Dubbo",
    "Region":"NSW",
    "PostalCode":"2830",
    "FullAddress":"Unit 7 19 - 21 Boundary road, Dubbo, NSW, 2830, Australia",
    "Longitude":148.603775,
    "Latitude":-32.267216
  },
  {
    "SiteID":57875,
    "TenantName":"Thomas, Caleb",
    "Address":"504 \/ 660 Albany Highway",
    "City":"Victoria Park",
    "Region":"WA",
    "PostalCode":"6101",
    "FullAddress":"504 \/ 660 Albany Highway, Victoria Park, WA, 6101, Australia",
    "Longitude":115.900858,
    "Latitude":-31.980418
  },
  {
    "SiteID":57875,
    "TenantName":"Wilson, Callum",
    "Address":"16\/7 Sexty St, Armadale",
    "City":"Perth",
    "Region":"WA",
    "PostalCode":"6112",
    "FullAddress":"16\/7 Sexty St, Armadale, Perth, WA, 6112, Australia",
    "Longitude":116.00647,
    "Latitude":-32.151476
  },
  {
    "SiteID":57875,
    "TenantName":"Beresford-Ord, Caitlin",
    "Address":"19 Todd Avenue",
    "City":"Como",
    "Region":"WA",
    "PostalCode":"6152",
    "FullAddress":"19 Todd Avenue, Como, WA, 6152, Australia",
    "Longitude":115.86925,
    "Latitude":-31.99434
  },
  {
    "SiteID":57875,
    "TenantName":"Wilson, Karen",
    "Address":"26 Parkview Drive",
    "City":"Southern River",
    "Region":"WA",
    "PostalCode":"6110",
    "FullAddress":"26 Parkview Drive, Southern River, WA, 6110, Australia",
    "Longitude":115.940618,
    "Latitude":-32.10383
  },
  {
    "SiteID":57875,
    "TenantName":"King, Gael",
    "Address":"45 Wittering Cres",
    "City":"Balga",
    "Region":"WA",
    "PostalCode":"6061",
    "FullAddress":"45 Wittering Cres, Balga, WA, 6061, Australia",
    "Longitude":115.84812,
    "Latitude":-31.85886
  },
  {
    "SiteID":57875,
    "TenantName":"Sanguine, Sasha D",
    "Address":"407 Abernethy Road",
    "City":"Cloverdale",
    "Region":"WA",
    "PostalCode":"6105",
    "FullAddress":"407 Abernethy Road, Cloverdale, WA, 6105, Australia",
    "Longitude":115.942119,
    "Latitude":-31.967026
  },
  {
    "SiteID":57875,
    "TenantName":"Saxton, Jason",
    "Address":"34 Berringar Elbow",
    "City":"Cardup",
    "Region":"WA",
    "PostalCode":"6122",
    "FullAddress":"34 Berringar Elbow, Cardup, WA, 6122, Australia",
    "Longitude":115.98415,
    "Latitude":-32.251312
  },
  {
    "SiteID":57875,
    "TenantName":"Hayes, Glenys",
    "Address":"5 Otway Ct",
    "City":"Onslow",
    "Region":"WA",
    "PostalCode":"6710",
    "FullAddress":"5 Otway Ct, Onslow, WA, 6710, Australia",
    "Longitude":115.114749,
    "Latitude":-21.644444
  },
  {
    "SiteID":57875,
    "TenantName":"Gomes, Malcolm",
    "Address":"35 Alness Street",
    "City":"Applecross",
    "Region":"WA",
    "PostalCode":"6153",
    "FullAddress":"35 Alness Street, Applecross, WA, 6153, Australia",
    "Longitude":115.83576,
    "Latitude":-32.01492
  },
  {
    "SiteID":57875,
    "TenantName":"Kafentzis, Vicky (Vasiliki)",
    "Address":"310 Churchill Avenue",
    "City":"Subiaco",
    "Region":"WA",
    "PostalCode":"6008",
    "FullAddress":"310 Churchill Avenue, Subiaco, WA, 6008, Australia",
    "Longitude":115.82535,
    "Latitude":-31.94766
  },
  {
    "SiteID":57875,
    "TenantName":"Cordington, Katherine J",
    "Address":"57A Westminsters Street",
    "City":"East Victoria Park",
    "Region":"WA",
    "PostalCode":"6101",
    "FullAddress":"57A Westminsters Street, East Victoria Park, WA, 6101, Australia",
    "Longitude":115.901064,
    "Latitude":-31.989117
  },
  {
    "SiteID":57875,
    "TenantName":"Xuhuan, Huang",
    "Address":"208 Adelaide Terrace",
    "City":"Perth",
    "Region":"WA",
    "PostalCode":"6004",
    "FullAddress":"208 Adelaide Terrace, Perth, WA, 6004, Australia",
    "Longitude":115.86874,
    "Latitude":-31.958534
  },
  {
    "SiteID":57875,
    "TenantName":"Wilson, Jason",
    "Address":"71\/3 Homesless Court",
    "City":"Rivervale",
    "Region":"WA",
    "PostalCode":"6103",
    "FullAddress":"71\/3 Homesless Court, Rivervale, WA, 6103, Australia",
    "Longitude":115.915886,
    "Latitude":-31.963469
  },
  {
    "SiteID":57875,
    "TenantName":"Sra, Rajpal Singh (Raj)",
    "Address":"Unit 2 1-3 Hartley Street",
    "City":"Gosnells",
    "Region":"WA",
    "PostalCode":"6110",
    "FullAddress":"Unit 2 1-3 Hartley Street, Gosnells, WA, 6110, Australia",
    "Longitude":115.994207,
    "Latitude":-32.068775
  },
  {
    "SiteID":57875,
    "TenantName":"Singh, Jasvir",
    "Address":"14 Samuel Loop",
    "City":"Canning Vale",
    "Region":"WA",
    "PostalCode":"6155",
    "FullAddress":"14 Samuel Loop, Canning Vale, WA, 6155, Australia",
    "Longitude":115.92759,
    "Latitude":-32.0766
  },
  {
    "SiteID":57875,
    "TenantName":"Santosa, Rudi",
    "Address":"5 Darling Street",
    "City":"South Perth",
    "Region":"WA",
    "PostalCode":"6151",
    "FullAddress":"5 Darling Street, South Perth, WA, 6151, Australia",
    "Longitude":115.87652,
    "Latitude":-31.97902
  },
  {
    "SiteID":57875,
    "TenantName":"Robertson, William",
    "Address":"PO BOX 908",
    "City":"Cloverdale",
    "Region":"WA",
    "PostalCode":"6985",
    "FullAddress":"PO BOX 908, Cloverdale, WA, 6985, Australia",
    "Longitude":149.814106,
    "Latitude":-36.663468
  },
  {
    "SiteID":57875,
    "TenantName":"Pace, Antonio (Tony)",
    "Address":"6 Ursuline Vista",
    "City":"Queens Park",
    "Region":"WA",
    "PostalCode":"6107",
    "FullAddress":"6 Ursuline Vista, Queens Park, WA, 6107, Australia",
    "Longitude":115.948303,
    "Latitude":-32.008427
  },
  {
    "SiteID":57875,
    "TenantName":"Mousley, Chris",
    "Address":"140 Eddystone Avenue",
    "City":"Craigie",
    "Region":"WA",
    "PostalCode":"6025",
    "FullAddress":"140 Eddystone Avenue, Craigie, WA, 6025, Australia",
    "Longitude":115.76801,
    "Latitude":-31.78173
  },
  {
    "SiteID":57875,
    "TenantName":"Khandheriya, Taral C",
    "Address":"10 Calendula Loop",
    "City":"Landsdale",
    "Region":"WA",
    "PostalCode":"6065",
    "FullAddress":"10 Calendula Loop, Landsdale, WA, 6065, Australia",
    "Longitude":115.874356,
    "Latitude":-31.802584
  },
  {
    "SiteID":57875,
    "TenantName":"Kempton, Ian",
    "Address":"2\/39 Cohn Street",
    "City":"Carlisle",
    "Region":"WA",
    "PostalCode":"6101",
    "FullAddress":"2\/39 Cohn Street, Carlisle, WA, 6101, Australia",
    "Longitude":115.924794,
    "Latitude":-31.982054
  },
  {
    "SiteID":57875,
    "TenantName":"Hudson, David",
    "Address":"P O Box 2117",
    "City":"Como",
    "Region":"WA",
    "PostalCode":"6152",
    "FullAddress":"P O Box 2117, Como, WA, 6152, Australia",
    "Longitude":145.079091,
    "Latitude":-37.995794
  },
  {
    "SiteID":57875,
    "TenantName":"Hosking, Malcolm",
    "Address":"Lot 2444 Great Northern Highway",
    "City":"Waypoint Village, Port He",
    "Region":"WA",
    "PostalCode":"6721",
    "FullAddress":"Lot 2444 Great Northern Highway, Waypoint Village, Port He, WA, 6721, Australia",
    "Longitude":118.627265,
    "Latitude":-20.386274
  },
  {
    "SiteID":57875,
    "TenantName":"Honeywill, Matthew J",
    "Address":"U13 \/ 53 Cecil Ave",
    "City":"Cannington",
    "Region":"WA",
    "PostalCode":"6107",
    "FullAddress":"U13 \/ 53 Cecil Ave, Cannington, WA, 6107, Australia",
    "Longitude":115.941396,
    "Latitude":-32.014732
  },
  {
    "SiteID":57875,
    "TenantName":"Guy, Joshua",
    "Address":"80 STIRLING STREET",
    "City":"PERTH",
    "Region":"WA",
    "PostalCode":"6000",
    "FullAddress":"80 STIRLING STREET, PERTH, WA, 6000, Australia",
    "Longitude":115.864546,
    "Latitude":-31.950111
  },
  {
    "SiteID":57875,
    "TenantName":"Freegard, Sarah",
    "Address":"3A Tavistock Crescent",
    "City":"Lynwood",
    "Region":"WA",
    "PostalCode":"6147",
    "FullAddress":"3A Tavistock Crescent, Lynwood, WA, 6147, Australia",
    "Longitude":115.929495,
    "Latitude":-32.036133
  },
  {
    "SiteID":57875,
    "TenantName":"Douglas-Meyer, Damian",
    "Address":"301 Hardey Road",
    "City":"Cloverdale",
    "Region":"WA",
    "PostalCode":"6105",
    "FullAddress":"301 Hardey Road, Cloverdale, WA, 6105, Australia",
    "Longitude":115.9447,
    "Latitude":-31.95525
  },
  {
    "SiteID":57875,
    "TenantName":"Dirnberger, Nicholas",
    "Address":"178A Holbeck Street",
    "City":"Doubleview",
    "Region":"WA",
    "PostalCode":"6018",
    "FullAddress":"178A Holbeck Street, Doubleview, WA, 6018, Australia",
    "Longitude":115.785207,
    "Latitude":-31.890001
  },
  {
    "SiteID":57875,
    "TenantName":"Connell, Allen",
    "Address":"7 Florrie Courts",
    "City":"Cloverdale",
    "Region":"WA",
    "PostalCode":"6105",
    "FullAddress":"7 Florrie Courts, Cloverdale, WA, 6105, Australia",
    "Longitude":115.95214,
    "Latitude":-31.96509
  },
  {
    "SiteID":57875,
    "TenantName":"Chong, Ken",
    "Address":"100 Hillview Tce",
    "City":"St James",
    "Region":"WA",
    "PostalCode":"6102",
    "FullAddress":"100 Hillview Tce, St James, WA, 6102, Australia",
    "Longitude":115.91091,
    "Latitude":-32.00279
  },
  {
    "SiteID":57875,
    "TenantName":"Chechi, Anita",
    "Address":"10 Hope Place",
    "City":"Redcliffe",
    "Region":"WA",
    "PostalCode":"6104",
    "FullAddress":"10 Hope Place, Redcliffe, WA, 6104, Australia",
    "Longitude":115.953426,
    "Latitude":-31.948569
  },
  {
    "SiteID":57875,
    "TenantName":"Carr, Peter",
    "Address":"4 Hatcher Way",
    "City":"Parkwood",
    "Region":"WA",
    "PostalCode":"6147",
    "FullAddress":"4 Hatcher Way, Parkwood, WA, 6147, Australia",
    "Longitude":115.90576,
    "Latitude":-32.04851
  },
  {
    "SiteID":57875,
    "TenantName":"Buma, Nathanael",
    "Address":"35 Midgley Street",
    "City":"Lathlain",
    "Region":"WA",
    "PostalCode":"6100",
    "FullAddress":"35 Midgley Street, Lathlain, WA, 6100, Australia",
    "Longitude":115.90362,
    "Latitude":-31.96444
  },
  {
    "SiteID":57875,
    "TenantName":"Andrews, Brett .",
    "Address":"Unit 25, 28 Barcoo Street",
    "City":"Roseville",
    "Region":"NSW",
    "PostalCode":"2069",
    "FullAddress":"Unit 25, 28 Barcoo Street, Roseville, NSW, 2069, Australia",
    "Longitude":151.19549,
    "Latitude":-33.784975
  },
  {
    "SiteID":57875,
    "TenantName":"Golota, Virineya",
    "Address":"35 B Temple Street",
    "City":"Victoria Park",
    "Region":"WA",
    "PostalCode":"6100",
    "FullAddress":"35 B Temple Street, Victoria Park, WA, 6100, Australia",
    "Longitude":115.8946,
    "Latitude":-31.97875
  },
  {
    "SiteID":57875,
    "TenantName":"Martin, Neil",
    "Address":"U 3 54 Dorney Esplanade",
    "City":"Champion Lakes",
    "Region":"WA",
    "PostalCode":"6111",
    "FullAddress":"U 3 54 Dorney Esplanade, Champion Lakes, WA, 6111, Australia",
    "Longitude":115.99083,
    "Latitude":-32.114674
  },
  {
    "SiteID":57875,
    "TenantName":"Sulvania, Corry V",
    "Address":"39 Jackson Rd",
    "City":"Karawara",
    "Region":"WA",
    "PostalCode":"6152",
    "FullAddress":"39 Jackson Rd, Karawara, WA, 6152, Australia",
    "Longitude":115.882398,
    "Latitude":-32.005797
  },
  {
    "SiteID":57875,
    "TenantName":"Singleton, Peter",
    "Address":"4 Sugars Ct",
    "City":"Redcliffe",
    "Region":"WA",
    "PostalCode":"6104",
    "FullAddress":"4 Sugars Ct, Redcliffe, WA, 6104, Australia",
    "Longitude":115.94611,
    "Latitude":-31.94179
  },
  {
    "SiteID":57875,
    "TenantName":"Monshizada, Abdul",
    "Address":"1 \/ 30 Albermarle Way",
    "City":"High Wycombe",
    "Region":"WA",
    "PostalCode":"6057",
    "FullAddress":"1 \/ 30 Albermarle Way, High Wycombe, WA, 6057, Australia",
    "Longitude":116.011393,
    "Latitude":-31.941681
  },
  {
    "SiteID":57875,
    "TenantName":"Marie Hall, Siobhan",
    "Address":"354B Accent Ave",
    "City":"Kewdale",
    "Region":"WA",
    "PostalCode":"6105",
    "FullAddress":"354B Accent Ave, Kewdale, WA, 6105, Australia",
    "Longitude":144.460322,
    "Latitude":-38.19792
  },
  {
    "SiteID":57875,
    "TenantName":"Hoar, Jasmin",
    "Address":"Unit 12 19 Boston Qys",
    "City":"Mindarie",
    "Region":"WA",
    "PostalCode":"6030",
    "FullAddress":"Unit 12 19 Boston Qys, Mindarie, WA, 6030, Australia",
    "Longitude":115.703862,
    "Latitude":-31.690133
  },
  {
    "SiteID":57875,
    "TenantName":"Guiss Filho, Oscar",
    "Address":"130 Abbett Street",
    "City":"Scarborough",
    "Region":"WA",
    "PostalCode":"6019",
    "FullAddress":"130 Abbett Street, Scarborough, WA, 6019, Australia",
    "Longitude":115.769356,
    "Latitude":-31.891272
  },
  {
    "SiteID":57875,
    "TenantName":"Bottger, Daniel J",
    "Address":"394A Berwick St",
    "City":"St James",
    "Region":"WA",
    "PostalCode":"6102",
    "FullAddress":"394A Berwick St, St James, WA, 6102, Australia",
    "Longitude":115.90823,
    "Latitude":-31.995644
  },
  {
    "SiteID":57875,
    "TenantName":"Mohammadreza, Nasiri Valadzaghard",
    "Address":"84A Walpole St",
    "City":"Bentley",
    "Region":"WA",
    "PostalCode":"6102",
    "FullAddress":"84A Walpole St, Bentley, WA, 6102, Australia",
    "Longitude":115.90768,
    "Latitude":-32.00614
  },
  {
    "SiteID":57875,
    "TenantName":"Crawford, Rubee",
    "Address":"34 Casuarina Place",
    "City":"Henley Brook",
    "Region":"WA",
    "PostalCode":"6055",
    "FullAddress":"34 Casuarina Place, Henley Brook, WA, 6055, Australia",
    "Longitude":115.99159,
    "Latitude":-31.82648
  },
  {
    "SiteID":57875,
    "TenantName":"Mccrea, Austin R",
    "Address":"7 Lindsay Street",
    "City":"Perth",
    "Region":"WA",
    "PostalCode":"6000",
    "FullAddress":"7 Lindsay Street, Perth, WA, 6000, Australia",
    "Longitude":115.863067,
    "Latitude":-31.9465
  },
  {
    "SiteID":57875,
    "TenantName":"Accounts, Attention",
    "Address":"Suite 02, Building B,",
    "City":"Pyrmont",
    "Region":"NSW",
    "PostalCode":"2009",
    "FullAddress":"Suite 02, Building B,, Pyrmont, NSW, 2009, Australia",
    "Longitude":151.196499,
    "Latitude":-33.872152
  },
  {
    "SiteID":57875,
    "TenantName":"Bradbury, Lewellyn",
    "Address":"U6 \/ 16 Gwenyfred RD",
    "City":"Kensington",
    "Region":"WA",
    "PostalCode":"6151",
    "FullAddress":"U6 \/ 16 Gwenyfred RD, Kensington, WA, 6151, Australia",
    "Longitude":115.88368,
    "Latitude":-31.97584
  },
  {
    "SiteID":57875,
    "TenantName":"Middlecoat, Toby",
    "Address":"156 Oats St",
    "City":"Carlisle",
    "Region":"WA",
    "PostalCode":"6101",
    "FullAddress":"156 Oats St, Carlisle, WA, 6101, Australia",
    "Longitude":115.92657,
    "Latitude":-31.97909
  },
  {
    "SiteID":57875,
    "TenantName":"Biven, Michael",
    "Address":"3\/100 Mcmaster Street",
    "City":"Victoria Park",
    "Region":"WA",
    "PostalCode":"6100",
    "FullAddress":"3\/100 Mcmaster Street, Victoria Park, WA, 6100, Australia",
    "Longitude":115.88866,
    "Latitude":-31.97853
  },
  {
    "SiteID":57875,
    "TenantName":"Lewis, Philip M",
    "Address":"17 Downsborough Ave",
    "City":"Kewdale",
    "Region":"WA",
    "PostalCode":"6105",
    "FullAddress":"17 Downsborough Ave, Kewdale, WA, 6105, Australia",
    "Longitude":115.94149,
    "Latitude":-31.97923
  },
  {
    "SiteID":57875,
    "TenantName":"Perry, Paul",
    "Address":"39 Chapman Road",
    "City":"St James",
    "Region":"WA",
    "PostalCode":"6102",
    "FullAddress":"39 Chapman Road, St James, WA, 6102, Australia",
    "Longitude":115.912869,
    "Latitude":-32.004716
  },
  {
    "SiteID":57875,
    "TenantName":"Newman, David",
    "Address":"2 Cyprus gardens",
    "City":"Halls Head",
    "Region":"WA",
    "PostalCode":"6210",
    "FullAddress":"2 Cyprus gardens, Halls Head, WA, 6210, Australia",
    "Longitude":115.69917,
    "Latitude":-32.53656
  },
  {
    "SiteID":57875,
    "TenantName":"Li, Nong",
    "Address":"117 Gerard Street",
    "City":"East Cannington",
    "Region":"WA",
    "PostalCode":"6107",
    "FullAddress":"117 Gerard Street, East Cannington, WA, 6107, Australia",
    "Longitude":115.958056,
    "Latitude":-32.006558
  },
  {
    "SiteID":57875,
    "TenantName":"Lee Lai, Yun",
    "Address":"Unit 1,1189 Albany Highway",
    "City":"Perth",
    "Region":"WA",
    "PostalCode":"6102",
    "FullAddress":"Unit 1,1189 Albany Highway, Perth, WA, 6102, Australia",
    "Longitude":115.92209,
    "Latitude":-32.00599
  },
  {
    "SiteID":57875,
    "TenantName":"Lam, Kin P",
    "Address":"Unit 1 \/9 Windsor Street",
    "City":"Perth",
    "Region":"WA",
    "PostalCode":"6000",
    "FullAddress":"Unit 1 \/9 Windsor Street, Perth, WA, 6000, Australia",
    "Longitude":115.99629,
    "Latitude":-31.889
  },
  {
    "SiteID":57875,
    "TenantName":"Heaney, Kevin",
    "Address":"7 Cannich Boulevard",
    "City":"Canning Vale",
    "Region":"WA",
    "PostalCode":"6155",
    "FullAddress":"7 Cannich Boulevard, Canning Vale, WA, 6155, Australia",
    "Longitude":115.9354,
    "Latitude":-32.07825
  },
  {
    "SiteID":57875,
    "TenantName":"Goddard, Bronwyn K",
    "Address":"4\/5 Wallis Road",
    "City":"Davenport",
    "Region":"WA",
    "PostalCode":"6230",
    "FullAddress":"4\/5 Wallis Road, Davenport, WA, 6230, Australia",
    "Longitude":115.679223,
    "Latitude":-33.358901
  },
  {
    "SiteID":57875,
    "TenantName":"Galetti, Laura",
    "Address":"381 Beaufort Street",
    "City":"Highgate",
    "Region":"WA",
    "PostalCode":"6003",
    "FullAddress":"381 Beaufort Street, Highgate, WA, 6003, Australia",
    "Longitude":115.867299,
    "Latitude":-31.941686
  },
  {
    "SiteID":57875,
    "TenantName":"Chin, Kim H",
    "Address":"37 C Dulwich Street",
    "City":"Beckenham",
    "Region":"WA",
    "PostalCode":"6107",
    "FullAddress":"37 C Dulwich Street, Beckenham, WA, 6107, Australia",
    "Longitude":115.961018,
    "Latitude":-32.023378
  },
  {
    "SiteID":57875,
    "TenantName":"Charlton, Shane",
    "Address":"27C Oakland avenue",
    "City":"Cloverdale",
    "Region":"WA",
    "PostalCode":"6105",
    "FullAddress":"27C Oakland avenue, Cloverdale, WA, 6105, Australia",
    "Longitude":115.944316,
    "Latitude":-31.966402
  },
  {
    "SiteID":57875,
    "TenantName":"Briand, Laetitia",
    "Address":"27 Manchester Street",
    "City":"Perth",
    "Region":"WA",
    "PostalCode":"6000",
    "FullAddress":"27 Manchester Street, Perth, WA, 6000, Australia",
    "Longitude":115.896079,
    "Latitude":-31.979248
  },
  {
    "SiteID":57875,
    "TenantName":"Aberle, Leisha",
    "Address":"Unit 1\/ 77 Mary Street",
    "City":"Como",
    "Region":"WA",
    "PostalCode":"6152",
    "FullAddress":"Unit 1\/ 77 Mary Street, Como, WA, 6152, Australia",
    "Longitude":115.85593,
    "Latitude":-32.00007
  },
  {
    "SiteID":57875,
    "TenantName":"Gholipoorgoogeh, Ali",
    "Address":"14 Simons Way",
    "City":"Langford",
    "Region":"WA",
    "PostalCode":"6147",
    "FullAddress":"14 Simons Way, Langford, WA, 6147, Australia",
    "Longitude":115.94064,
    "Latitude":-32.03828
  },
  {
    "SiteID":57875,
    "TenantName":"Holland, Fenton",
    "Address":"132 Angelo Street",
    "City":"South Perth",
    "Region":"WA",
    "PostalCode":"6151",
    "FullAddress":"132 Angelo Street, South Perth, WA, 6151, Australia",
    "Longitude":115.869606,
    "Latitude":-31.981325
  },
  {
    "SiteID":57875,
    "TenantName":"Watkins, Matt",
    "Address":"5 Leawood crescent",
    "City":"Boya",
    "Region":"WA",
    "PostalCode":"6065",
    "FullAddress":"5 Leawood crescent, Boya, WA, 6065, Australia",
    "Longitude":116.04986,
    "Latitude":-31.91824
  },
  {
    "SiteID":57875,
    "TenantName":"Beale, Andrew",
    "Address":"9\/47 Tully Road",
    "City":"East Perth",
    "Region":"WA",
    "PostalCode":"6101",
    "FullAddress":"9\/47 Tully Road, East Perth, WA, 6101, Australia",
    "Longitude":115.879656,
    "Latitude":-31.948633
  },
  {
    "SiteID":57875,
    "TenantName":"Kitaura, David",
    "Address":"38B Archer St",
    "City":"Carlisle",
    "Region":"WA",
    "PostalCode":"6101",
    "FullAddress":"38B Archer St, Carlisle, WA, 6101, Australia",
    "Longitude":115.917522,
    "Latitude":-31.97313
  },
  {
    "SiteID":57875,
    "TenantName":"Kemp, Steven",
    "Address":"12 Mellor Court",
    "City":"Leeming",
    "Region":"WA",
    "PostalCode":"6149",
    "FullAddress":"12 Mellor Court, Leeming, WA, 6149, Australia",
    "Longitude":115.87875,
    "Latitude":-32.07144
  },
  {
    "SiteID":57875,
    "TenantName":"Heath, Grace",
    "Address":"U9 69 King George St",
    "City":"Victoria Park",
    "Region":"WA",
    "PostalCode":"6101",
    "FullAddress":"U9 69 King George St, Victoria Park, WA, 6101, Australia",
    "Longitude":115.88942,
    "Latitude":-31.978129
  },
  {
    "SiteID":57875,
    "TenantName":"Nzuva, Alphonsine",
    "Address":"80 Callison Way",
    "City":"Koondoola",
    "Region":"WA",
    "PostalCode":"6064",
    "FullAddress":"80 Callison Way, Koondoola, WA, 6064, Australia",
    "Longitude":115.85567,
    "Latitude":-31.83652
  },
  {
    "SiteID":57875,
    "TenantName":"Williamson, Lamont",
    "Address":"Unit 9 69-71 King George Street",
    "City":"Victoria Park WA",
    "Region":"WA",
    "PostalCode":"6100",
    "FullAddress":"Unit 9 69-71 King George Street, Victoria Park WA, WA, 6100, Australia",
    "Longitude":115.88942,
    "Latitude":-31.978129
  },
  {
    "SiteID":57875,
    "TenantName":"Haddock, Darrell",
    "Address":"113 Corinthian Rd",
    "City":"Shelley",
    "Region":"WA",
    "PostalCode":"6148",
    "FullAddress":"113 Corinthian Rd, Shelley, WA, 6148, Australia",
    "Longitude":115.885481,
    "Latitude":-32.033773
  },
  {
    "SiteID":57875,
    "TenantName":"Bellantone, Mario",
    "Address":"Unit 2 \/ 138 Armadale Rd",
    "City":"Rivervale",
    "Region":"WA",
    "PostalCode":"6103",
    "FullAddress":"Unit 2 \/ 138 Armadale Rd, Rivervale, WA, 6103, Australia",
    "Longitude":115.919845,
    "Latitude":-31.964453
  },
  {
    "SiteID":57875,
    "TenantName":"Taylor, Peta",
    "Address":"465 Bickley Rd",
    "City":"Kenwick",
    "Region":"WA",
    "PostalCode":"6107",
    "FullAddress":"465 Bickley Rd, Kenwick, WA, 6107, Australia",
    "Longitude":115.99149,
    "Latitude":-32.03124
  },
  {
    "SiteID":57875,
    "TenantName":"Tabikh, Bassam (Sam)",
    "Address":"125-129 Rocky Point Rd",
    "City":"Beverley Park",
    "Region":"NSW",
    "PostalCode":"2217",
    "FullAddress":"125-129 Rocky Point Rd, Beverley Park, NSW, 2217, Australia",
    "Longitude":151.136223,
    "Latitude":-33.978231
  },
  {
    "SiteID":57875,
    "TenantName":"Sandhu, Karambir",
    "Address":"3 Melbourne Street",
    "City":"St James",
    "Region":"WA",
    "PostalCode":"6102",
    "FullAddress":"3 Melbourne Street, St James, WA, 6102, Australia",
    "Longitude":115.9146,
    "Latitude":-31.99913
  },
  {
    "SiteID":57875,
    "TenantName":"Pedeferri, Caterina",
    "Address":"14 Cassuarina",
    "City":"Canniningvale",
    "Region":"WA",
    "PostalCode":"6155",
    "FullAddress":"14 Cassuarina, Canniningvale, WA, 6155, Australia",
    "Longitude":115.91831,
    "Latitude":-32.07886
  },
  {
    "SiteID":57875,
    "TenantName":"O'Mara-Wallace, Babette",
    "Address":"54B Deanmore Road",
    "City":"Scarborough",
    "Region":"WA",
    "PostalCode":"6019",
    "FullAddress":"54B Deanmore Road, Scarborough, WA, 6019, Australia",
    "Longitude":115.768346,
    "Latitude":-31.886979
  },
  {
    "SiteID":57875,
    "TenantName":"Neal, Steve",
    "Address":"PO Box 2021",
    "City":"Como",
    "Region":"WA",
    "PostalCode":"6152",
    "FullAddress":"PO Box 2021, Como, WA, 6152, Australia",
    "Longitude":145.079091,
    "Latitude":-37.995794
  },
  {
    "SiteID":57875,
    "TenantName":"Murray, Andrew S",
    "Address":"14 Mount Henry Rd",
    "City":"Salter Point",
    "Region":"WA",
    "PostalCode":"6152",
    "FullAddress":"14 Mount Henry Rd, Salter Point, WA, 6152, Australia",
    "Longitude":115.86284,
    "Latitude":-32.01732
  },
  {
    "SiteID":57875,
    "TenantName":"Moylan, Mark",
    "Address":"7 Holland Place",
    "City":"Wilson",
    "Region":"Wa",
    "PostalCode":"6107",
    "FullAddress":"7 Holland Place, Wilson, Wa, 6107, Australia",
    "Longitude":115.90878,
    "Latitude":-32.02339
  },
  {
    "SiteID":57875,
    "TenantName":"Menendez, Renzo M",
    "Address":"5 Stuart Court",
    "City":"Bateman",
    "Region":"6150",
    "PostalCode":"WA",
    "FullAddress":"5 Stuart Court, Bateman, 6150, WA, Australia",
    "Longitude":115.84957,
    "Latitude":-32.04751
  },
  {
    "SiteID":57875,
    "TenantName":"Meier, Lewis N",
    "Address":"137 Addis Street",
    "City":"West Lamington",
    "Region":"WA",
    "PostalCode":"6340",
    "FullAddress":"137 Addis Street, West Lamington, WA, 6340, Australia",
    "Longitude":121.45461,
    "Latitude":-30.74291
  },
  {
    "SiteID":57875,
    "TenantName":"Goeree, Ben",
    "Address":"44 Edgewater Rd",
    "City":"Salter Point",
    "Region":"WA",
    "PostalCode":"6152",
    "FullAddress":"44 Edgewater Rd, Salter Point, WA, 6152, Australia",
    "Longitude":115.86205,
    "Latitude":-32.02334
  },
  {
    "SiteID":57875,
    "TenantName":"Gai, Xingqu",
    "Address":"1 Ashtree Bvd",
    "City":"Wattle Grove",
    "Region":"WA",
    "PostalCode":"6107",
    "FullAddress":"1 Ashtree Bvd, Wattle Grove, WA, 6107, Australia",
    "Longitude":115.983646,
    "Latitude":-32.002948
  },
  {
    "SiteID":57875,
    "TenantName":"Dow, Amanda",
    "Address":"Unit 5 79-81 George Way",
    "City":"Cannington",
    "Region":"WA",
    "PostalCode":"6107",
    "FullAddress":"Unit 5 79-81 George Way, Cannington, WA, 6107, Australia",
    "Longitude":115.934455,
    "Latitude":-32.012694
  },
  {
    "SiteID":57875,
    "TenantName":"Douglas, Ian W",
    "Address":"72B Bessell Avenue",
    "City":"Como",
    "Region":"WA",
    "PostalCode":"6152",
    "FullAddress":"72B Bessell Avenue, Como, WA, 6152, Australia",
    "Longitude":115.87615,
    "Latitude":-31.99265
  },
  {
    "SiteID":57875,
    "TenantName":"Davis, Reece",
    "Address":"20\/21 bent street",
    "City":"cannington",
    "Region":"wa",
    "PostalCode":"6107",
    "FullAddress":"20\/21 bent street, cannington, wa, 6107, Australia",
    "Longitude":115.945693,
    "Latitude":-32.019249
  },
  {
    "SiteID":57875,
    "TenantName":"Clarke, Ryan",
    "Address":"8 Holton Way",
    "City":"Cannington",
    "Region":"WA",
    "PostalCode":"6107",
    "FullAddress":"8 Holton Way, Cannington, WA, 6107, Australia",
    "Longitude":115.93822,
    "Latitude":-32.01087
  },
  {
    "SiteID":57875,
    "TenantName":"Burke, Craig",
    "Address":"2\/15 Harden Close",
    "City":"Jabiru",
    "Region":"NT",
    "PostalCode":"0886",
    "FullAddress":"2\/15 Harden Close, Jabiru, NT, 0886, Australia",
    "Longitude":132.837485,
    "Latitude":-12.675976
  },
  {
    "SiteID":57875,
    "TenantName":"Bell, Ashley",
    "Address":"35A Mars St",
    "City":"Carlisle",
    "Region":"WA",
    "PostalCode":"6101",
    "FullAddress":"35A Mars St, Carlisle, WA, 6101, Australia",
    "Longitude":115.912833,
    "Latitude":-31.975303
  },
  {
    "SiteID":57875,
    "TenantName":"Adamson, Paul",
    "Address":"8 Zenith Street",
    "City":"Shelley",
    "Region":"WA",
    "PostalCode":"6148",
    "FullAddress":"8 Zenith Street, Shelley, WA, 6148, Australia",
    "Longitude":115.89315,
    "Latitude":-32.02279
  },
  {
    "SiteID":57875,
    "TenantName":"Tunnell, Alex",
    "Address":"105 Cortis Way",
    "City":"Langford",
    "Region":"WA",
    "PostalCode":"6147",
    "FullAddress":"105 Cortis Way, Langford, WA, 6147, Australia",
    "Longitude":115.947844,
    "Latitude":-32.041455
  },
  {
    "SiteID":57875,
    "TenantName":"Thompson, Pokewhinau (Bonny)",
    "Address":"1 Inaja Mews",
    "City":"Warnbro",
    "Region":"WA",
    "PostalCode":"6169",
    "FullAddress":"1 Inaja Mews, Warnbro, WA, 6169, Australia",
    "Longitude":115.76176,
    "Latitude":-32.34074
  },
  {
    "SiteID":57875,
    "TenantName":"Yeo, Wendy",
    "Address":"8 Success Cr",
    "City":"Salter Point",
    "Region":"WA",
    "PostalCode":"6152",
    "FullAddress":"8 Success Cr, Salter Point, WA, 6152, Australia",
    "Longitude":115.86009,
    "Latitude":-32.02208
  },
  {
    "SiteID":57875,
    "TenantName":"Whitehorn, Yvette",
    "Address":"59 North Road",
    "City":"Bassendean",
    "Region":"WA",
    "PostalCode":"6054",
    "FullAddress":"59 North Road, Bassendean, WA, 6054, Australia",
    "Longitude":115.96095,
    "Latitude":-31.90641
  },
  {
    "SiteID":57875,
    "TenantName":"Kennedy, Connor",
    "Address":"216 Hamilton St.",
    "City":"Queens Park",
    "Region":"WA",
    "PostalCode":"6107",
    "FullAddress":"216 Hamilton St., Queens Park, WA, 6107, Australia",
    "Longitude":115.943133,
    "Latitude":-31.99677
  },
  {
    "SiteID":57875,
    "TenantName":"Pyle, Sarah",
    "Address":"53 The circus",
    "City":"Burnswood",
    "Region":"WA",
    "PostalCode":"6100",
    "FullAddress":"53 The circus, Burnswood, WA, 6100, Australia",
    "Longitude":115.89798,
    "Latitude":-31.95663
  },
  {
    "SiteID":57875,
    "TenantName":"Cullen, Megan",
    "Address":"PO Box 1019",
    "City":"East Vic Park",
    "Region":"WA",
    "PostalCode":"6101",
    "FullAddress":"PO Box 1019, East Vic Park, WA, 6101, Australia",
    "Longitude":148.103526,
    "Latitude":-35.057792
  },
  {
    "SiteID":57875,
    "TenantName":"Zeng, Chun",
    "Address":"11 Merrifield Circle",
    "City":"Leeming",
    "Region":"VIC",
    "PostalCode":"6149",
    "FullAddress":"11 Merrifield Circle, Leeming, VIC, 6149, Australia",
    "Longitude":115.88584,
    "Latitude":-32.06807
  },
  {
    "SiteID":57875,
    "TenantName":"O'Brien, Scott J",
    "Address":"2 Coronation St",
    "City":"Doubleview",
    "Region":"WA",
    "PostalCode":"6018",
    "FullAddress":"2 Coronation St, Doubleview, WA, 6018, Australia",
    "Longitude":115.78162,
    "Latitude":-31.905
  },
  {
    "SiteID":57875,
    "TenantName":"Westacott, Euan .",
    "Address":"80 Stirling St",
    "City":"Perth",
    "Region":"WA",
    "PostalCode":"6000",
    "FullAddress":"80 Stirling St, Perth, WA, 6000, Australia",
    "Longitude":115.864546,
    "Latitude":-31.950111
  },
  {
    "SiteID":57875,
    "TenantName":"Singh, Daljit",
    "Address":"20 Wickham Road",
    "City":"Beckenham",
    "Region":"WA",
    "PostalCode":"6107",
    "FullAddress":"20 Wickham Road, Beckenham, WA, 6107, Australia",
    "Longitude":115.96147,
    "Latitude":-32.032335
  },
  {
    "SiteID":57875,
    "TenantName":"Sung, Cho Yin (Billy)",
    "Address":"14B Pusey Street",
    "City":"Bentley",
    "Region":"WA",
    "PostalCode":"6102",
    "FullAddress":"14B Pusey Street, Bentley, WA, 6102, Australia",
    "Longitude":115.915869,
    "Latitude":-32.009122
  },
  {
    "SiteID":57875,
    "TenantName":"Graham, Troy",
    "Address":"91 Canterbury Terrace",
    "City":"East Victoria Park",
    "Region":"WA",
    "PostalCode":"6101",
    "FullAddress":"91 Canterbury Terrace, East Victoria Park, WA, 6101, Australia",
    "Longitude":115.898772,
    "Latitude":-31.989735
  },
  {
    "SiteID":57875,
    "TenantName":"Crawford, Douglas",
    "Address":"65 Brooklands Drive",
    "City":"Henley Brook",
    "Region":"WA",
    "PostalCode":"6055",
    "FullAddress":"65 Brooklands Drive, Henley Brook, WA, 6055, Australia",
    "Longitude":115.975401,
    "Latitude":-31.809782
  },
  {
    "SiteID":57875,
    "TenantName":"Butler, Ash",
    "Address":"3 Caporn Turn",
    "City":"Queens Park",
    "Region":"WA",
    "PostalCode":"6107",
    "FullAddress":"3 Caporn Turn, Queens Park, WA, 6107, Australia",
    "Longitude":115.952435,
    "Latitude":-32.000371
  },
  {
    "SiteID":57875,
    "TenantName":"Bentley, Carl",
    "Address":"3 Angas Place",
    "City":"Thornlie",
    "Region":"WA",
    "PostalCode":"6108",
    "FullAddress":"3 Angas Place, Thornlie, WA, 6108, Australia",
    "Longitude":115.94755,
    "Latitude":-32.05338
  },
  {
    "SiteID":57875,
    "TenantName":"Pacitti, Chris",
    "Address":"54 Beattie Ave",
    "City":"East Vic Park",
    "Region":"WA",
    "PostalCode":"6001",
    "FullAddress":"54 Beattie Ave, East Vic Park, WA, 6001, Australia",
    "Longitude":151.103193,
    "Latitude":-33.798753
  },
  {
    "SiteID":57875,
    "TenantName":"Noonan-Crowe, Matthew",
    "Address":"70 McMillan Street",
    "City":"Victoria Park",
    "Region":"WA",
    "PostalCode":"6100",
    "FullAddress":"70 McMillan Street, Victoria Park, WA, 6100, Australia",
    "Longitude":115.892347,
    "Latitude":-31.97986
  },
  {
    "SiteID":57875,
    "TenantName":"Hinds, Tyrone R",
    "Address":"U40 \/ 17 Wickham Street",
    "City":"Perth",
    "Region":"WA",
    "PostalCode":"6004",
    "FullAddress":"U40 \/ 17 Wickham Street, Perth, WA, 6004, Australia",
    "Longitude":115.87611,
    "Latitude":-31.955082
  },
  {
    "SiteID":57875,
    "TenantName":"Fayos, Romane",
    "Address":"12 Fawcett Crescent,, 6155",
    "City":"Canning vale",
    "Region":"WA",
    "PostalCode":"6155",
    "FullAddress":"12 Fawcett Crescent,, 6155, Canning vale, WA, 6155, Australia",
    "Longitude":115.92626,
    "Latitude":-32.083631
  },
  {
    "SiteID":57875,
    "TenantName":"Bowker, Justin J",
    "Address":"27A Preston Point Road",
    "City":"Bicton",
    "Region":"WA",
    "PostalCode":"6157",
    "FullAddress":"27A Preston Point Road, Bicton, WA, 6157, Australia",
    "Longitude":115.764229,
    "Latitude":-32.037818
  },
  {
    "SiteID":57875,
    "TenantName":"Hargats, Olnar",
    "Address":"9 Boston Way",
    "City":"Booragoon",
    "Region":"WA",
    "PostalCode":"6154",
    "FullAddress":"9 Boston Way, Booragoon, WA, 6154, Australia",
    "Longitude":115.84058,
    "Latitude":-32.03353
  },
  {
    "SiteID":57875,
    "TenantName":"Yogasara, Nina",
    "Address":"Unit 2, 17 Leonard St",
    "City":"Victoria Park",
    "Region":"WA",
    "PostalCode":"6100",
    "FullAddress":"Unit 2, 17 Leonard St, Victoria Park, WA, 6100, Australia",
    "Longitude":115.895376,
    "Latitude":-31.975035
  },
  {
    "SiteID":57875,
    "TenantName":"Vernon, Andrew",
    "Address":"U 407 9 Heirisson Way",
    "City":"Victoria Park",
    "Region":"WA",
    "PostalCode":"6100",
    "FullAddress":"U 407 9 Heirisson Way, Victoria Park, WA, 6100, Australia",
    "Longitude":115.88659,
    "Latitude":-31.970202
  },
  {
    "SiteID":57875,
    "TenantName":"Madden, Predeep",
    "Address":"60A Corinthian Rd West",
    "City":"Perth",
    "Region":"WA",
    "PostalCode":"6148",
    "FullAddress":"60A Corinthian Rd West, Perth, WA, 6148, Australia",
    "Longitude":115.87471,
    "Latitude":-32.03339
  },
  {
    "SiteID":57875,
    "TenantName":"Gerginov, George",
    "Address":"18 Glinis Court",
    "City":"Ferndale",
    "Region":"WA",
    "PostalCode":"6148",
    "FullAddress":"18 Glinis Court, Ferndale, WA, 6148, Australia",
    "Longitude":115.91774,
    "Latitude":-32.03488
  },
  {
    "SiteID":57875,
    "TenantName":"Embry, John L",
    "Address":"c\/o 36 Salisbury Avenue",
    "City":"South Perth",
    "Region":"WA",
    "PostalCode":"60151",
    "FullAddress":"c\/o 36 Salisbury Avenue, South Perth, WA, 60151, Australia",
    "Longitude":115.87632,
    "Latitude":-31.97919
  },
  {
    "SiteID":57875,
    "TenantName":"Dagnino, Camila",
    "Address":"2A Clydesdale st",
    "City":"Burswood",
    "Region":"WA",
    "PostalCode":"6100",
    "FullAddress":"2A Clydesdale st, Burswood, WA, 6100, Australia",
    "Longitude":115.898452,
    "Latitude":-31.970875
  },
  {
    "SiteID":57875,
    "TenantName":"Blackley, Wendy",
    "Address":"59 Creaton Street",
    "City":"St James",
    "Region":"WA",
    "PostalCode":"6102",
    "FullAddress":"59 Creaton Street, St James, WA, 6102, Australia",
    "Longitude":115.901729,
    "Latitude":-32.00171
  },
  {
    "SiteID":57875,
    "TenantName":"Barr, Simon",
    "Address":"8 Uppill Pl",
    "City":"Wangara",
    "Region":"WA",
    "PostalCode":"6065",
    "FullAddress":"8 Uppill Pl, Wangara, WA, 6065, Australia",
    "Longitude":115.8127,
    "Latitude":-31.78517
  },
  {
    "SiteID":57875,
    "TenantName":"Yaragamudu, William",
    "Address":"49 Dumond St",
    "City":"Bentley",
    "Region":"WA",
    "PostalCode":"6102",
    "FullAddress":"49 Dumond St, Bentley, WA, 6102, Australia",
    "Longitude":115.907959,
    "Latitude":-32.011161
  },
  {
    "SiteID":57875,
    "TenantName":"Alexandria, Michael",
    "Address":"Unit 1 \/ 188 Churchill Ave",
    "City":"Subiaco",
    "Region":"WA",
    "PostalCode":"6008",
    "FullAddress":"Unit 1 \/ 188 Churchill Ave, Subiaco, WA, 6008, Australia",
    "Longitude":115.829442,
    "Latitude":-31.947686
  },
  {
    "SiteID":57875,
    "TenantName":"Henry, Kathleen",
    "Address":"21 Langford Ave",
    "City":"Langford",
    "Region":"WA",
    "PostalCode":"6147",
    "FullAddress":"21 Langford Ave, Langford, WA, 6147, Australia",
    "Longitude":115.93614,
    "Latitude":-32.040714
  },
  {
    "SiteID":57875,
    "TenantName":"Watts, Angela",
    "Address":"2 Wilmot Bend",
    "City":"Madley",
    "Region":"WA",
    "PostalCode":"6065",
    "FullAddress":"2 Wilmot Bend, Madley, WA, 6065, Australia",
    "Longitude":115.820666,
    "Latitude":-31.806066
  },
  {
    "SiteID":57875,
    "TenantName":"Keary, Kevin",
    "Address":"45 Mundairing Weir",
    "City":"Kalamunda",
    "Region":"WA",
    "PostalCode":"6076",
    "FullAddress":"45 Mundairing Weir, Kalamunda, WA, 6076, Australia",
    "Longitude":116.06894,
    "Latitude":-31.97512
  },
  {
    "SiteID":57875,
    "TenantName":"Hawkins, Fabio",
    "Address":"1 \/ 15 Ashburton Street",
    "City":"Bentley",
    "Region":"WA",
    "PostalCode":"6102",
    "FullAddress":"1 \/ 15 Ashburton Street, Bentley, WA, 6102, Australia",
    "Longitude":115.91758,
    "Latitude":-32.00261
  },
  {
    "SiteID":57875,
    "TenantName":"Fracaro, Ivo",
    "Address":"Unit 12\/329 Seven Oake Street",
    "City":"Cannington",
    "Region":"WA",
    "PostalCode":"6107",
    "FullAddress":"Unit 12\/329 Seven Oake Street, Cannington, WA, 6107, Australia",
    "Longitude":115.942945,
    "Latitude":-32.015281
  },
  {
    "SiteID":57875,
    "TenantName":"Brown, Wayne",
    "Address":"Unit 4, 21 Arthur St",
    "City":"Cannington",
    "Region":"WA",
    "PostalCode":"6107",
    "FullAddress":"Unit 4, 21 Arthur St, Cannington, WA, 6107, Australia",
    "Longitude":115.94585,
    "Latitude":-32.02537
  },
  {
    "SiteID":57875,
    "TenantName":"Roach, Ashley R",
    "Address":"Unit 23\/17 Cairns Street,  Loganholme",
    "City":"Loganholme",
    "Region":"QLD",
    "PostalCode":"4129",
    "FullAddress":"Unit 23\/17 Cairns Street,  Loganholme, Loganholme, QLD, 4129, Australia",
    "Longitude":153.187569,
    "Latitude":-27.677415
  },
  {
    "SiteID":57875,
    "TenantName":"Lamichhane, Churamani",
    "Address":"130Thomas Street",
    "City":"Queens Park",
    "Region":"WA",
    "PostalCode":"6107",
    "FullAddress":"130Thomas Street, Queens Park, WA, 6107, Australia",
    "Longitude":115.954776,
    "Latitude":-32.004145
  },
  {
    "SiteID":57875,
    "TenantName":"Johnson, James Nicholas",
    "Address":"32 Ashburton Street",
    "City":"Eat Victoria Park",
    "Region":"WA",
    "PostalCode":"6101",
    "FullAddress":"32 Ashburton Street, Eat Victoria Park, WA, 6101, Australia",
    "Longitude":115.89729,
    "Latitude":-31.9859
  },
  {
    "SiteID":57875,
    "TenantName":"Jiang, Leiyong",
    "Address":"34 Lionel Street",
    "City":"Naval Base",
    "Region":"WA",
    "PostalCode":"6165",
    "FullAddress":"34 Lionel Street, Naval Base, WA, 6165, Australia",
    "Longitude":115.786056,
    "Latitude":-32.196296
  },
  {
    "SiteID":57875,
    "TenantName":"Bordbar, Badieh F",
    "Address":"U905 \/ 2 Oldfield Street",
    "City":"Burswood",
    "Region":"WA",
    "PostalCode":"6100",
    "FullAddress":"U905 \/ 2 Oldfield Street, Burswood, WA, 6100, Australia",
    "Longitude":115.896455,
    "Latitude":-31.958007
  },
  {
    "SiteID":57875,
    "TenantName":"Bains, Ashlyn Esha",
    "Address":"63 Abbotswood Dr",
    "City":"Lansdale",
    "Region":"WA",
    "PostalCode":"6065",
    "FullAddress":"63 Abbotswood Dr, Lansdale, WA, 6065, Australia",
    "Longitude":115.86189,
    "Latitude":-31.81263
  },
  {
    "SiteID":57875,
    "TenantName":"Tutulic, Dragan",
    "Address":"6A Dewey Street",
    "City":"Shelley",
    "Region":"WA",
    "PostalCode":"6148",
    "FullAddress":"6A Dewey Street, Shelley, WA, 6148, Australia",
    "Longitude":115.896733,
    "Latitude":-32.026155
  },
  {
    "SiteID":57875,
    "TenantName":"Hickmott, Simon",
    "Address":"120 Hill View Terrace",
    "City":"St James",
    "Region":"WA",
    "PostalCode":"6102",
    "FullAddress":"120 Hill View Terrace, St James, WA, 6102, Australia",
    "Longitude":115.90295,
    "Latitude":-32.00234
  },
  {
    "SiteID":57875,
    "TenantName":"Ohuma, Nina",
    "Address":"6 Sexton Court",
    "City":"Kardinya",
    "Region":"Western Australia",
    "PostalCode":"6163",
    "FullAddress":"6 Sexton Court, Kardinya, Western Australia, 6163, Australia",
    "Longitude":115.82421,
    "Latitude":-32.06704
  },
  {
    "SiteID":57875,
    "TenantName":"Leach, Jessica",
    "Address":"8 Thompson Street",
    "City":"Ascot",
    "Region":"WA",
    "PostalCode":"6001",
    "FullAddress":"8 Thompson Street, Ascot, WA, 6001, Australia",
    "Longitude":115.932658,
    "Latitude":-31.932949
  },
  {
    "SiteID":57875,
    "TenantName":"Gastev, Peter",
    "Address":"70 Canning Beach Road",
    "City":"Applecross",
    "Region":"WA",
    "PostalCode":"6153",
    "FullAddress":"70 Canning Beach Road, Applecross, WA, 6153, Australia",
    "Longitude":115.851581,
    "Latitude":-32.010556
  },
  {
    "SiteID":57875,
    "TenantName":"Sinambela, Dmitri P",
    "Address":"Suite 1, Level 1, 410 Botany Rd",
    "City":"Beaconsfield",
    "Region":"NSW",
    "PostalCode":"2015",
    "FullAddress":"Suite 1, Level 1, 410 Botany Rd, Beaconsfield, NSW, 2015, Australia",
    "Longitude":151.201942,
    "Latitude":-33.910574
  },
  {
    "SiteID":57875,
    "TenantName":"Xu, Chuanling",
    "Address":"PO BOX 262",
    "City":"Welshpool 6896",
    "Region":"WA",
    "PostalCode":"6106",
    "FullAddress":"PO BOX 262, Welshpool 6896, WA, 6106, Australia",
    "Longitude":115.923903,
    "Latitude":-31.994065
  },
  {
    "SiteID":57875,
    "TenantName":"Sinclair, Greg",
    "Address":"1145 Albany Highway",
    "City":"Bentley",
    "Region":"WA",
    "PostalCode":"6102",
    "FullAddress":"1145 Albany Highway, Bentley, WA, 6102, Australia",
    "Longitude":115.919256,
    "Latitude":-32.002566
  },
  {
    "SiteID":57875,
    "TenantName":"Abbas, Fatima",
    "Address":"4 Abbott way",
    "City":"Wilson",
    "Region":"WA",
    "PostalCode":"6106",
    "FullAddress":"4 Abbott way, Wilson, WA, 6106, Australia",
    "Longitude":115.90301,
    "Latitude":-32.01612
  },
  {
    "SiteID":57875,
    "TenantName":"Lockhart, Peta-Maria .",
    "Address":"Unit 4 268-272 Wharf St",
    "City":"Queen Park",
    "Region":"WA",
    "PostalCode":"6107",
    "FullAddress":"Unit 4 268-272 Wharf St, Queen Park, WA, 6107, Australia",
    "Longitude":115.946241,
    "Latitude":-32.004047
  },
  {
    "SiteID":57875,
    "TenantName":"Phillips, Janice",
    "Address":"Unit 406\/14 Wootliff Way",
    "City":"Bentley",
    "Region":"WA",
    "PostalCode":"6102",
    "FullAddress":"Unit 406\/14 Wootliff Way, Bentley, WA, 6102, Australia",
    "Longitude":115.897907,
    "Latitude":-32.001821
  },
  {
    "SiteID":57875,
    "TenantName":"Ong, Axyl A",
    "Address":"15 Rodena Way",
    "City":"Canning Vale",
    "Region":"WA",
    "PostalCode":"6155",
    "FullAddress":"15 Rodena Way, Canning Vale, WA, 6155, Australia",
    "Longitude":115.942052,
    "Latitude":-32.077941
  },
  {
    "SiteID":57875,
    "TenantName":"Burke, Paul",
    "Address":"17 Midgley St Lathlain",
    "City":"Perth",
    "Region":"Western Australia",
    "PostalCode":"6100",
    "FullAddress":"17 Midgley St Lathlain, Perth, Western Australia, 6100, Australia",
    "Longitude":115.90183,
    "Latitude":-31.96386
  },
  {
    "SiteID":57875,
    "TenantName":"Beel, Issac",
    "Address":"Villa 19, 52 Aussat Drive",
    "City":"Kiara",
    "Region":"WA",
    "PostalCode":"6054",
    "FullAddress":"Villa 19, 52 Aussat Drive, Kiara, WA, 6054, Australia",
    "Longitude":115.936417,
    "Latitude":-31.886897
  },
  {
    "SiteID":57875,
    "TenantName":"Githua, Reuben Ndirangu",
    "Address":"U 5 \/ 27 Standard St",
    "City":"Bentley",
    "Region":"WA",
    "PostalCode":"6102",
    "FullAddress":"U 5 \/ 27 Standard St, Bentley, WA, 6102, Australia",
    "Longitude":115.90299,
    "Latitude":-32.007253
  },
  {
    "SiteID":57875,
    "TenantName":"Alle, Alexia",
    "Address":"2\/53 Southgate Ave",
    "City":"Cannon Hill",
    "Region":"QLD",
    "PostalCode":"4170",
    "FullAddress":"2\/53 Southgate Ave, Cannon Hill, QLD, 4170, Australia",
    "Longitude":153.094157,
    "Latitude":-27.466648
  },
  {
    "SiteID":57875,
    "TenantName":"Webster, Mick",
    "Address":"5 Dan St",
    "City":"Slacks Creek",
    "Region":"QLD",
    "PostalCode":"4127",
    "FullAddress":"5 Dan St, Slacks Creek, QLD, 4127, Australia",
    "Longitude":153.121672,
    "Latitude":-27.623819
  },
  {
    "SiteID":57875,
    "TenantName":"Savikina, Anna",
    "Address":"5 \/ 927 Wellington Street",
    "City":"West Perth",
    "Region":"WA",
    "PostalCode":"6000",
    "FullAddress":"5 \/ 927 Wellington Street, West Perth, WA, 6000, Australia",
    "Longitude":115.844643,
    "Latitude":-31.947133
  },
  {
    "SiteID":57875,
    "TenantName":"Kerr, Anthony",
    "Address":"40 Leonard Rd",
    "City":"Lilydale",
    "Region":"VIC",
    "PostalCode":"3140",
    "FullAddress":"40 Leonard Rd, Lilydale, VIC, 3140, Australia",
    "Longitude":145.390387,
    "Latitude":-37.753874
  },
  {
    "SiteID":57875,
    "TenantName":"Filby, Victoria",
    "Address":"16 Banjong St",
    "City":"Martin",
    "Region":"WA",
    "PostalCode":"6110",
    "FullAddress":"16 Banjong St, Martin, WA, 6110, Australia",
    "Longitude":116.012562,
    "Latitude":-32.073672
  },
  {
    "SiteID":57875,
    "TenantName":"Carden, William",
    "Address":"unit 8\/45 tenth Av",
    "City":"Maylands",
    "Region":"WA",
    "PostalCode":"6051",
    "FullAddress":"unit 8\/45 tenth Av, Maylands, WA, 6051, Australia",
    "Longitude":115.88973,
    "Latitude":-31.92418
  },
  {
    "SiteID":57875,
    "TenantName":"Arisen, Fiona .",
    "Address":"1\/40-42 Hopkinson Way",
    "City":"Wilson",
    "Region":"WA",
    "PostalCode":"6107",
    "FullAddress":"1\/40-42 Hopkinson Way, Wilson, WA, 6107, Australia",
    "Longitude":115.907627,
    "Latitude":-32.015314
  },
  {
    "SiteID":57875,
    "TenantName":"Town, Eleathea",
    "Address":"29 Kimmer place",
    "City":"Perth",
    "Region":"WA",
    "PostalCode":"6107",
    "FullAddress":"29 Kimmer place, Perth, WA, 6107, Australia",
    "Longitude":115.943636,
    "Latitude":-32.010573
  },
  {
    "SiteID":57875,
    "TenantName":"Edwards, Shane",
    "Address":"5 Wilpon Street",
    "City":"Beckingham",
    "Region":"WA",
    "PostalCode":"6107",
    "FullAddress":"5 Wilpon Street, Beckingham, WA, 6107, Australia",
    "Longitude":115.95703,
    "Latitude":-32.02714
  },
  {
    "SiteID":57875,
    "TenantName":"Olsen, Jamie",
    "Address":"34A Colleran Way",
    "City":"Booragoon",
    "Region":"WA",
    "PostalCode":"6154",
    "FullAddress":"34A Colleran Way, Booragoon, WA, 6154, Australia",
    "Longitude":115.834896,
    "Latitude":-32.038784
  },
  {
    "SiteID":57875,
    "TenantName":"May, Jacqueline",
    "Address":"2\/195 - 197 Welshpool Road",
    "City":"Queens Park",
    "Region":"WA",
    "PostalCode":"6107",
    "FullAddress":"2\/195 - 197 Welshpool Road, Queens Park, WA, 6107, Australia",
    "Longitude":115.940836,
    "Latitude":-31.99659
  },
  {
    "SiteID":57875,
    "TenantName":"Lawless, James",
    "Address":"Unit 9 \/ 84 Stanley Street",
    "City":"Scarborough",
    "Region":"WA",
    "PostalCode":"6019",
    "FullAddress":"Unit 9 \/ 84 Stanley Street, Scarborough, WA, 6019, Australia",
    "Longitude":115.762665,
    "Latitude":-31.901087
  },
  {
    "SiteID":57875,
    "TenantName":"Shrestha, Sajis",
    "Address":"Unit 2\/06 Neon Close",
    "City":"Parkwood",
    "Region":"WA",
    "PostalCode":"6147",
    "FullAddress":"Unit 2\/06 Neon Close, Parkwood, WA, 6147, Australia",
    "Longitude":115.905074,
    "Latitude":-32.050173
  },
  {
    "SiteID":57875,
    "TenantName":"Ithier, Yohann",
    "Address":"Unit 3\/17 Aurum Parade",
    "City":"Dayton",
    "Region":"WA",
    "PostalCode":"6055",
    "FullAddress":"Unit 3\/17 Aurum Parade, Dayton, WA, 6055, Australia",
    "Longitude":115.971528,
    "Latitude":-31.85099
  },
  {
    "SiteID":57875,
    "TenantName":"Rosdi, Eidawatie",
    "Address":"3\/28 Rutherford St",
    "City":"Manjimup",
    "Region":"WA",
    "PostalCode":"6258",
    "FullAddress":"3\/28 Rutherford St, Manjimup, WA, 6258, Australia",
    "Longitude":116.13837,
    "Latitude":-34.23672
  },
  {
    "SiteID":57875,
    "TenantName":"Farrow, Jaimee Leigh",
    "Address":"78 Shreeve Road",
    "City":"Canningvale",
    "Region":"WA",
    "PostalCode":"6155",
    "FullAddress":"78 Shreeve Road, Canningvale, WA, 6155, Australia",
    "Longitude":115.942162,
    "Latitude":-32.08195
  },
  {
    "SiteID":57875,
    "TenantName":"Tavanavanua-Morrison, Courtney",
    "Address":"280B Wright Street",
    "City":"Cloverdale",
    "Region":"WA",
    "PostalCode":"6105",
    "FullAddress":"280B Wright Street, Cloverdale, WA, 6105, Australia",
    "Longitude":115.938008,
    "Latitude":-31.96088
  },
  {
    "SiteID":57875,
    "TenantName":"Kanagasundram, Yeeswari",
    "Address":"4A Michael Street",
    "City":"Beaconsfield",
    "Region":"WA",
    "PostalCode":"6162",
    "FullAddress":"4A Michael Street, Beaconsfield, WA, 6162, Australia",
    "Longitude":115.771296,
    "Latitude":-32.067886
  },
  {
    "SiteID":57875,
    "TenantName":"Byrne, Julieanne",
    "Address":"51A Celebration Street",
    "City":"Beckenham",
    "Region":"WA",
    "PostalCode":"6107",
    "FullAddress":"51A Celebration Street, Beckenham, WA, 6107, Australia",
    "Longitude":115.962304,
    "Latitude":-32.012793
  },
  {
    "SiteID":57875,
    "TenantName":"De Koning, Irene",
    "Address":"Unit 6 \/15 Cardiff Street",
    "City":"East Victoria Park",
    "Region":"WA",
    "PostalCode":"6101",
    "FullAddress":"Unit 6 \/15 Cardiff Street, East Victoria Park, WA, 6101, Australia",
    "Longitude":115.906611,
    "Latitude":-31.980998
  },
  {
    "SiteID":57875,
    "TenantName":"Aksakal, Gulcan (Jasmine)",
    "Address":"24A Stephen Street",
    "City":"Queen Park",
    "Region":"WA",
    "PostalCode":"6107",
    "FullAddress":"24A Stephen Street, Queen Park, WA, 6107, Australia",
    "Longitude":115.950743,
    "Latitude":-32.005419
  },
  {
    "SiteID":57875,
    "TenantName":"LVX Global, LVX Global",
    "Address":"U7\/1329 Hay ST",
    "City":"West Perth",
    "Region":"WA",
    "PostalCode":"6000",
    "FullAddress":"U7\/1329 Hay ST, West Perth, WA, 6000, Australia",
    "Longitude":115.865487,
    "Latitude":-31.956325
  },
  {
    "SiteID":57875,
    "TenantName":"Krasicki, Sarah J",
    "Address":"98 Carnarvon Street,",
    "City":".",
    "Region":"WA",
    "PostalCode":"6101",
    "FullAddress":"98 Carnarvon Street,, ., WA, 6101, Australia",
    "Longitude":115.90974,
    "Latitude":-31.982876
  },
  {
    "SiteID":57875,
    "TenantName":"Kenny, Adrian",
    "Address":"2 \/122 Tribute Street",
    "City":"Riverton",
    "Region":"WA",
    "PostalCode":"6148",
    "FullAddress":"2 \/122 Tribute Street, Riverton, WA, 6148, Australia",
    "Longitude":115.889298,
    "Latitude":-32.030387
  },
  {
    "SiteID":57875,
    "TenantName":"Jones, Alastair",
    "Address":"106 Hubert Street",
    "City":"East Victoria Park",
    "Region":"WA",
    "PostalCode":"6101",
    "FullAddress":"106 Hubert Street, East Victoria Park, WA, 6101, Australia",
    "Longitude":115.90693,
    "Latitude":-31.98745
  },
  {
    "SiteID":57875,
    "TenantName":"Pires De Souza, Jacqueline",
    "Address":"279 Newcastle Street",
    "City":"Northbridge",
    "Region":"WA",
    "PostalCode":"6003",
    "FullAddress":"279 Newcastle Street, Northbridge, WA, 6003, Australia",
    "Longitude":115.857861,
    "Latitude":-31.945048
  },
  {
    "SiteID":57875,
    "TenantName":"Smallwood, Dylan",
    "Address":"U8, 15 Ellam Street",
    "City":"St James",
    "Region":"WA",
    "PostalCode":"6102",
    "FullAddress":"U8, 15 Ellam Street, St James, WA, 6102, Australia",
    "Longitude":115.916356,
    "Latitude":-31.995521
  },
  {
    "SiteID":57875,
    "TenantName":"Morton, David S",
    "Address":"16 Shirley Road",
    "City":"Walliston",
    "Region":"WA",
    "PostalCode":"6076",
    "FullAddress":"16 Shirley Road, Walliston, WA, 6076, Australia",
    "Longitude":116.06848,
    "Latitude":-31.99268
  },
  {
    "SiteID":57875,
    "TenantName":"Teame, Daniel",
    "Address":"7B Modela Place",
    "City":"Balga",
    "Region":"WA",
    "PostalCode":"6061",
    "FullAddress":"7B Modela Place, Balga, WA, 6061, Australia",
    "Longitude":115.85049,
    "Latitude":-31.85717
  },
  {
    "SiteID":57875,
    "TenantName":"Swift, Andrew",
    "Address":"Unit 6 31 Mill Point Road",
    "City":"South Perth",
    "Region":"WA",
    "PostalCode":"6151",
    "FullAddress":"Unit 6 31 Mill Point Road, South Perth, WA, 6151, Australia",
    "Longitude":115.848002,
    "Latitude":-31.967913
  },
  {
    "SiteID":57875,
    "TenantName":"Sakidin, Adam",
    "Address":"68 Gallipoli Street",
    "City":"Lathlain",
    "Region":"WA",
    "PostalCode":"6100",
    "FullAddress":"68 Gallipoli Street, Lathlain, WA, 6100, Australia",
    "Longitude":115.90542,
    "Latitude":-31.96411
  },
  {
    "SiteID":57875,
    "TenantName":"Kirk, Pauline",
    "Address":"Unit 4, 292 Surrey Road",
    "City":"Kewdale",
    "Region":"WA",
    "PostalCode":"6105",
    "FullAddress":"Unit 4, 292 Surrey Road, Kewdale, WA, 6105, Australia",
    "Longitude":115.927478,
    "Latitude":-31.976691
  },
  {
    "SiteID":57875,
    "TenantName":"Guest, Brian",
    "Address":"17 Duke Street",
    "City":"Bentley",
    "Region":"WA",
    "PostalCode":"6102",
    "FullAddress":"17 Duke Street, Bentley, WA, 6102, Australia",
    "Longitude":115.917188,
    "Latitude":-32.010609
  },
  {
    "SiteID":57875,
    "TenantName":"Fiori, Joe",
    "Address":"14 Doneraile Ct",
    "City":"Waterford",
    "Region":"WA",
    "PostalCode":"6152",
    "FullAddress":"14 Doneraile Ct, Waterford, WA, 6152, Australia",
    "Longitude":115.88804,
    "Latitude":-32.01689
  },
  {
    "SiteID":57875,
    "TenantName":"Dynan, Daniel",
    "Address":"Unit 1 45 Teague Street",
    "City":"Victoria Park",
    "Region":"WA",
    "PostalCode":"6100",
    "FullAddress":"Unit 1 45 Teague Street, Victoria Park, WA, 6100, Australia",
    "Longitude":115.90043,
    "Latitude":-31.97408
  },
  {
    "SiteID":57875,
    "TenantName":"Chao, Jason",
    "Address":"5\/3-4 Anzed Ct",
    "City":"Mulgrave",
    "Region":"Vic",
    "PostalCode":"3170",
    "FullAddress":"5\/3-4 Anzed Ct, Mulgrave, Vic, 3170, Australia",
    "Longitude":145.149122,
    "Latitude":-37.921788
  },
  {
    "SiteID":57875,
    "TenantName":"Arnold, Charlotte (Charlie)",
    "Address":"2\/72 Hardey Road",
    "City":"Belmont",
    "Region":"WA",
    "PostalCode":"6104",
    "FullAddress":"2\/72 Hardey Road, Belmont, WA, 6104, Australia",
    "Longitude":115.92951,
    "Latitude":-31.94312
  },
  {
    "SiteID":57875,
    "TenantName":"Amuso, Massimo (Max)",
    "Address":"61B Girrawheen Ave",
    "City":"Girrawheen",
    "Region":"WA",
    "PostalCode":"6064",
    "FullAddress":"61B Girrawheen Ave, Girrawheen, WA, 6064, Australia",
    "Longitude":115.839436,
    "Latitude":-31.842407
  },
  {
    "SiteID":57875,
    "TenantName":"Willett, Olivia E",
    "Address":"7\/300 Albany Highway",
    "City":"Victoria Park",
    "Region":"WA",
    "PostalCode":"6100",
    "FullAddress":"7\/300 Albany Highway, Victoria Park, WA, 6100, Australia",
    "Longitude":115.895864,
    "Latitude":-31.972355
  },
  {
    "SiteID":57875,
    "TenantName":"Bowie, Francis",
    "Address":"5D Roberts Road",
    "City":"Lathlain",
    "Region":"WA",
    "PostalCode":"6100",
    "FullAddress":"5D Roberts Road, Lathlain, WA, 6100, Australia",
    "Longitude":115.907207,
    "Latitude":-31.975184
  },
  {
    "SiteID":57875,
    "TenantName":"Bohn, Kathy",
    "Address":"Unit 16A \/ 25 Victoria Street",
    "City":"Claremont",
    "Region":"WA",
    "PostalCode":"6010",
    "FullAddress":"Unit 16A \/ 25 Victoria Street, Claremont, WA, 6010, Australia",
    "Longitude":115.757278,
    "Latitude":-32.011981
  },
  {
    "SiteID":57875,
    "TenantName":"Singh, Satnam",
    "Address":"50 Constilation Drive",
    "City":"Bennett Springs",
    "Region":"WA",
    "PostalCode":"6063",
    "FullAddress":"50 Constilation Drive, Bennett Springs, WA, 6063, Australia",
    "Longitude":115.942444,
    "Latitude":-31.85768
  },
  {
    "SiteID":57875,
    "TenantName":"Wilkinson, Tayla",
    "Address":"Unit 20 448 Murrary St",
    "City":"Perth",
    "Region":"wa",
    "PostalCode":"6000",
    "FullAddress":"Unit 20 448 Murrary St, Perth, wa, 6000, Australia",
    "Longitude":115.852614,
    "Latitude":-31.950605
  },
  {
    "SiteID":57875,
    "TenantName":"MacMillan, Troy",
    "Address":"18B Helmsley Streets",
    "City":"Scarborough",
    "Region":"WA",
    "PostalCode":"6019",
    "FullAddress":"18B Helmsley Streets, Scarborough, WA, 6019, Australia",
    "Longitude":115.774917,
    "Latitude":-31.90224
  },
  {
    "SiteID":57875,
    "TenantName":"Hussaini, Ghafoor",
    "Address":"288 Railway Parade",
    "City":"East Cannington",
    "Region":"6107",
    "PostalCode":"WA",
    "FullAddress":"288 Railway Parade, East Cannington, 6107, WA, Australia",
    "Longitude":115.94921,
    "Latitude":-32.01653
  },
  {
    "SiteID":57875,
    "TenantName":"Karunanyzi, Elayanathan (Eli)",
    "Address":"29 Lombardy Street",
    "City":"Woodlands",
    "Region":"WA",
    "PostalCode":"6018",
    "FullAddress":"29 Lombardy Street, Woodlands, WA, 6018, Australia",
    "Longitude":115.788658,
    "Latitude":-31.912222
  },
  {
    "SiteID":57875,
    "TenantName":"Lamvohee, Jacques L",
    "Address":"Unit 37\/3 Doncaster Road",
    "City":"Mirrabooka",
    "Region":"6061",
    "PostalCode":"WA",
    "FullAddress":"Unit 37\/3 Doncaster Road, Mirrabooka, 6061, WA, Australia",
    "Longitude":115.856193,
    "Latitude":-31.866603
  },
  {
    "SiteID":57875,
    "TenantName":"McClure, Lesley",
    "Address":"Unit 24 \/ 281 Mill Point RD",
    "City":"South Perth",
    "Region":"WA",
    "PostalCode":"6151",
    "FullAddress":"Unit 24 \/ 281 Mill Point RD, South Perth, WA, 6151, Australia",
    "Longitude":115.870668,
    "Latitude":-31.977869
  },
  {
    "SiteID":57875,
    "TenantName":"Moore, Kevin C",
    "Address":"65 Straker Drive,",
    "City":"Cooroy",
    "Region":"QLD",
    "PostalCode":"4563",
    "FullAddress":"65 Straker Drive,, Cooroy, QLD, 4563, Australia",
    "Longitude":152.899356,
    "Latitude":-26.421278
  },
  {
    "SiteID":57875,
    "TenantName":"Singh Bhalla, Harvinder",
    "Address":"6A Noongar Way",
    "City":"Riverton",
    "Region":"WA",
    "PostalCode":"6148",
    "FullAddress":"6A Noongar Way, Riverton, WA, 6148, Australia",
    "Longitude":115.90281,
    "Latitude":-32.03541
  },
  {
    "SiteID":57875,
    "TenantName":"Sassenberg, Henry",
    "Address":"Level 8 \/ 256 Adelaide Terrace",
    "City":"Perth",
    "Region":"WA",
    "PostalCode":"6000",
    "FullAddress":"Level 8 \/ 256 Adelaide Terrace, Perth, WA, 6000, Australia",
    "Longitude":115.865828,
    "Latitude":-31.957361
  },
  {
    "SiteID":57875,
    "TenantName":"Elliott, Andrew",
    "Address":"19 Borden St",
    "City":"Maddington",
    "Region":"WA",
    "PostalCode":"6109",
    "FullAddress":"19 Borden St, Maddington, WA, 6109, Australia",
    "Longitude":116.00154,
    "Latitude":-32.04926
  },
  {
    "SiteID":57875,
    "TenantName":"Kongsin, Phanit",
    "Address":"St. Martins Tower, Level 32",
    "City":"Sydney",
    "Region":"NSW",
    "PostalCode":"2000",
    "FullAddress":"St. Martins Tower, Level 32, Sydney, NSW, 2000, Australia",
    "Longitude":151.178502,
    "Latitude":-33.896906
  },
  {
    "SiteID":57875,
    "TenantName":"Lesbros, Marion",
    "Address":"3\/53 Beatty Avenue",
    "City":"East Victoria Park",
    "Region":"WA",
    "PostalCode":"6101",
    "FullAddress":"3\/53 Beatty Avenue, East Victoria Park, WA, 6101, Australia",
    "Longitude":115.90887,
    "Latitude":-31.98125
  },
  {
    "SiteID":57875,
    "TenantName":"Thata, Paul",
    "Address":"14\/129 Briggs Street",
    "City":"Kewdale",
    "Region":"WA",
    "PostalCode":"6105",
    "FullAddress":"14\/129 Briggs Street, Kewdale, WA, 6105, Australia",
    "Longitude":115.929918,
    "Latitude":-31.980807
  },
  {
    "SiteID":57875,
    "TenantName":"Perry, Brenton Graham",
    "Address":"511\/8 Moreau Parade",
    "City":"East Perth",
    "Region":"wa",
    "PostalCode":"6004",
    "FullAddress":"511\/8 Moreau Parade, East Perth, wa, 6004, Australia",
    "Longitude":115.876597,
    "Latitude":-31.960583
  },
  {
    "SiteID":57875,
    "TenantName":"Rayson, Lee .",
    "Address":"4 Fitzhardinge Street",
    "City":"Exmouth",
    "Region":"WA",
    "PostalCode":"6707",
    "FullAddress":"4 Fitzhardinge Street, Exmouth, WA, 6707, Australia",
    "Longitude":114.12156,
    "Latitude":-21.92628
  },
  {
    "SiteID":57875,
    "TenantName":"Martinez, Amanda J",
    "Address":"1 Lynton Road,",
    "City":"Willeton",
    "Region":"WA",
    "PostalCode":"6155",
    "FullAddress":"1 Lynton Road,, Willeton, WA, 6155, Australia",
    "Longitude":115.894429,
    "Latitude":-32.046216
  },
  {
    "SiteID":57875,
    "TenantName":"Dutch, Rodney Donald",
    "Address":"7 Chisham Ave.",
    "City":"Parmela",
    "Region":"WA",
    "PostalCode":"6167",
    "FullAddress":"7 Chisham Ave., Parmela, WA, 6167, Australia",
    "Longitude":115.818,
    "Latitude":-32.2436
  },
  {
    "SiteID":57875,
    "TenantName":"Kamsani, Bin Ali",
    "Address":"21C Wilson Street",
    "City":"Carey Park",
    "Region":"WA",
    "PostalCode":"6230",
    "FullAddress":"21C Wilson Street, Carey Park, WA, 6230, Australia",
    "Longitude":115.648478,
    "Latitude":-33.347163
  },
  {
    "SiteID":57875,
    "TenantName":"Dames, Alan",
    "Address":"Unit 2 80 McCoy Street",
    "City":"Myaree",
    "Region":"WA",
    "PostalCode":"6154",
    "FullAddress":"Unit 2 80 McCoy Street, Myaree, WA, 6154, Australia",
    "Longitude":115.820657,
    "Latitude":-32.04313
  },
  {
    "SiteID":57875,
    "TenantName":"La Puma, Sil",
    "Address":"1 Brodie Hall Drive",
    "City":"Bentley",
    "Region":"WA",
    "PostalCode":"6102",
    "FullAddress":"1 Brodie Hall Drive, Bentley, WA, 6102, Australia",
    "Longitude":115.888872,
    "Latitude":-31.997101
  },
  {
    "SiteID":57875,
    "TenantName":"Siaw, Loris",
    "Address":"166 Mounts Bay RD",
    "City":"Perth",
    "Region":"WA",
    "PostalCode":"6000",
    "FullAddress":"166 Mounts Bay RD, Perth, WA, 6000, Australia",
    "Longitude":115.84543,
    "Latitude":-31.959221
  },
  {
    "SiteID":57875,
    "TenantName":"Stubbe, Wilfred (Bill)",
    "Address":"51\/143 Adelaide Terrace",
    "City":"East Perth",
    "Region":"WA",
    "PostalCode":"6004",
    "FullAddress":"51\/143 Adelaide Terrace, East Perth, WA, 6004, Australia",
    "Longitude":115.872082,
    "Latitude":-31.96053
  },
  {
    "SiteID":57875,
    "TenantName":"Thorne, Neil",
    "Address":"26\/46 Rutland Avenue",
    "City":"Lathlain",
    "Region":"WA",
    "PostalCode":"6100",
    "FullAddress":"26\/46 Rutland Avenue, Lathlain, WA, 6100, Australia",
    "Longitude":115.900798,
    "Latitude":-31.967491
  },
  {
    "SiteID":57875,
    "TenantName":"Northcott, Adam J",
    "Address":"11 Boyd Close",
    "City":"South Guildford",
    "Region":"WA",
    "PostalCode":"6055",
    "FullAddress":"11 Boyd Close, South Guildford, WA, 6055, Australia",
    "Longitude":115.9885,
    "Latitude":-31.90013
  },
  {
    "SiteID":57875,
    "TenantName":"Aguero, Alex",
    "Address":"22 Morgan Street",
    "City":"Cannington",
    "Region":"WA",
    "PostalCode":"6107",
    "FullAddress":"22 Morgan Street, Cannington, WA, 6107, Australia",
    "Longitude":115.94793,
    "Latitude":-32.02008
  },
  {
    "SiteID":57875,
    "TenantName":"Haron, James",
    "Address":"50 Serenity St",
    "City":"Wellard",
    "Region":"WA",
    "PostalCode":"6170",
    "FullAddress":"50 Serenity St, Wellard, WA, 6170, Australia",
    "Longitude":115.855867,
    "Latitude":-32.262329
  },
  {
    "SiteID":57875,
    "TenantName":"Andres, Kristina Carmela .",
    "Address":"61B Thomas St",
    "City":"East Canington",
    "Region":"WA",
    "PostalCode":"6107",
    "FullAddress":"61B Thomas St, East Canington, WA, 6107, Australia",
    "Longitude":115.950545,
    "Latitude":-32.00891
  },
  {
    "SiteID":57875,
    "TenantName":"Miller, Terrence",
    "Address":"147 Moran St",
    "City":"Boulder",
    "Region":"WA",
    "PostalCode":"6432",
    "FullAddress":"147 Moran St, Boulder, WA, 6432, Australia",
    "Longitude":121.47055,
    "Latitude":-30.78043
  },
  {
    "SiteID":57875,
    "TenantName":"Haji-Noor, Rosina J",
    "Address":"3 Stilt Cove",
    "City":"Cannington",
    "Region":"WA",
    "PostalCode":"6107",
    "FullAddress":"3 Stilt Cove, Cannington, WA, 6107, Australia",
    "Longitude":115.930147,
    "Latitude":-32.005697
  },
  {
    "SiteID":57875,
    "TenantName":"Boeck, Karl G",
    "Address":"34 Dowley Street",
    "City":"Cue",
    "Region":"WA",
    "PostalCode":"6640",
    "FullAddress":"34 Dowley Street, Cue, WA, 6640, Australia",
    "Longitude":117.894842,
    "Latitude":-27.424095
  },
  {
    "SiteID":57875,
    "TenantName":"Penna, Paul",
    "Address":"20 Campbell Street",
    "City":"Kensington",
    "Region":"WA",
    "PostalCode":"6151",
    "FullAddress":"20 Campbell Street, Kensington, WA, 6151, Australia",
    "Longitude":115.87326,
    "Latitude":-31.98781
  },
  {
    "SiteID":57875,
    "TenantName":"Jeetun, Chris",
    "Address":"202A Manning RD",
    "City":"Wilson",
    "Region":"WA",
    "PostalCode":"6107",
    "FullAddress":"202A Manning RD, Wilson, WA, 6107, Australia",
    "Longitude":115.902061,
    "Latitude":-32.013754
  },
  {
    "SiteID":57875,
    "TenantName":"Raharuhi, Tewhaka ( Fiddy) W",
    "Address":"Unit 23\/37 Paulik Way",
    "City":"Hamilton Hill",
    "Region":"WA",
    "PostalCode":"6163",
    "FullAddress":"Unit 23\/37 Paulik Way, Hamilton Hill, WA, 6163, Australia",
    "Longitude":115.779958,
    "Latitude":-32.089275
  },
  {
    "SiteID":57875,
    "TenantName":"Frenchk, Kyle",
    "Address":"69 cornwall street lathlain",
    "City":"Perth",
    "Region":"Wa",
    "PostalCode":"6100",
    "FullAddress":"69 cornwall street lathlain, Perth, Wa, 6100, Australia",
    "Longitude":115.90912,
    "Latitude":-31.9639
  },
  {
    "SiteID":57875,
    "TenantName":"Chong, Wei How",
    "Address":"1\/9 Central Terrace",
    "City":"Beckenham",
    "Region":"WA",
    "PostalCode":"6107",
    "FullAddress":"1\/9 Central Terrace, Beckenham, WA, 6107, Australia",
    "Longitude":115.954074,
    "Latitude":-32.019793
  },
  {
    "SiteID":57875,
    "TenantName":"Singh, Sukhwant",
    "Address":"6\/25 Streatham Street,",
    "City":"Beckenham",
    "Region":"WA",
    "PostalCode":"6107",
    "FullAddress":"6\/25 Streatham Street,, Beckenham, WA, 6107, Australia",
    "Longitude":115.958408,
    "Latitude":-32.023253
  },
  {
    "SiteID":57875,
    "TenantName":"Maggi, Antonio (Tony)",
    "Address":"122A Mallad way",
    "City":"Cannington",
    "Region":"WA",
    "PostalCode":"6107",
    "FullAddress":"122A Mallad way, Cannington, WA, 6107, Australia",
    "Longitude":115.93765,
    "Latitude":-32.00891
  },
  {
    "SiteID":57875,
    "TenantName":"Wiese, Elizabeth",
    "Address":"104 Lionel Street",
    "City":"Boulder",
    "Region":"WA",
    "PostalCode":"6432",
    "FullAddress":"104 Lionel Street, Boulder, WA, 6432, Australia",
    "Longitude":121.483646,
    "Latitude":-30.784687
  },
  {
    "SiteID":57875,
    "TenantName":"Rishworth, Paul",
    "Address":"10 Avro Way",
    "City":"Bullsbrook",
    "Region":"WA",
    "PostalCode":"6084",
    "FullAddress":"10 Avro Way, Bullsbrook, WA, 6084, Australia",
    "Longitude":116.039036,
    "Latitude":-31.663469
  },
  {
    "SiteID":57875,
    "TenantName":"Pugh, Edward J",
    "Address":"U 1002 \/ 237 Adelaide Terrace",
    "City":"Perth",
    "Region":"WA",
    "PostalCode":"6000",
    "FullAddress":"U 1002 \/ 237 Adelaide Terrace, Perth, WA, 6000, Australia",
    "Longitude":115.866592,
    "Latitude":-31.958681
  },
  {
    "SiteID":57875,
    "TenantName":"Abou Hishmeh, Maryiam",
    "Address":"24 Henry Street",
    "City":"East Cannington",
    "Region":"WA",
    "PostalCode":"6107",
    "FullAddress":"24 Henry Street, East Cannington, WA, 6107, Australia",
    "Longitude":115.9489,
    "Latitude":-32.01474
  },
  {
    "SiteID":57875,
    "TenantName":"Todhunter, James",
    "Address":"43 McMillan St",
    "City":"Victoria Park",
    "Region":"WA",
    "PostalCode":"6100",
    "FullAddress":"43 McMillan St, Victoria Park, WA, 6100, Australia",
    "Longitude":115.89422,
    "Latitude":-31.97771
  },
  {
    "SiteID":57875,
    "TenantName":"Menon, Abhishek",
    "Address":"15 Old Mersury Lane",
    "City":"Willeton",
    "Region":"WA",
    "PostalCode":"6155",
    "FullAddress":"15 Old Mersury Lane, Willeton, WA, 6155, Australia",
    "Longitude":122.22059,
    "Latitude":-17.96823
  },
  {
    "SiteID":57875,
    "TenantName":"Horton, Karl J",
    "Address":"12 Conlon Street",
    "City":"Waterford",
    "Region":"WA",
    "PostalCode":"6152",
    "FullAddress":"12 Conlon Street, Waterford, WA, 6152, Australia",
    "Longitude":115.8951,
    "Latitude":-32.012641
  },
  {
    "SiteID":57875,
    "TenantName":"Flint, Francene .",
    "Address":"108 Westminster Street",
    "City":"East Victoria Park",
    "Region":"WA",
    "PostalCode":"6101",
    "FullAddress":"108 Westminster Street, East Victoria Park, WA, 6101, Australia",
    "Longitude":115.89934,
    "Latitude":-31.9916
  },
  {
    "SiteID":57875,
    "TenantName":"Cooney, Nicholas",
    "Address":"1 Clarice Court",
    "City":"Langford",
    "Region":"WA",
    "PostalCode":"6147",
    "FullAddress":"1 Clarice Court, Langford, WA, 6147, Australia",
    "Longitude":115.948559,
    "Latitude":-32.036171
  },
  {
    "SiteID":57875,
    "TenantName":"Bridger, Corrina",
    "Address":"6\/6 Mt Henry Road",
    "City":"COMO",
    "Region":"WA",
    "PostalCode":"6152",
    "FullAddress":"6\/6 Mt Henry Road, COMO, WA, 6152, Australia",
    "Longitude":115.86264,
    "Latitude":-32.01607
  },
  {
    "SiteID":57875,
    "TenantName":"Wajih, El Baarini",
    "Address":"31 Mossfiel Drive",
    "City":"Hoppers Crossing",
    "Region":"VIC",
    "PostalCode":"3029",
    "FullAddress":"31 Mossfiel Drive, Hoppers Crossing, VIC, 3029, Australia",
    "Longitude":144.694097,
    "Latitude":-37.875399
  },
  {
    "SiteID":57875,
    "TenantName":"Kairi, Paul",
    "Address":"Unit 11, 22 Forrest Street",
    "City":"Mount Lawley",
    "Region":"WA",
    "PostalCode":"6050",
    "FullAddress":"Unit 11, 22 Forrest Street, Mount Lawley, WA, 6050, Australia",
    "Longitude":115.866883,
    "Latitude":-31.931969
  },
  {
    "SiteID":57875,
    "TenantName":"Singh, Mangat",
    "Address":"107 Centre Street",
    "City":"Queens Park",
    "Region":"WA",
    "PostalCode":"6107",
    "FullAddress":"107 Centre Street, Queens Park, WA, 6107, Australia",
    "Longitude":115.943365,
    "Latitude":-32.005334
  },
  {
    "SiteID":57875,
    "TenantName":"Karim Abed Ali Kadhim, Fahad",
    "Address":"23 Enderby Ct",
    "City":"Ballajura",
    "Region":"WA",
    "PostalCode":"6066",
    "FullAddress":"23 Enderby Ct, Ballajura, WA, 6066, Australia",
    "Longitude":115.90994,
    "Latitude":-31.84172
  },
  {
    "SiteID":57875,
    "TenantName":"Currie, Cameron",
    "Address":"2 Lake View St",
    "City":"East Victoria Park",
    "Region":"wa",
    "PostalCode":"6101",
    "FullAddress":"2 Lake View St, East Victoria Park, wa, 6101, Australia",
    "Longitude":115.907165,
    "Latitude":-31.98342
  },
  {
    "SiteID":57875,
    "TenantName":"Field, Liam",
    "Address":"PO Box 161",
    "City":"West Perth",
    "Region":"WA",
    "PostalCode":"6872",
    "FullAddress":"PO Box 161, West Perth, WA, 6872, Australia",
    "Longitude":115.83996,
    "Latitude":-31.948004
  },
  {
    "SiteID":57875,
    "TenantName":"Noble, Calum F",
    "Address":"6A Upton Street",
    "City":"St James",
    "Region":"WA",
    "PostalCode":"6102",
    "FullAddress":"6A Upton Street, St James, WA, 6102, Australia",
    "Longitude":115.907946,
    "Latitude":-31.996874
  },
  {
    "SiteID":57875,
    "TenantName":"Donohoe, Nathan",
    "Address":"101 Murray street",
    "City":"Perth",
    "Region":"Wa",
    "PostalCode":"6000",
    "FullAddress":"101 Murray street, Perth, Wa, 6000, Australia",
    "Longitude":115.862006,
    "Latitude":-31.954167
  },
  {
    "SiteID":57875,
    "TenantName":"Thurston, Laura",
    "Address":"14 State Street",
    "City":"Victoria Park",
    "Region":"WA",
    "PostalCode":"6100",
    "FullAddress":"14 State Street, Victoria Park, WA, 6100, Australia",
    "Longitude":115.89891,
    "Latitude":-31.98062
  },
  {
    "SiteID":57875,
    "TenantName":"Tantengco, Donn",
    "Address":"13 Lunar Way",
    "City":"Beckenham",
    "Region":"WA",
    "PostalCode":"6107",
    "FullAddress":"13 Lunar Way, Beckenham, WA, 6107, Australia",
    "Longitude":115.96771,
    "Latitude":-32.01439
  },
  {
    "SiteID":57875,
    "TenantName":"Soh, Peng Jeng",
    "Address":"86B Tudor Ave",
    "City":"Riverton",
    "Region":"WA",
    "PostalCode":"6148",
    "FullAddress":"86B Tudor Ave, Riverton, WA, 6148, Australia",
    "Longitude":115.895143,
    "Latitude":-32.032363
  },
  {
    "SiteID":57875,
    "TenantName":"Parker, Larry J",
    "Address":"20 Yarrimup Cl",
    "City":"Duncraid",
    "Region":"WA",
    "PostalCode":"6023",
    "FullAddress":"20 Yarrimup Cl, Duncraid, WA, 6023, Australia",
    "Longitude":115.76835,
    "Latitude":-31.84052
  },
  {
    "SiteID":57875,
    "TenantName":"Nair, Vinod",
    "Address":"133\/138 Barrack Street",
    "City":"Perth",
    "Region":"WA",
    "PostalCode":"6000",
    "FullAddress":"133\/138 Barrack Street, Perth, WA, 6000, Australia",
    "Longitude":115.861456,
    "Latitude":-31.952886
  },
  {
    "SiteID":57875,
    "TenantName":"Mohamad Kahiri, Imran",
    "Address":"28\/148 Whalf",
    "City":"Cannington",
    "Region":"WA",
    "PostalCode":"6107",
    "FullAddress":"28\/148 Whalf, Cannington, WA, 6107, Australia",
    "Longitude":115.936288,
    "Latitude":-32.012551
  },
  {
    "SiteID":57875,
    "TenantName":"Lum, Terry",
    "Address":"96 Waterford Avenue",
    "City":"Waterford",
    "Region":"WA",
    "PostalCode":"6152",
    "FullAddress":"96 Waterford Avenue, Waterford, WA, 6152, Australia",
    "Longitude":115.8886,
    "Latitude":-32.01414
  },
  {
    "SiteID":57875,
    "TenantName":"Lloyd, Samuel (Sam) A",
    "Address":"24 Dongara Cir",
    "City":"Jane Brook",
    "Region":"WA",
    "PostalCode":"6056",
    "FullAddress":"24 Dongara Cir, Jane Brook, WA, 6056, Australia",
    "Longitude":116.05514,
    "Latitude":-31.87141
  },
  {
    "SiteID":57875,
    "TenantName":"Jones, Paul",
    "Address":"53 Bessell Ave",
    "City":"Como",
    "Region":"WA",
    "PostalCode":"6152",
    "FullAddress":"53 Bessell Ave, Como, WA, 6152, Australia",
    "Longitude":115.87394,
    "Latitude":-31.99328
  },
  {
    "SiteID":57875,
    "TenantName":"Dearham, Brent",
    "Address":"84B Murdoch Road",
    "City":"Thornlie",
    "Region":"WA",
    "PostalCode":"6108",
    "FullAddress":"84B Murdoch Road, Thornlie, WA, 6108, Australia",
    "Longitude":115.94875,
    "Latitude":-32.06566
  },
  {
    "SiteID":57875,
    "TenantName":"Barnett, Christopher J",
    "Address":"189 Burracoppin Siding Rd",
    "City":"Burracoppin",
    "Region":"WA",
    "PostalCode":"6421",
    "FullAddress":"189 Burracoppin Siding Rd, Burracoppin, WA, 6421, Australia",
    "Longitude":118.493353,
    "Latitude":-31.372925
  },
  {
    "SiteID":57875,
    "TenantName":"Bamma, Aniketh",
    "Address":"2 Petrin Road",
    "City":"Landsdale",
    "Region":"WA",
    "PostalCode":"6065",
    "FullAddress":"2 Petrin Road, Landsdale, WA, 6065, Australia",
    "Longitude":115.859289,
    "Latitude":-31.815117
  },
  {
    "SiteID":57875,
    "TenantName":"Anderson, Dave",
    "Address":"28 Koolama Drive",
    "City":"Cable Beach",
    "Region":"WA",
    "PostalCode":"6726",
    "FullAddress":"28 Koolama Drive, Cable Beach, WA, 6726, Australia",
    "Longitude":122.21567,
    "Latitude":-17.9343
  },
  {
    "SiteID":57875,
    "TenantName":"Wong, Pak Shing (Calvin)",
    "Address":"8\/24 Gochean Ave",
    "City":"Bentley",
    "Region":"WA",
    "PostalCode":"6102",
    "FullAddress":"8\/24 Gochean Ave, Bentley, WA, 6102, Australia",
    "Longitude":115.92402,
    "Latitude":-32.00934
  },
  {
    "SiteID":57875,
    "TenantName":"Bana, John (Jack)",
    "Address":"6B Bathurst St",
    "City":"Dianella",
    "Region":"WA",
    "PostalCode":"6059",
    "FullAddress":"6B Bathurst St, Dianella, WA, 6059, Australia",
    "Longitude":115.868999,
    "Latitude":-31.90355
  },
  {
    "SiteID":57875,
    "TenantName":"Bettesworth, Dennis",
    "Address":"2 Coolabah Dr",
    "City":"Mount Nasura",
    "Region":"WA",
    "PostalCode":"6112",
    "FullAddress":"2 Coolabah Dr, Mount Nasura, WA, 6112, Australia",
    "Longitude":116.025432,
    "Latitude":-32.143505
  },
  {
    "SiteID":57875,
    "TenantName":"Priemus, Jessica",
    "Address":"36\/6 Manning Tce, South Perth WA 6151",
    "City":"South Perth",
    "Region":"WA",
    "PostalCode":"6151",
    "FullAddress":"36\/6 Manning Tce, South Perth WA 6151, South Perth, WA, 6151, Australia",
    "Longitude":115.874318,
    "Latitude":-31.97346
  },
  {
    "SiteID":57875,
    "TenantName":"James, Chong C",
    "Address":"190 President Street",
    "City":"Kewdale",
    "Region":"WA",
    "PostalCode":"6105",
    "FullAddress":"190 President Street, Kewdale, WA, 6105, Australia",
    "Longitude":115.93746,
    "Latitude":-31.97807
  },
  {
    "SiteID":57875,
    "TenantName":"Gillon-Grey, Sharon",
    "Address":"18 Canning Highway",
    "City":"South Perth",
    "Region":"WA",
    "PostalCode":"6151",
    "FullAddress":"18 Canning Highway, South Perth, WA, 6151, Australia",
    "Longitude":115.88188,
    "Latitude":-31.97568
  },
  {
    "SiteID":57875,
    "TenantName":"Webster, Rebecca J",
    "Address":"16 Vaux Street",
    "City":"Rockingham",
    "Region":"WA",
    "PostalCode":"6168",
    "FullAddress":"16 Vaux Street, Rockingham, WA, 6168, Australia",
    "Longitude":115.711908,
    "Latitude":-32.280724
  },
  {
    "SiteID":57875,
    "TenantName":"Whitbread, Kerry",
    "Address":"Unit 114\/79 Gerard Street",
    "City":"East Cannington",
    "Region":"WA",
    "PostalCode":"6107",
    "FullAddress":"Unit 114\/79 Gerard Street, East Cannington, WA, 6107, Australia",
    "Longitude":115.955676,
    "Latitude":-32.008746
  },
  {
    "SiteID":57875,
    "TenantName":"Shuxia, Cherie",
    "Address":"5\/29 alston ave",
    "City":"Como",
    "Region":"wa",
    "PostalCode":"6152",
    "FullAddress":"5\/29 alston ave, Como, wa, 6152, Australia",
    "Longitude":115.86347,
    "Latitude":-31.998419
  },
  {
    "SiteID":57875,
    "TenantName":"Sandhu, Arashdeep S",
    "Address":"7 Thistle Way,",
    "City":"East Canington",
    "Region":"WA",
    "PostalCode":"6107",
    "FullAddress":"7 Thistle Way,, East Canington, WA, 6107, Australia",
    "Longitude":115.954775,
    "Latitude":-32.011505
  },
  {
    "SiteID":57875,
    "TenantName":"Lo, Chi Ching",
    "Address":"Uni1, 32 Temby Street",
    "City":"Beckenham",
    "Region":"WA",
    "PostalCode":"6107",
    "FullAddress":"Uni1, 32 Temby Street, Beckenham, WA, 6107, Australia",
    "Longitude":115.95901,
    "Latitude":-32.01734
  },
  {
    "SiteID":57875,
    "TenantName":"Li, Yuanwei",
    "Address":"22A Thomas St",
    "City":"Queens Park",
    "Region":"WA",
    "PostalCode":"6107",
    "FullAddress":"22A Thomas St, Queens Park, WA, 6107, Australia",
    "Longitude":115.947724,
    "Latitude":-32.010023
  },
  {
    "SiteID":57875,
    "TenantName":"Jenkins, Mareka E",
    "Address":"81 Devenish Street",
    "City":"East Victoria Park",
    "Region":"WA",
    "PostalCode":"6101",
    "FullAddress":"81 Devenish Street, East Victoria Park, WA, 6101, Australia",
    "Longitude":115.89955,
    "Latitude":-31.99345
  },
  {
    "SiteID":57875,
    "TenantName":"Darwell, Stephen",
    "Address":"3\/2807 Caves Road",
    "City":"Yallingup",
    "Region":"WA",
    "PostalCode":"6282",
    "FullAddress":"3\/2807 Caves Road, Yallingup, WA, 6282, Australia",
    "Longitude":115.031538,
    "Latitude":-33.688127
  },
  {
    "SiteID":57875,
    "TenantName":"Cianciosi, Donna",
    "Address":"279 George Street",
    "City":"Queens Park",
    "Region":"WA",
    "PostalCode":"6107",
    "FullAddress":"279 George Street, Queens Park, WA, 6107, Australia",
    "Longitude":115.950215,
    "Latitude":-31.999177
  },
  {
    "SiteID":57875,
    "TenantName":"Italiano, Troy",
    "Address":"56 Marjorie Avenue",
    "City":"Riverton",
    "Region":"WA",
    "PostalCode":"6148",
    "FullAddress":"56 Marjorie Avenue, Riverton, WA, 6148, Australia",
    "Longitude":115.898273,
    "Latitude":-32.030272
  },
  {
    "SiteID":57875,
    "TenantName":"Nutt, Janelle R",
    "Address":"20 Berrima St",
    "City":"Catalina",
    "Region":"NSW",
    "PostalCode":"2536",
    "FullAddress":"20 Berrima St, Catalina, NSW, 2536, Australia",
    "Longitude":150.188968,
    "Latitude":-35.730706
  },
  {
    "SiteID":57875,
    "TenantName":"Pratt, Nerelle",
    "Address":"2\/90  Toorak Rd",
    "City":"Rivervale",
    "Region":"WA",
    "PostalCode":"6103",
    "FullAddress":"2\/90  Toorak Rd, Rivervale, WA, 6103, Australia",
    "Longitude":115.9169,
    "Latitude":-31.96079
  },
  {
    "SiteID":57875,
    "TenantName":"Parizel, Paul",
    "Address":"1907\/237 Adelaide Terrace",
    "City":"Perth",
    "Region":"WA",
    "PostalCode":"6000",
    "FullAddress":"1907\/237 Adelaide Terrace, Perth, WA, 6000, Australia",
    "Longitude":115.866592,
    "Latitude":-31.958681
  },
  {
    "SiteID":57875,
    "TenantName":"Newton, Jason",
    "Address":"Unit 6 285-287 Wharf Street",
    "City":"Queens Park",
    "Region":"WA",
    "PostalCode":"6107",
    "FullAddress":"Unit 6 285-287 Wharf Street, Queens Park, WA, 6107, Australia",
    "Longitude":115.94881,
    "Latitude":-32.00359
  },
  {
    "SiteID":57875,
    "TenantName":"Kang, Jin Mook",
    "Address":"215\/30 Hood Street",
    "City":"Subiaco",
    "Region":"WA",
    "PostalCode":"6008",
    "FullAddress":"215\/30 Hood Street, Subiaco, WA, 6008, Australia",
    "Longitude":115.821341,
    "Latitude":-31.944178
  },
  {
    "SiteID":57875,
    "TenantName":"Brown, Trevor M",
    "Address":"25 A Mustang Rd",
    "City":"Jandakot",
    "Region":"WA",
    "PostalCode":"6164",
    "FullAddress":"25 A Mustang Rd, Jandakot, WA, 6164, Australia",
    "Longitude":115.884598,
    "Latitude":-32.084605
  },
  {
    "SiteID":57875,
    "TenantName":"Barrett, Sue",
    "Address":"Unit 1 \/ 38 Lockhart Street",
    "City":"Como",
    "Region":"WA",
    "PostalCode":"6152",
    "FullAddress":"Unit 1 \/ 38 Lockhart Street, Como, WA, 6152, Australia",
    "Longitude":115.85965,
    "Latitude":-32.000084
  },
  {
    "SiteID":57875,
    "TenantName":"Jones, Jean",
    "Address":"15 Brookery Heights",
    "City":"Leda",
    "Region":"WA",
    "PostalCode":"6170",
    "FullAddress":"15 Brookery Heights, Leda, WA, 6170, Australia",
    "Longitude":115.80734,
    "Latitude":-32.26635
  },
  {
    "SiteID":57875,
    "TenantName":"Paraki, Maria",
    "Address":"125 -129 Duncan Road",
    "City":"Jimboomba",
    "Region":"QLD",
    "PostalCode":"4280",
    "FullAddress":"125 -129 Duncan Road, Jimboomba, QLD, 4280, Australia",
    "Longitude":152.994754,
    "Latitude":-27.807344
  },
  {
    "SiteID":57875,
    "TenantName":"Corby, Glyn",
    "Address":"6 Proton Place",
    "City":"Jurien Bay",
    "Region":"WA",
    "PostalCode":"6516",
    "FullAddress":"6 Proton Place, Jurien Bay, WA, 6516, Australia",
    "Longitude":115.04641,
    "Latitude":-30.29601
  },
  {
    "SiteID":57875,
    "TenantName":"Coutts, Benjamin",
    "Address":"29 Jack Ladd St",
    "City":"Coffs Harbour",
    "Region":"NSW",
    "PostalCode":"2450",
    "FullAddress":"29 Jack Ladd St, Coffs Harbour, NSW, 2450, Australia",
    "Longitude":153.108225,
    "Latitude":-30.286589
  },
  {
    "SiteID":57875,
    "TenantName":"Barry, Sean",
    "Address":"Unit 5, 47 Flynn St",
    "City":"Wembley",
    "Region":"WA",
    "PostalCode":"6014",
    "FullAddress":"Unit 5, 47 Flynn St, Wembley, WA, 6014, Australia",
    "Longitude":115.805557,
    "Latitude":-31.93189
  },
  {
    "SiteID":57875,
    "TenantName":"Te Rito, Aidan",
    "Address":"6 Nigella Street",
    "City":"Dayton",
    "Region":"WA",
    "PostalCode":"6055",
    "FullAddress":"6 Nigella Street, Dayton, WA, 6055, Australia",
    "Longitude":115.977312,
    "Latitude":-31.858089
  },
  {
    "SiteID":57875,
    "TenantName":"Simeon, Karen M",
    "Address":"118A Sussex st",
    "City":"East Victoria Park",
    "Region":"WA",
    "PostalCode":"6101",
    "FullAddress":"118A Sussex st, East Victoria Park, WA, 6101, Australia",
    "Longitude":115.89451,
    "Latitude":-31.9897
  },
  {
    "SiteID":57875,
    "TenantName":"Shapcott-James, Jaidan",
    "Address":"35 Telopea Lane",
    "City":"Wembley",
    "Region":"WA",
    "PostalCode":"6014",
    "FullAddress":"35 Telopea Lane, Wembley, WA, 6014, Australia",
    "Longitude":115.812166,
    "Latitude":-31.928812
  },
  {
    "SiteID":57875,
    "TenantName":"Lim, Hui Shan",
    "Address":"76 Leonard St",
    "City":"Victoria Park",
    "Region":"WA",
    "PostalCode":"6100",
    "FullAddress":"76 Leonard St, Victoria Park, WA, 6100, Australia",
    "Longitude":115.890903,
    "Latitude":-31.979699
  },
  {
    "SiteID":57875,
    "TenantName":"Lau, Andrew",
    "Address":"11 Dacelo Vista",
    "City":"Waterford",
    "Region":"WA",
    "PostalCode":"6152",
    "FullAddress":"11 Dacelo Vista, Waterford, WA, 6152, Australia",
    "Longitude":115.895105,
    "Latitude":-32.014522
  },
  {
    "SiteID":57875,
    "TenantName":"Harris, Kristina",
    "Address":"53 Bayport Circuit",
    "City":"Mandarie",
    "Region":"WA",
    "PostalCode":"6030",
    "FullAddress":"53 Bayport Circuit, Mandarie, WA, 6030, Australia",
    "Longitude":115.70737,
    "Latitude":-31.69407
  },
  {
    "SiteID":57875,
    "TenantName":"Chuantantip, Sakchai (Ollie)",
    "Address":"69 Kawana Avenue",
    "City":"Maddington",
    "Region":"WA",
    "PostalCode":"6102",
    "FullAddress":"69 Kawana Avenue, Maddington, WA, 6102, Australia",
    "Longitude":115.976627,
    "Latitude":-32.055115
  },
  {
    "SiteID":57875,
    "TenantName":"Burke, Sarah",
    "Address":"57B First Ave",
    "City":"Claremont",
    "Region":"WA",
    "PostalCode":"6010",
    "FullAddress":"57B First Ave, Claremont, WA, 6010, Australia",
    "Longitude":115.785481,
    "Latitude":-31.969379
  },
  {
    "SiteID":57875,
    "TenantName":"Barros De Castro Giacoia, Camila",
    "Address":"Suite 224, shop 1 23-27 Scarborough Beac",
    "City":"Scarborough",
    "Region":"WA",
    "PostalCode":"6019",
    "FullAddress":"Suite 224, shop 1 23-27 Scarborough Beac, Scarborough, WA, 6019, Australia",
    "Longitude":115.75917,
    "Latitude":-31.89482
  },
  {
    "SiteID":57875,
    "TenantName":"Vilasboas, Melissa",
    "Address":"326 Madigan Road",
    "City":"Stovehill",
    "Region":"WA",
    "PostalCode":"6714",
    "FullAddress":"326 Madigan Road, Stovehill, WA, 6714, Australia",
    "Longitude":116.776923,
    "Latitude":-20.791712
  },
  {
    "SiteID":57875,
    "TenantName":"Verbeke, Gregory",
    "Address":"Unit 1\/68 Edgecumber St",
    "City":"Como",
    "Region":"WA",
    "PostalCode":"6152",
    "FullAddress":"Unit 1\/68 Edgecumber St, Como, WA, 6152, Australia",
    "Longitude":115.86086,
    "Latitude":-32.01253
  },
  {
    "SiteID":57875,
    "TenantName":"Shingirayi, Nhatarikwa",
    "Address":"12 Colbert Court",
    "City":"South Victoria",
    "Region":"VIC",
    "PostalCode":"3199",
    "FullAddress":"12 Colbert Court, South Victoria, VIC, 3199, Australia",
    "Longitude":145.155435,
    "Latitude":-38.184522
  },
  {
    "SiteID":57875,
    "TenantName":"Rohan, Stephen J",
    "Address":"7 Barang  CCT",
    "City":"Karawarra",
    "Region":"WA",
    "PostalCode":"6152",
    "FullAddress":"7 Barang  CCT, Karawarra, WA, 6152, Australia",
    "Longitude":115.88459,
    "Latitude":-32.00821
  },
  {
    "SiteID":57875,
    "TenantName":"Nye, Amy",
    "Address":"7 Fridayhill drive",
    "City":"Southern River",
    "Region":"WA",
    "PostalCode":"6110",
    "FullAddress":"7 Fridayhill drive, Southern River, WA, 6110, Australia",
    "Longitude":115.951957,
    "Latitude":-32.105493
  },
  {
    "SiteID":57875,
    "TenantName":"Heasman, Timothy J",
    "Address":"Unit 607 \/53 Labouchere Road",
    "City":"South Perth",
    "Region":"WA",
    "PostalCode":"6151",
    "FullAddress":"Unit 607 \/53 Labouchere Road, South Perth, WA, 6151, Australia",
    "Longitude":115.851851,
    "Latitude":-31.976549
  },
  {
    "SiteID":57875,
    "TenantName":"Hamilton, Mark I",
    "Address":"4 Simons Dr",
    "City":"Roleystone",
    "Region":"WA",
    "PostalCode":"6111",
    "FullAddress":"4 Simons Dr, Roleystone, WA, 6111, Australia",
    "Longitude":116.089494,
    "Latitude":-32.110266
  },
  {
    "SiteID":57875,
    "TenantName":"Crass, Carol",
    "Address":"Unit 4\/32 Simpson Street",
    "City":"Applecross",
    "Region":"WA",
    "PostalCode":"6153",
    "FullAddress":"Unit 4\/32 Simpson Street, Applecross, WA, 6153, Australia",
    "Longitude":115.835508,
    "Latitude":-32.017755
  },
  {
    "SiteID":57875,
    "TenantName":"Chandra, Suvajit",
    "Address":"9  LORD  STREET",
    "City":"BENTLEY",
    "Region":"WA",
    "PostalCode":"6102",
    "FullAddress":"9  LORD  STREET, BENTLEY, WA, 6102, Australia",
    "Longitude":115.905432,
    "Latitude":-32.008536
  },
  {
    "SiteID":57875,
    "TenantName":"Room, Meeting",
    "Address":".",
    "City":".",
    "Region":".",
    "PostalCode":".",
    "FullAddress":"., ., ., ., Australia",
    "Longitude":134.489563,
    "Latitude":-25.734968
  },
  {
    "SiteID":57875,
    "TenantName":"Khelifi, Yahya",
    "Address":"Unit 1\/55 Thomas rd",
    "City":"East Cannington",
    "Region":"WA",
    "PostalCode":"6107",
    "FullAddress":"Unit 1\/55 Thomas rd, East Cannington, WA, 6107, Australia",
    "Longitude":118.594513,
    "Latitude":-33.662124
  },
  {
    "SiteID":57875,
    "TenantName":"Kempthorne, Mark",
    "Address":"1 Cobbler Road",
    "City":"BUSSELTON",
    "Region":"WA",
    "PostalCode":".6280",
    "FullAddress":"1 Cobbler Road, BUSSELTON, WA, .6280, Australia",
    "Longitude":115.274232,
    "Latitude":-33.662887
  },
  {
    "SiteID":57875,
    "TenantName":"Xia, Ning (Angela)",
    "Address":"6 Aylesbury Close",
    "City":"Jandakot",
    "Region":"WA",
    "PostalCode":"6164",
    "FullAddress":"6 Aylesbury Close, Jandakot, WA, 6164, Australia",
    "Longitude":115.85307,
    "Latitude":-32.10557
  },
  {
    "SiteID":57875,
    "TenantName":"Wills, Andrew",
    "Address":"1\/192 Claisebrook Road",
    "City":"Perth",
    "Region":"WA",
    "PostalCode":"6000",
    "FullAddress":"1\/192 Claisebrook Road, Perth, WA, 6000, Australia",
    "Longitude":115.873722,
    "Latitude":-31.945355
  },
  {
    "SiteID":57875,
    "TenantName":"Potter, Andrew",
    "Address":"23 Ryan Street",
    "City":"Lilyfield",
    "Region":"NSW",
    "PostalCode":"2040",
    "FullAddress":"23 Ryan Street, Lilyfield, NSW, 2040, Australia",
    "Longitude":151.166637,
    "Latitude":-33.870142
  },
  {
    "SiteID":57875,
    "TenantName":"Daniels, Ghielmie",
    "Address":"224 Treasure Rd",
    "City":"Queens Park",
    "Region":"WA",
    "PostalCode":"6107",
    "FullAddress":"224 Treasure Rd, Queens Park, WA, 6107, Australia",
    "Longitude":115.945556,
    "Latitude":-31.997574
  },
  {
    "SiteID":57875,
    "TenantName":"Chawdhary, Razwan A",
    "Address":"35 Garganey",
    "City":"Southern River",
    "Region":"WA",
    "PostalCode":"6105",
    "FullAddress":"35 Garganey, Southern River, WA, 6105, Australia",
    "Longitude":115.95903,
    "Latitude":-32.10491
  },
  {
    "SiteID":57875,
    "TenantName":"Rice, Danielle D",
    "Address":"75B Corbel Street",
    "City":"Shelley",
    "Region":"WA",
    "PostalCode":"6148",
    "FullAddress":"75B Corbel Street, Shelley, WA, 6148, Australia",
    "Longitude":115.893903,
    "Latitude":-32.026868
  },
  {
    "SiteID":57875,
    "TenantName":"Bourke, Matt",
    "Address":"178 James Street",
    "City":"Northbridge",
    "Region":"WA",
    "PostalCode":"6003",
    "FullAddress":"178 James Street, Northbridge, WA, 6003, Australia",
    "Longitude":115.855913,
    "Latitude":-31.947245
  },
  {
    "SiteID":57875,
    "TenantName":"Zaoui, Ines",
    "Address":"3 A Raleigh Road",
    "City":"Bayswayer",
    "Region":"WA",
    "PostalCode":"6053",
    "FullAddress":"3 A Raleigh Road, Bayswayer, WA, 6053, Australia",
    "Longitude":115.91472,
    "Latitude":-31.91512
  },
  {
    "SiteID":57875,
    "TenantName":"Speakman, Kate",
    "Address":"Level 25 2 Southbank Boulevard",
    "City":"Southbank",
    "Region":"VIC",
    "PostalCode":"3006",
    "FullAddress":"Level 25 2 Southbank Boulevard, Southbank, VIC, 3006, Australia",
    "Longitude":144.962474,
    "Latitude":-37.821528
  },
  {
    "SiteID":57875,
    "TenantName":"Sanfilippo, Amee",
    "Address":"203\/2a Nelson St,",
    "City":"St Kilda East",
    "Region":"Victoria",
    "PostalCode":"3183",
    "FullAddress":"203\/2a Nelson St,, St Kilda East, Victoria, 3183, Australia",
    "Longitude":144.994,
    "Latitude":-37.86588
  },
  {
    "SiteID":57875,
    "TenantName":"OBrien, Douglas",
    "Address":"PO Box 499",
    "City":"Paddington",
    "Region":"NSW",
    "PostalCode":"2021",
    "FullAddress":"PO Box 499, Paddington, NSW, 2021, Australia",
    "Longitude":151.233053,
    "Latitude":-33.88581
  },
  {
    "SiteID":57875,
    "TenantName":"Noonan-Crowe, Laura",
    "Address":"16 McMillan Street",
    "City":"Victoria Park",
    "Region":"WA",
    "PostalCode":"6100",
    "FullAddress":"16 McMillan Street, Victoria Park, WA, 6100, Australia",
    "Longitude":115.896724,
    "Latitude":-31.976324
  },
  {
    "SiteID":57875,
    "TenantName":"Kim, Sungkyung (Jimmy)",
    "Address":"16 Mirreen Court",
    "City":"Karawarra",
    "Region":"WA",
    "PostalCode":"6152",
    "FullAddress":"16 Mirreen Court, Karawarra, WA, 6152, Australia",
    "Longitude":115.882954,
    "Latitude":-32.010536
  },
  {
    "SiteID":57875,
    "TenantName":"Harward, Timothy",
    "Address":"7 Coogee Terrace",
    "City":"Blacks Beach",
    "Region":"WA",
    "PostalCode":"4740",
    "FullAddress":"7 Coogee Terrace, Blacks Beach, WA, 4740, Australia",
    "Longitude":149.186424,
    "Latitude":-21.061787
  },
  {
    "SiteID":57875,
    "TenantName":"Arrowsmith, Jeffrey",
    "Address":"34 Lynmouth Road",
    "City":"Dianella",
    "Region":"WA",
    "PostalCode":"6059",
    "FullAddress":"34 Lynmouth Road, Dianella, WA, 6059, Australia",
    "Longitude":115.86739,
    "Latitude":-31.89182
  },
  {
    "SiteID":57875,
    "TenantName":"Abrha, Kiros S",
    "Address":"29 Wannell Street",
    "City":"Queen Park",
    "Region":"WA",
    "PostalCode":"6107",
    "FullAddress":"29 Wannell Street, Queen Park, WA, 6107, Australia",
    "Longitude":115.952615,
    "Latitude":-32.001868
  },
  {
    "SiteID":57875,
    "TenantName":"Kingi-Anderson, Josiah",
    "Address":"29 Malabar Street",
    "City":"Byford",
    "Region":"WA",
    "PostalCode":"6112",
    "FullAddress":"29 Malabar Street, Byford, WA, 6112, Australia",
    "Longitude":115.988981,
    "Latitude":-32.211129
  },
  {
    "SiteID":57875,
    "TenantName":"Piper, Diane",
    "Address":"73 Gresham St",
    "City":"Victoria Park",
    "Region":"WA",
    "PostalCode":"6100",
    "FullAddress":"73 Gresham St, Victoria Park, WA, 6100, Australia",
    "Longitude":115.90449,
    "Latitude":-31.9746
  },
  {
    "SiteID":57875,
    "TenantName":"Kerr, Collin",
    "Address":"62 Carlisle Street",
    "City":"Carlisle",
    "Region":"WA",
    "PostalCode":"6101",
    "FullAddress":"62 Carlisle Street, Carlisle, WA, 6101, Australia",
    "Longitude":115.706949,
    "Latitude":-32.300665
  },
  {
    "SiteID":57875,
    "TenantName":"Hashman, Sarah",
    "Address":"216 Hamilton Street",
    "City":"Queens Park",
    "Region":"WA",
    "PostalCode":"6107",
    "FullAddress":"216 Hamilton Street, Queens Park, WA, 6107, Australia",
    "Longitude":115.943133,
    "Latitude":-31.99677
  },
  {
    "SiteID":57875,
    "TenantName":"Buccheri, Santo",
    "Address":"70 Fallon Street",
    "City":"Brunswick",
    "Region":"Vic",
    "PostalCode":"3056",
    "FullAddress":"70 Fallon Street, Brunswick, Vic, 3056, Australia",
    "Longitude":144.955759,
    "Latitude":-37.768622
  },
  {
    "SiteID":57875,
    "TenantName":"Williamson, Shaun",
    "Address":"10\/20 Duerdin Street",
    "City":"Clayton",
    "Region":"VIC",
    "PostalCode":"3168",
    "FullAddress":"10\/20 Duerdin Street, Clayton, VIC, 3168, Australia",
    "Longitude":145.141527,
    "Latitude":-37.910542
  },
  {
    "SiteID":57875,
    "TenantName":"Wotton, Suzanne",
    "Address":"19 Zamia Rise",
    "City":"Yanchep",
    "Region":"WA",
    "PostalCode":"6035",
    "FullAddress":"19 Zamia Rise, Yanchep, WA, 6035, Australia",
    "Longitude":115.629767,
    "Latitude":-31.5376
  },
  {
    "SiteID":57875,
    "TenantName":"Akbar, Muhammad",
    "Address":"12 Bertram Street",
    "City":"Maddington",
    "Region":"WA",
    "PostalCode":"6109",
    "FullAddress":"12 Bertram Street, Maddington, WA, 6109, Australia",
    "Longitude":116.001571,
    "Latitude":-32.057624
  },
  {
    "SiteID":57875,
    "TenantName":"Dev, Sat",
    "Address":"35 Aquila Cres",
    "City":"Bennett Springs",
    "Region":"WA",
    "PostalCode":"6063",
    "FullAddress":"35 Aquila Cres, Bennett Springs, WA, 6063, Australia",
    "Longitude":115.964983,
    "Latitude":-31.859299
  },
  {
    "SiteID":57875,
    "TenantName":"Phaure, Peter",
    "Address":"5 Shrike Gardens",
    "City":"Perth",
    "Region":"WA",
    "PostalCode":"6066",
    "FullAddress":"5 Shrike Gardens, Perth, WA, 6066, Australia",
    "Longitude":115.90074,
    "Latitude":-31.83665
  },
  {
    "SiteID":57875,
    "TenantName":"Hannan, Michael",
    "Address":"3 Banskia Street",
    "City":"Blackburn",
    "Region":"VIC",
    "PostalCode":"3130",
    "FullAddress":"3 Banskia Street, Blackburn, VIC, 3130, Australia",
    "Longitude":145.142488,
    "Latitude":-37.828521
  },
  {
    "SiteID":57875,
    "TenantName":"Holota, Tetyana",
    "Address":"4 Bernis rise",
    "City":"North Coogee",
    "Region":"WA",
    "PostalCode":"6164",
    "FullAddress":"4 Bernis rise, North Coogee, WA, 6164, Australia",
    "Longitude":115.8458,
    "Latitude":-33.132515
  },
  {
    "SiteID":57875,
    "TenantName":"Xie, Yuling",
    "Address":"Unit 11, 2 Stirling St",
    "City":"South Perth",
    "Region":"WA",
    "PostalCode":"6151",
    "FullAddress":"Unit 11, 2 Stirling St, South Perth, WA, 6151, Australia",
    "Longitude":115.847681,
    "Latitude":-31.968777
  },
  {
    "SiteID":57875,
    "TenantName":"Wong, Dunstan",
    "Address":"3\/7 Stockman Way",
    "City":"Cannington",
    "Region":"wa",
    "PostalCode":"6107",
    "FullAddress":"3\/7 Stockman Way, Cannington, wa, 6107, Australia",
    "Longitude":115.932668,
    "Latitude":-32.008071
  },
  {
    "SiteID":57875,
    "TenantName":"Winduss, Troy J",
    "Address":"P.O.Box 479 .Australind LPO",
    "City":"AUSTRALIND",
    "Region":"WA",
    "PostalCode":"6233",
    "FullAddress":"P.O.Box 479 .Australind LPO, AUSTRALIND, WA, 6233, Australia",
    "Longitude":115.723629,
    "Latitude":-33.235182
  },
  {
    "SiteID":57875,
    "TenantName":"Vigh, Steve",
    "Address":"Curtin University Building 418 L2 Rm 212",
    "City":"Bentley",
    "Region":"WA",
    "PostalCode":"6102",
    "FullAddress":"Curtin University Building 418 L2 Rm 212, Bentley, WA, 6102, Australia",
    "Longitude":115.894488,
    "Latitude":-32.00694
  },
  {
    "SiteID":57875,
    "TenantName":"O\u2019shea, Jacqui",
    "Address":"8\/2 Edward St",
    "City":"East Perth",
    "Region":"WA",
    "PostalCode":"6004",
    "FullAddress":"8\/2 Edward St, East Perth, WA, 6004, Australia",
    "Longitude":115.872914,
    "Latitude":-31.947981
  },
  {
    "SiteID":57875,
    "TenantName":"McTiernan, Kenneth",
    "Address":"39A Wandarrie Ave",
    "City":"Yokine",
    "Region":"WA",
    "PostalCode":"6060",
    "FullAddress":"39A Wandarrie Ave, Yokine, WA, 6060, Australia",
    "Longitude":115.861771,
    "Latitude":-31.902381
  },
  {
    "SiteID":57875,
    "TenantName":"McDonnell, Marilyn",
    "Address":"32\/160 Mill Point Road",
    "City":"South Perth",
    "Region":"WA",
    "PostalCode":"6151",
    "FullAddress":"32\/160 Mill Point Road, South Perth, WA, 6151, Australia",
    "Longitude":115.85703,
    "Latitude":-31.97527
  },
  {
    "SiteID":57875,
    "TenantName":"Baietta, Tiah",
    "Address":"118 Gladstone Road",
    "City":"Rivervale",
    "Region":"WA",
    "PostalCode":"6103",
    "FullAddress":"118 Gladstone Road, Rivervale, WA, 6103, Australia",
    "Longitude":115.91261,
    "Latitude":-31.96543
  },
  {
    "SiteID":57875,
    "TenantName":"Mitchell, Sarah A",
    "Address":"20 Burton Retreat",
    "City":"Stratton",
    "Region":"WA",
    "PostalCode":"6056",
    "FullAddress":"20 Burton Retreat, Stratton, WA, 6056, Australia",
    "Longitude":116.035387,
    "Latitude":-31.871868
  },
  {
    "SiteID":57875,
    "TenantName":"Point, Parcel",
    "Address":"46 Railway Parade",
    "City":"Welshpool",
    "Region":"WA",
    "PostalCode":"6106",
    "FullAddress":"46 Railway Parade, Welshpool, WA, 6106, Australia",
    "Longitude":115.927502,
    "Latitude":-31.996952
  },
  {
    "SiteID":57875,
    "TenantName":"Turner, Jeffrey",
    "Address":"63 Sovereign Dr",
    "City":"Two Rocks",
    "Region":"WA",
    "PostalCode":"6037",
    "FullAddress":"63 Sovereign Dr, Two Rocks, WA, 6037, Australia",
    "Longitude":115.583591,
    "Latitude":-31.490933
  },
  {
    "SiteID":57875,
    "TenantName":"Son, Eunjin",
    "Address":"Accounts Department",
    "City":"Bentley",
    "Region":"WA",
    "PostalCode":"6982",
    "FullAddress":"Accounts Department, Bentley, WA, 6982, Australia",
    "Longitude":115.90586,
    "Latitude":-32.0073
  },
  {
    "SiteID":57875,
    "TenantName":"Stemp, Inez A",
    "Address":"PO Box 780",
    "City":"Newman",
    "Region":"WA",
    "PostalCode":"6753",
    "FullAddress":"PO Box 780, Newman, WA, 6753, Australia",
    "Longitude":152.768993,
    "Latitude":-26.998161
  },
  {
    "SiteID":57875,
    "TenantName":"Lee, Hui Ling Cindy",
    "Address":"31 Leonharte St",
    "City":"Beckenham",
    "Region":"WA",
    "PostalCode":"6107",
    "FullAddress":"31 Leonharte St, Beckenham, WA, 6107, Australia",
    "Longitude":115.968439,
    "Latitude":-32.0074
  },
  {
    "SiteID":57875,
    "TenantName":"Abraham, Anish .",
    "Address":"35 Spring St",
    "City":"Arncliffe",
    "Region":"NSW",
    "PostalCode":"2205",
    "FullAddress":"35 Spring St, Arncliffe, NSW, 2205, Australia",
    "Longitude":151.146167,
    "Latitude":-33.944667
  },
  {
    "SiteID":57875,
    "TenantName":"Reeves, Marlene",
    "Address":"U2 147 St Kilda St",
    "City":"Perth",
    "Region":"WA",
    "PostalCode":"6103",
    "FullAddress":"U2 147 St Kilda St, Perth, WA, 6103, Australia",
    "Longitude":115.92117,
    "Latitude":-31.9619
  },
  {
    "SiteID":57875,
    "TenantName":"Ortiz, Maite",
    "Address":"39 Ranelagh Crescent",
    "City":"South Perth",
    "Region":"WA",
    "PostalCode":"6151",
    "FullAddress":"39 Ranelagh Crescent, South Perth, WA, 6151, Australia",
    "Longitude":115.87253,
    "Latitude":-31.97545
  },
  {
    "SiteID":57875,
    "TenantName":"Martin, Niroshan Chaminda",
    "Address":"62 Riley Road",
    "City":"Riverton",
    "Region":"WA",
    "PostalCode":"6148",
    "FullAddress":"62 Riley Road, Riverton, WA, 6148, Australia",
    "Longitude":115.90375,
    "Latitude":-32.03656
  },
  {
    "SiteID":57875,
    "TenantName":"Joseph, Ian F",
    "Address":"5 Lansing Street",
    "City":"Queens Park",
    "Region":"WA",
    "PostalCode":"6107",
    "FullAddress":"5 Lansing Street, Queens Park, WA, 6107, Australia",
    "Longitude":115.93758,
    "Latitude":-31.99919
  },
  {
    "SiteID":57875,
    "TenantName":"Huang, Kaite",
    "Address":"60 Grose Ave",
    "City":"Cannington",
    "Region":"WA",
    "PostalCode":"6107",
    "FullAddress":"60 Grose Ave, Cannington, WA, 6107, Australia",
    "Longitude":115.942986,
    "Latitude":-32.016079
  },
  {
    "SiteID":57875,
    "TenantName":"Cooper, Lance V",
    "Address":"13 Dryandra Way",
    "City":"Thornlie",
    "Region":"WA",
    "PostalCode":"6108",
    "FullAddress":"13 Dryandra Way, Thornlie, WA, 6108, Australia",
    "Longitude":115.94566,
    "Latitude":-32.06974
  },
  {
    "SiteID":57875,
    "TenantName":"Coniglio, Melinda",
    "Address":"26 Oats St",
    "City":"Kewdale",
    "Region":"WA",
    "PostalCode":"6105",
    "FullAddress":"26 Oats St, Kewdale, WA, 6105, Australia",
    "Longitude":115.9294,
    "Latitude":-31.97674
  },
  {
    "SiteID":57875,
    "TenantName":"Clarke, Norman F",
    "Address":"Unit 2\/168 Melville Parade",
    "City":"Como",
    "Region":"WA",
    "PostalCode":"6152",
    "FullAddress":"Unit 2\/168 Melville Parade, Como, WA, 6152, Australia",
    "Longitude":115.85497,
    "Latitude":-32.00143
  },
  {
    "SiteID":57875,
    "TenantName":"Wilson, Mathew",
    "Address":"29 Oats Street",
    "City":"Victoria Park",
    "Region":"WA",
    "PostalCode":"6101",
    "FullAddress":"29 Oats Street, Victoria Park, WA, 6101, Australia",
    "Longitude":115.913031,
    "Latitude":-31.989968
  },
  {
    "SiteID":57875,
    "TenantName":"Peharda, Veronica",
    "Address":"Level 5, 66 Waterloo Road,",
    "City":"Macquarie Park",
    "Region":"NSW",
    "PostalCode":"2113",
    "FullAddress":"Level 5, 66 Waterloo Road,, Macquarie Park, NSW, 2113, Australia",
    "Longitude":151.123096,
    "Latitude":-33.782056
  },
  {
    "SiteID":57875,
    "TenantName":"Fype, Ernardo",
    "Address":"6 Clandon Way",
    "City":"Morley",
    "Region":"WA",
    "PostalCode":"6062",
    "FullAddress":"6 Clandon Way, Morley, WA, 6062, Australia",
    "Longitude":115.917291,
    "Latitude":-31.888318
  },
  {
    "SiteID":57875,
    "TenantName":"Shiyaz, Mohamed ( Max )",
    "Address":"24 Magenta Vista, Brabham",
    "City":"Brabham",
    "Region":"WA",
    "PostalCode":"6107",
    "FullAddress":"24 Magenta Vista, Brabham, Brabham, WA, 6107, Australia",
    "Longitude":115.976197,
    "Latitude":-31.825086
  },
  {
    "SiteID":57875,
    "TenantName":"Kushwah, Dipendra (David)",
    "Address":"13 Jacksonia Prom",
    "City":"Sucess",
    "Region":"WA",
    "PostalCode":"6164",
    "FullAddress":"13 Jacksonia Prom, Sucess, WA, 6164, Australia",
    "Longitude":115.845087,
    "Latitude":-32.152363
  },
  {
    "SiteID":57875,
    "TenantName":"Smart, Daniel",
    "Address":"U92\/8 Hampton Street",
    "City":"Burswood",
    "Region":"WA",
    "PostalCode":"6100",
    "FullAddress":"U92\/8 Hampton Street, Burswood, WA, 6100, Australia",
    "Longitude":115.898622,
    "Latitude":-31.969559
  },
  {
    "SiteID":57875,
    "TenantName":"Wittwer, Fraser L",
    "Address":"35A Camberwell St",
    "City":"East Victoria Park",
    "Region":"WA",
    "PostalCode":"6101",
    "FullAddress":"35A Camberwell St, East Victoria Park, WA, 6101, Australia",
    "Longitude":115.904025,
    "Latitude":-31.99155
  },
  {
    "SiteID":57875,
    "TenantName":"Wang, Michael",
    "Address":"8A Andrews RD",
    "City":"Wilson",
    "Region":"WA",
    "PostalCode":"6107",
    "FullAddress":"8A Andrews RD, Wilson, WA, 6107, Australia",
    "Longitude":115.908245,
    "Latitude":-32.014006
  },
  {
    "SiteID":57875,
    "TenantName":"Pelser, Elizna",
    "Address":"63 Mofflyn Circle",
    "City":"East Victoria Park",
    "Region":"WA",
    "PostalCode":"6101",
    "FullAddress":"63 Mofflyn Circle, East Victoria Park, WA, 6101, Australia",
    "Longitude":115.89039,
    "Latitude":-31.99046
  },
  {
    "SiteID":57875,
    "TenantName":"Monoury, Sarah C",
    "Address":"188 Pickering Brook Road",
    "City":"Pickering Brook",
    "Region":"WA",
    "PostalCode":"6076",
    "FullAddress":"188 Pickering Brook Road, Pickering Brook, WA, 6076, Australia",
    "Longitude":116.12638,
    "Latitude":-32.03789
  },
  {
    "SiteID":57875,
    "TenantName":"Hazel, Smart L",
    "Address":"6 Mission Place",
    "City":"Cooloongup",
    "Region":"WA",
    "PostalCode":"6168",
    "FullAddress":"6 Mission Place, Cooloongup, WA, 6168, Australia",
    "Longitude":115.7686,
    "Latitude":-32.28897
  },
  {
    "SiteID":57875,
    "TenantName":"Goh, Jenny",
    "Address":"36 Apollo Way",
    "City":"Carlisle",
    "Region":"WA",
    "PostalCode":"6101",
    "FullAddress":"36 Apollo Way, Carlisle, WA, 6101, Australia",
    "Longitude":115.917793,
    "Latitude":-31.97614
  },
  {
    "SiteID":57875,
    "TenantName":"Field, Liam John .",
    "Address":"4 Costello Ct",
    "City":"Usher",
    "Region":"WA",
    "PostalCode":"6230",
    "FullAddress":"4 Costello Ct, Usher, WA, 6230, Australia",
    "Longitude":115.62165,
    "Latitude":-33.37487
  },
  {
    "SiteID":57875,
    "TenantName":"Clark, William",
    "Address":"Unit 6 \/ 24 Norton Street",
    "City":"South Perth",
    "Region":"WA",
    "PostalCode":"6151",
    "FullAddress":"Unit 6 \/ 24 Norton Street, South Perth, WA, 6151, Australia",
    "Longitude":115.87018,
    "Latitude":-31.98719
  },
  {
    "SiteID":57875,
    "TenantName":"Bensley, Bevan",
    "Address":"9A Walsh Avenue",
    "City":"REDCLIFFE",
    "Region":"WA",
    "PostalCode":"6104",
    "FullAddress":"9A Walsh Avenue, REDCLIFFE, WA, 6104, Australia",
    "Longitude":115.950277,
    "Latitude":-31.949782
  },
  {
    "SiteID":57875,
    "TenantName":"Ang, Maryann",
    "Address":"Unit 1 \/ 21 Lowth RD",
    "City":"Beckenham",
    "Region":"WA",
    "PostalCode":"6107",
    "FullAddress":"Unit 1 \/ 21 Lowth RD, Beckenham, WA, 6107, Australia",
    "Longitude":115.962876,
    "Latitude":-32.022627
  },
  {
    "SiteID":57875,
    "TenantName":"Krishnamurthy, Somi",
    "Address":"29\/7 Mary St",
    "City":"Como",
    "Region":"WA",
    "PostalCode":"6107",
    "FullAddress":"29\/7 Mary St, Como, WA, 6107, Australia",
    "Longitude":115.85685,
    "Latitude":-31.992981
  },
  {
    "SiteID":57875,
    "TenantName":"Singh, Gaganpreet (Gagan)",
    "Address":"12 Obsidian Way",
    "City":"Wellard",
    "Region":"WA",
    "PostalCode":"6170",
    "FullAddress":"12 Obsidian Way, Wellard, WA, 6170, Australia",
    "Longitude":115.848329,
    "Latitude":-32.256714
  },
  {
    "SiteID":57875,
    "TenantName":"Price, Glen",
    "Address":"32 Hartley Street",
    "City":"Coolbellup",
    "Region":"WA",
    "PostalCode":"6163",
    "FullAddress":"32 Hartley Street, Coolbellup, WA, 6163, Australia",
    "Longitude":115.79758,
    "Latitude":-32.07629
  },
  {
    "SiteID":57875,
    "TenantName":"Dewing, Ashley M",
    "Address":"4 Dempster Palce",
    "City":"Sorrento",
    "Region":"WA",
    "PostalCode":"6020",
    "FullAddress":"4 Dempster Palce, Sorrento, WA, 6020, Australia",
    "Longitude":115.754289,
    "Latitude":-31.828362
  },
  {
    "SiteID":57875,
    "TenantName":"Gangell, Louise",
    "Address":"26 Crimson Bvd",
    "City":"Forrestfield",
    "Region":"WA",
    "PostalCode":"6058",
    "FullAddress":"26 Crimson Bvd, Forrestfield, WA, 6058, Australia",
    "Longitude":116.018683,
    "Latitude":-31.977298
  },
  {
    "SiteID":57875,
    "TenantName":"Anastasio, Giuseppe (Joe)",
    "Address":"1A Hampton Rd",
    "City":"Burswood",
    "Region":"WA",
    "PostalCode":"6100",
    "FullAddress":"1A Hampton Rd, Burswood, WA, 6100, Australia",
    "Longitude":115.867424,
    "Latitude":-32.630952
  },
  {
    "SiteID":57875,
    "TenantName":"Marinich, Jason",
    "Address":"43 Railway Parade",
    "City":"Welshpool",
    "Region":"WA",
    "PostalCode":"6106",
    "FullAddress":"43 Railway Parade, Welshpool, WA, 6106, Australia",
    "Longitude":115.927353,
    "Latitude":-31.997866
  },
  {
    "SiteID":57875,
    "TenantName":"Turner, Glenys M",
    "Address":"50 Cortis Way",
    "City":"Langford",
    "Region":"WA",
    "PostalCode":"6147",
    "FullAddress":"50 Cortis Way, Langford, WA, 6147, Australia",
    "Longitude":115.94824,
    "Latitude":-32.04379
  },
  {
    "SiteID":57875,
    "TenantName":"Hoath, Penny",
    "Address":"5\/108 Parry Avenue",
    "City":"Bull Creek",
    "Region":"WA",
    "PostalCode":"6149",
    "FullAddress":"5\/108 Parry Avenue, Bull Creek, WA, 6149, Australia",
    "Longitude":115.863169,
    "Latitude":-32.056721
  },
  {
    "SiteID":57875,
    "TenantName":"Watson, Brett",
    "Address":"2a Clifford Way",
    "City":"NORANDA",
    "Region":"WA",
    "PostalCode":"6062",
    "FullAddress":"2a Clifford Way, NORANDA, WA, 6062, Australia",
    "Longitude":115.883988,
    "Latitude":-31.879203
  },
  {
    "SiteID":57875,
    "TenantName":"Yong, Beatrice",
    "Address":"28b Cerberus Avenue",
    "City":"Parkwood",
    "Region":"WA",
    "PostalCode":"6147",
    "FullAddress":"28b Cerberus Avenue, Parkwood, WA, 6147, Australia",
    "Longitude":115.911019,
    "Latitude":-32.039921
  },
  {
    "SiteID":57875,
    "TenantName":"Della-Vedova, Andrew",
    "Address":"106 Armstrong Road",
    "City":"Wilson",
    "Region":"WA",
    "PostalCode":"6107",
    "FullAddress":"106 Armstrong Road, Wilson, WA, 6107, Australia",
    "Longitude":115.90724,
    "Latitude":-32.02048
  },
  {
    "SiteID":57875,
    "TenantName":"Liu, Dongyang",
    "Address":"133 Planet Street",
    "City":"Perth",
    "Region":"Western Australia",
    "PostalCode":"6101",
    "FullAddress":"133 Planet Street, Perth, Western Australia, 6101, Australia",
    "Longitude":115.919437,
    "Latitude":-31.9829
  },
  {
    "SiteID":57875,
    "TenantName":"Miller, Jamie",
    "Address":"B5\/194 Zillmere Road",
    "City":"Zillmere",
    "Region":"QLD",
    "PostalCode":"4034",
    "FullAddress":"B5\/194 Zillmere Road, Zillmere, QLD, 4034, Australia",
    "Longitude":153.051709,
    "Latitude":-27.362476
  },
  {
    "SiteID":57875,
    "TenantName":"McLeod, Steve",
    "Address":"3 Richards Pl",
    "City":"Cannington",
    "Region":"WA",
    "PostalCode":"6000",
    "FullAddress":"3 Richards Pl, Cannington, WA, 6000, Australia",
    "Longitude":115.93251,
    "Latitude":-32.00571
  },
  {
    "SiteID":57875,
    "TenantName":"Abraham, Joumana",
    "Address":"21 Serpentine Court",
    "City":"Lalor",
    "Region":"VIC",
    "PostalCode":"3075",
    "FullAddress":"21 Serpentine Court, Lalor, VIC, 3075, Australia",
    "Longitude":144.998982,
    "Latitude":-37.669231
  },
  {
    "SiteID":57875,
    "TenantName":"Tennant, Drew",
    "Address":"40 Rushton Street",
    "City":"Burswood WA 6100",
    "Region":"WA",
    "PostalCode":"6100",
    "FullAddress":"40 Rushton Street, Burswood WA 6100, WA, 6100, Australia",
    "Longitude":115.89569,
    "Latitude":-31.969339
  },
  {
    "SiteID":57875,
    "TenantName":"Brenchley, Natasha",
    "Address":"95\/150 mill point rd",
    "City":"South Perth",
    "Region":"WA",
    "PostalCode":"6054",
    "FullAddress":"95\/150 mill point rd, South Perth, WA, 6054, Australia",
    "Longitude":115.856107,
    "Latitude":-31.974548
  },
  {
    "SiteID":57875,
    "TenantName":"Nowrojee, Christina S",
    "Address":"73 David St",
    "City":"Maida Vale",
    "Region":"WA",
    "PostalCode":"6057",
    "FullAddress":"73 David St, Maida Vale, WA, 6057, Australia",
    "Longitude":116.01815,
    "Latitude":-31.95007
  },
  {
    "SiteID":57875,
    "TenantName":"Hortin, Matthew A",
    "Address":"37\/570 William Street",
    "City":"Mount Lawley",
    "Region":"WA",
    "PostalCode":"6050",
    "FullAddress":"37\/570 William Street, Mount Lawley, WA, 6050, Australia",
    "Longitude":115.866798,
    "Latitude":-31.933292
  },
  {
    "SiteID":57875,
    "TenantName":"Hamersley, Jayden D",
    "Address":"unit 11\/ 98 Seventh Ave",
    "City":"Maylands",
    "Region":"WA",
    "PostalCode":"6051",
    "FullAddress":"unit 11\/ 98 Seventh Ave, Maylands, WA, 6051, Australia",
    "Longitude":115.88888,
    "Latitude":-31.927721
  },
  {
    "SiteID":57875,
    "TenantName":"Ow, Jason",
    "Address":"19 Peace Loop",
    "City":"Kewdale",
    "Region":"WA",
    "PostalCode":"6105",
    "FullAddress":"19 Peace Loop, Kewdale, WA, 6105, Australia",
    "Longitude":115.931813,
    "Latitude":-31.978789
  },
  {
    "SiteID":57875,
    "TenantName":"Dempsey, Vincent",
    "Address":"4b Baker ct",
    "City":"Perth",
    "Region":"WA",
    "PostalCode":"6064",
    "FullAddress":"4b Baker ct, Perth, WA, 6064, Australia",
    "Longitude":115.87166,
    "Latitude":-31.8273
  },
  {
    "SiteID":57875,
    "TenantName":"Hall, Nicolette .",
    "Address":"Unit 10 3-5 Longhurst Way",
    "City":"Queens Park",
    "Region":"WA",
    "PostalCode":"6107",
    "FullAddress":"Unit 10 3-5 Longhurst Way, Queens Park, WA, 6107, Australia",
    "Longitude":115.942441,
    "Latitude":-31.996764
  },
  {
    "SiteID":57875,
    "TenantName":"Evans, Rob",
    "Address":"92 Stockley Road",
    "City":"Bunbury",
    "Region":"WA",
    "PostalCode":"6223",
    "FullAddress":"92 Stockley Road, Bunbury, WA, 6223, Australia",
    "Longitude":115.6386,
    "Latitude":-33.33407
  },
  {
    "SiteID":57875,
    "TenantName":"Cole, James",
    "Address":"8 Berry Court",
    "City":"Maddington",
    "Region":"WA",
    "PostalCode":"6109",
    "FullAddress":"8 Berry Court, Maddington, WA, 6109, Australia",
    "Longitude":116.0067,
    "Latitude":-32.06056
  },
  {
    "SiteID":57875,
    "TenantName":"Muanchob, Jasper",
    "Address":"4 Ballard Fairway",
    "City":"Wanneroo",
    "Region":"WA",
    "PostalCode":"6065",
    "FullAddress":"4 Ballard Fairway, Wanneroo, WA, 6065, Australia",
    "Longitude":115.7903,
    "Latitude":-31.73516
  },
  {
    "SiteID":57875,
    "TenantName":"Reese, Karen",
    "Address":"608 Metcalf Road",
    "City":"Ferndale",
    "Region":"WA",
    "PostalCode":"6148",
    "FullAddress":"608 Metcalf Road, Ferndale, WA, 6148, Australia",
    "Longitude":115.93476,
    "Latitude":-32.03148
  },
  {
    "SiteID":57875,
    "TenantName":"Rogers, Christopher",
    "Address":"3 Birchfield Ave",
    "City":"Woodvale",
    "Region":"WA",
    "PostalCode":"6026",
    "FullAddress":"3 Birchfield Ave, Woodvale, WA, 6026, Australia",
    "Longitude":115.78679,
    "Latitude":-31.78706
  },
  {
    "SiteID":57875,
    "TenantName":"Kaminski, Michal",
    "Address":"U 2202 8 Adelaide Tce",
    "City":"East Perth",
    "Region":"WA",
    "PostalCode":"6004",
    "FullAddress":"U 2202 8 Adelaide Tce, East Perth, WA, 6004, Australia",
    "Longitude":115.877339,
    "Latitude":-31.961281
  },
  {
    "SiteID":57875,
    "TenantName":"Cameron, Caitlyn",
    "Address":"44b Pinedale street",
    "City":"Perth",
    "Region":"WA",
    "PostalCode":"6101",
    "FullAddress":"44b Pinedale street, Perth, WA, 6101, Australia",
    "Longitude":115.89829,
    "Latitude":-31.999302
  },
  {
    "SiteID":57875,
    "TenantName":"West, Julie",
    "Address":"Unit 3\/ 16 Upper Esp",
    "City":"Bunbury",
    "Region":"WA",
    "PostalCode":"6230",
    "FullAddress":"Unit 3\/ 16 Upper Esp, Bunbury, WA, 6230, Australia",
    "Longitude":115.62914,
    "Latitude":-33.33237
  },
  {
    "SiteID":57875,
    "TenantName":"Vickers, Robert L",
    "Address":"Unit 8 \/23 Cox Street",
    "City":"Maylands",
    "Region":"WA",
    "PostalCode":"6051",
    "FullAddress":"Unit 8 \/23 Cox Street, Maylands, WA, 6051, Australia",
    "Longitude":115.90091,
    "Latitude":-31.926155
  },
  {
    "SiteID":57875,
    "TenantName":"Tan, Vesakha",
    "Address":"Unit 4\/8 Gwenyfred Road",
    "City":"Kensington",
    "Region":"WA",
    "PostalCode":"6151",
    "FullAddress":"Unit 4\/8 Gwenyfred Road, Kensington, WA, 6151, Australia",
    "Longitude":115.8832,
    "Latitude":-31.97542
  },
  {
    "SiteID":57875,
    "TenantName":"Stringfellow, Neil",
    "Address":"1\/65 The Esplanade,",
    "City":"South Perth",
    "Region":"WA",
    "PostalCode":"6151",
    "FullAddress":"1\/65 The Esplanade,, South Perth, WA, 6151, Australia",
    "Longitude":115.856365,
    "Latitude":-31.956091
  },
  {
    "SiteID":57875,
    "TenantName":"Spence, Sean",
    "Address":"14 Russell Street",
    "City":"East Cannington",
    "Region":"WA",
    "PostalCode":"6107",
    "FullAddress":"14 Russell Street, East Cannington, WA, 6107, Australia",
    "Longitude":115.954707,
    "Latitude":-32.007272
  },
  {
    "SiteID":57875,
    "TenantName":"Singh, Raj T",
    "Address":"33B Pycombe Way",
    "City":"Westminster",
    "Region":"W.A",
    "PostalCode":"6061",
    "FullAddress":"33B Pycombe Way, Westminster, W.A, 6061, Australia",
    "Longitude":115.843685,
    "Latitude":-31.86602
  },
  {
    "SiteID":57875,
    "TenantName":"Singh, Harjit",
    "Address":"27 Rosekelly Road",
    "City":"Gosnells",
    "Region":"WA",
    "PostalCode":"6110",
    "FullAddress":"27 Rosekelly Road, Gosnells, WA, 6110, Australia",
    "Longitude":115.99637,
    "Latitude":-32.08397
  },
  {
    "SiteID":57875,
    "TenantName":"Sheppard, Steve",
    "Address":"Level 1, 19 Ord St",
    "City":"West Perth",
    "Region":"WA",
    "PostalCode":"6005",
    "FullAddress":"Level 1, 19 Ord St, West Perth, WA, 6005, Australia",
    "Longitude":115.841759,
    "Latitude":-31.951223
  },
  {
    "SiteID":57875,
    "TenantName":"Rigney, Kieran Patrick J",
    "Address":"65 upper Pitt Street",
    "City":"Krribilli",
    "Region":"WA",
    "PostalCode":"2061",
    "FullAddress":"65 upper Pitt Street, Krribilli, WA, 2061, Australia",
    "Longitude":151.216735,
    "Latitude":-33.849739
  },
  {
    "SiteID":57875,
    "TenantName":"Mckenzie, Ross",
    "Address":"23 HAMILTON STREET",
    "City":"BOULDER",
    "Region":"WA",
    "PostalCode":"6432",
    "FullAddress":"23 HAMILTON STREET, BOULDER, WA, 6432, Australia",
    "Longitude":121.49153,
    "Latitude":-30.77902
  },
  {
    "SiteID":57875,
    "TenantName":"Lowe, Emily Rhondene",
    "Address":"U 25\/4 Kenilworth St.",
    "City":"Maylands",
    "Region":"wa",
    "PostalCode":"6051",
    "FullAddress":"U 25\/4 Kenilworth St., Maylands, wa, 6051, Australia",
    "Longitude":115.898835,
    "Latitude":-31.924544
  },
  {
    "SiteID":57875,
    "TenantName":"Lin, Shih- Hong",
    "Address":"21 Corriedale Place",
    "City":"Thornlie",
    "Region":"WA",
    "PostalCode":"6108",
    "FullAddress":"21 Corriedale Place, Thornlie, WA, 6108, Australia",
    "Longitude":115.954246,
    "Latitude":-32.0432
  },
  {
    "SiteID":57875,
    "TenantName":"Kumar, Mandeep",
    "Address":"14 Gabyon Street",
    "City":"Harrisdale",
    "Region":"WA",
    "PostalCode":"6112",
    "FullAddress":"14 Gabyon Street, Harrisdale, WA, 6112, Australia",
    "Longitude":115.932448,
    "Latitude":-32.127177
  },
  {
    "SiteID":57875,
    "TenantName":"Fairless, Colin S",
    "Address":"Unit 5\/ 17 Bert Street",
    "City":"Gosnells",
    "Region":"WA",
    "PostalCode":"6110",
    "FullAddress":"Unit 5\/ 17 Bert Street, Gosnells, WA, 6110, Australia",
    "Longitude":116.000504,
    "Latitude":-32.075186
  },
  {
    "SiteID":57875,
    "TenantName":"Fahuas, Hernan",
    "Address":"13 Huntley Cl",
    "City":"East Cannington",
    "Region":"wa",
    "PostalCode":"6107",
    "FullAddress":"13 Huntley Cl, East Cannington, wa, 6107, Australia",
    "Longitude":115.96667,
    "Latitude":-32.00485
  },
  {
    "SiteID":57875,
    "TenantName":"Pope, Terry Brett",
    "Address":"28 Bates st,",
    "City":"Springwood",
    "Region":"QLD",
    "PostalCode":"4127",
    "FullAddress":"28 Bates st,, Springwood, QLD, 4127, Australia",
    "Longitude":153.147584,
    "Latitude":-27.62182
  },
  {
    "SiteID":57875,
    "TenantName":"Singh, Ajit",
    "Address":"382 Fisher Street",
    "City":"Coverdale",
    "Region":"WA",
    "PostalCode":"6105",
    "FullAddress":"382 Fisher Street, Coverdale, WA, 6105, Australia",
    "Longitude":115.950569,
    "Latitude":-31.971146
  },
  {
    "SiteID":57875,
    "TenantName":"Robson, Terry",
    "Address":"14 kunipipi street",
    "City":"St clair",
    "Region":"Nsw",
    "PostalCode":"2759",
    "FullAddress":"14 kunipipi street, St clair, Nsw, 2759, Australia",
    "Longitude":150.771613,
    "Latitude":-33.786599
  },
  {
    "SiteID":57875,
    "TenantName":"Tan, Ping",
    "Address":"16 Yallambee Way",
    "City":"Queens Park",
    "Region":"WA",
    "PostalCode":"6107",
    "FullAddress":"16 Yallambee Way, Queens Park, WA, 6107, Australia",
    "Longitude":115.936435,
    "Latitude":-32.002159
  },
  {
    "SiteID":57875,
    "TenantName":"Sheldrick, Katy .",
    "Address":"8 Howick St",
    "City":"Burswood",
    "Region":"WA",
    "PostalCode":"6100",
    "FullAddress":"8 Howick St, Burswood, WA, 6100, Australia",
    "Longitude":115.897538,
    "Latitude":-31.966448
  },
  {
    "SiteID":57875,
    "TenantName":"Winks, Keita",
    "Address":"60D Croyden Road",
    "City":"Roleystone",
    "Region":"WA",
    "PostalCode":"6111",
    "FullAddress":"60D Croyden Road, Roleystone, WA, 6111, Australia",
    "Longitude":116.076409,
    "Latitude":-32.124259
  },
  {
    "SiteID":57875,
    "TenantName":"Van Helden, Mark",
    "Address":"PO Box 7",
    "City":"Mt Hawthorn",
    "Region":"WA",
    "PostalCode":"6915",
    "FullAddress":"PO Box 7, Mt Hawthorn, WA, 6915, Australia",
    "Longitude":121.589234,
    "Latitude":-31.53152
  },
  {
    "SiteID":57875,
    "TenantName":"Van Beek, Luke",
    "Address":"19 Old Belvidere Prom",
    "City":"East Perth",
    "Region":"wa",
    "PostalCode":"6004",
    "FullAddress":"19 Old Belvidere Prom, East Perth, wa, 6004, Australia",
    "Longitude":115.87877,
    "Latitude":-31.94956
  },
  {
    "SiteID":57875,
    "TenantName":"Runham-Love, James K",
    "Address":"Unit 1014 60 Riversdale Road",
    "City":"Rivervale",
    "Region":"WA",
    "PostalCode":"6103",
    "FullAddress":"Unit 1014 60 Riversdale Road, Rivervale, WA, 6103, Australia",
    "Longitude":115.904729,
    "Latitude":-31.954617
  },
  {
    "SiteID":57875,
    "TenantName":"Pan, Tzu Chao (Charles)",
    "Address":"99 Victoria Ave",
    "City":"Dalkeith",
    "Region":"WA",
    "PostalCode":"6009",
    "FullAddress":"99 Victoria Ave, Dalkeith, WA, 6009, Australia",
    "Longitude":115.78909,
    "Latitude":-31.99424
  },
  {
    "SiteID":57875,
    "TenantName":"Jorgensen, Wendy",
    "Address":"24 Thomas  Street",
    "City":"Queens Park",
    "Region":"wa",
    "PostalCode":"6107",
    "FullAddress":"24 Thomas  Street, Queens Park, wa, 6107, Australia",
    "Longitude":115.947873,
    "Latitude":-32.009894
  },
  {
    "SiteID":57875,
    "TenantName":"Barnaby, Marc J",
    "Address":"Unit10 \/28 Banksia Tce",
    "City":"South Perth",
    "Region":"WA",
    "PostalCode":"6151",
    "FullAddress":"Unit10 \/28 Banksia Tce, South Perth, WA, 6151, Australia",
    "Longitude":115.878622,
    "Latitude":-31.978443
  },
  {
    "SiteID":57875,
    "TenantName":"Schulz, Christin",
    "Address":"42 Riseley Street",
    "City":"Perth",
    "Region":"WA",
    "PostalCode":"6153",
    "FullAddress":"42 Riseley Street, Perth, WA, 6153, Australia",
    "Longitude":115.837274,
    "Latitude":-32.024056
  },
  {
    "SiteID":57875,
    "TenantName":"Evans, Jasmine",
    "Address":"115 Raleigh Street",
    "City":"Carlisle",
    "Region":"WA",
    "PostalCode":"6101",
    "FullAddress":"115 Raleigh Street, Carlisle, WA, 6101, Australia",
    "Longitude":115.916247,
    "Latitude":-31.98318
  },
  {
    "SiteID":57875,
    "TenantName":"Cantwell, Millie J",
    "Address":"22 Bougainvillea Ave",
    "City":"Forresfield",
    "Region":"WA",
    "PostalCode":"6058",
    "FullAddress":"22 Bougainvillea Ave, Forresfield, WA, 6058, Australia",
    "Longitude":116.007322,
    "Latitude":-31.978163
  },
  {
    "SiteID":57875,
    "TenantName":"Bishop, Todd",
    "Address":"Level 27, 101 Collins st",
    "City":"Melbourne",
    "Region":"Vic",
    "PostalCode":"3000",
    "FullAddress":"Level 27, 101 Collins st, Melbourne, Vic, 3000, Australia",
    "Longitude":144.970527,
    "Latitude":-37.81454
  },
  {
    "SiteID":57875,
    "TenantName":"Dansie, Neil S",
    "Address":"511 MIddlebrook Rd",
    "City":"Middlebrook",
    "Region":"QLD",
    "PostalCode":"4886",
    "FullAddress":"511 MIddlebrook Rd, Middlebrook, QLD, 4886, Australia",
    "Longitude":145.648201,
    "Latitude":-17.565408
  },
  {
    "SiteID":57875,
    "TenantName":"Yun, Deok Min",
    "Address":"119\/3 Homelea Court",
    "City":"Rivervale",
    "Region":"WA",
    "PostalCode":"6103",
    "FullAddress":"119\/3 Homelea Court, Rivervale, WA, 6103, Australia",
    "Longitude":115.903407,
    "Latitude":-31.957332
  },
  {
    "SiteID":57875,
    "TenantName":"Throssell, Lisa",
    "Address":"18 Norseman St",
    "City":"East Victoria Park",
    "Region":"WA",
    "PostalCode":"6101",
    "FullAddress":"18 Norseman St, East Victoria Park, WA, 6101, Australia",
    "Longitude":115.90926,
    "Latitude":-31.98417
  },
  {
    "SiteID":57875,
    "TenantName":"Carnie, Douglas",
    "Address":"57 Moolanda BVD",
    "City":"Kingsley",
    "Region":"WA",
    "PostalCode":"6026",
    "FullAddress":"57 Moolanda BVD, Kingsley, WA, 6026, Australia",
    "Longitude":115.80483,
    "Latitude":-31.81466
  },
  {
    "SiteID":57875,
    "TenantName":"Williams, Ashley",
    "Address":"35 State Street",
    "City":"Victoria Park",
    "Region":"W.A",
    "PostalCode":"6100",
    "FullAddress":"35 State Street, Victoria Park, W.A, 6100, Australia",
    "Longitude":115.89684,
    "Latitude":-31.98146
  },
  {
    "SiteID":57875,
    "TenantName":"Thalpe Guruge, Asanga .",
    "Address":"7 Kelpie Way",
    "City":"Southern River",
    "Region":"WA",
    "PostalCode":"6110",
    "FullAddress":"7 Kelpie Way, Southern River, WA, 6110, Australia",
    "Longitude":115.967466,
    "Latitude":-32.100114
  },
  {
    "SiteID":57875,
    "TenantName":"Singh, Taljinder .",
    "Address":"41 Centre St",
    "City":"Queen Park",
    "Region":"WA",
    "PostalCode":"6107",
    "FullAddress":"41 Centre St, Queen Park, WA, 6107, Australia",
    "Longitude":115.93742,
    "Latitude":-32.00038
  },
  {
    "SiteID":57875,
    "TenantName":"McWhirter, Allan",
    "Address":"27 Gatwick Terrace",
    "City":"Murdoch",
    "Region":"WA",
    "PostalCode":"6150",
    "FullAddress":"27 Gatwick Terrace, Murdoch, WA, 6150, Australia",
    "Longitude":115.83213,
    "Latitude":-32.06202
  },
  {
    "SiteID":57875,
    "TenantName":"Cikarela, Luke",
    "Address":"3 Withnell Street",
    "City":"East Victoria Park",
    "Region":"WA",
    "PostalCode":"61601",
    "FullAddress":"3 Withnell Street, East Victoria Park, WA, 61601, Australia",
    "Longitude":115.91201,
    "Latitude":-31.9894
  },
  {
    "SiteID":57875,
    "TenantName":"McLean, Jessica",
    "Address":"24 Agincourt Drive",
    "City":"Forrestfield",
    "Region":"WA",
    "PostalCode":"6058",
    "FullAddress":"24 Agincourt Drive, Forrestfield, WA, 6058, Australia",
    "Longitude":116.01385,
    "Latitude":-31.99765
  },
  {
    "SiteID":57875,
    "TenantName":"Yuanlin, Qiuxiao  ( Rachel)",
    "Address":"16 Barossa Loop",
    "City":"Harrisdale",
    "Region":"WA",
    "PostalCode":"6112",
    "FullAddress":"16 Barossa Loop, Harrisdale, WA, 6112, Australia",
    "Longitude":115.939277,
    "Latitude":-32.122679
  },
  {
    "SiteID":57875,
    "TenantName":"Sly, Olivia",
    "Address":"133A Leach Highway",
    "City":"Wilson",
    "Region":"WA",
    "PostalCode":"6107",
    "FullAddress":"133A Leach Highway, Wilson, WA, 6107, Australia",
    "Longitude":115.90956,
    "Latitude":-32.02085
  },
  {
    "SiteID":57875,
    "TenantName":"Wear, Robert C",
    "Address":"3066 Forrest Hills Dr",
    "City":"Hope Island",
    "Region":"QLD",
    "PostalCode":"4212",
    "FullAddress":"3066 Forrest Hills Dr, Hope Island, QLD, 4212, Australia",
    "Longitude":153.374158,
    "Latitude":-27.861659
  },
  {
    "SiteID":57875,
    "TenantName":"Tan, Rachel",
    "Address":"29C Beaconsfield Street",
    "City":"St James",
    "Region":"WA",
    "PostalCode":"6102",
    "FullAddress":"29C Beaconsfield Street, St James, WA, 6102, Australia",
    "Longitude":115.909015,
    "Latitude":-31.999916
  },
  {
    "SiteID":57875,
    "TenantName":"Lee, Coco .",
    "Address":"Unit 2 34 Mathoura St",
    "City":"Midland",
    "Region":"WA",
    "PostalCode":"6056",
    "FullAddress":"Unit 2 34 Mathoura St, Midland, WA, 6056, Australia",
    "Longitude":116.018339,
    "Latitude":-31.887907
  },
  {
    "SiteID":57875,
    "TenantName":"Mees, Toni",
    "Address":"Unit 1 \/ 65 Roberts Street",
    "City":"Como",
    "Region":"WA",
    "PostalCode":"6152",
    "FullAddress":"Unit 1 \/ 65 Roberts Street, Como, WA, 6152, Australia",
    "Longitude":115.85752,
    "Latitude":-32.00271
  },
  {
    "SiteID":57875,
    "TenantName":"Seberry, Nathan",
    "Address":"2 Rix Ct",
    "City":"Malak",
    "Region":"NT",
    "PostalCode":"0812",
    "FullAddress":"2 Rix Ct, Malak, NT, 0812, Australia",
    "Longitude":130.910132,
    "Latitude":-12.390696
  },
  {
    "SiteID":57875,
    "TenantName":"Ashwin, Michael",
    "Address":"U1 \/ 190 Treasure RD",
    "City":"Queen Park",
    "Region":"WA",
    "PostalCode":"6107",
    "FullAddress":"U1 \/ 190 Treasure RD, Queen Park, WA, 6107, Australia",
    "Longitude":115.94243,
    "Latitude":-31.999448
  },
  {
    "SiteID":57875,
    "TenantName":"Lo, Roger",
    "Address":"8 Gianatti Ramble",
    "City":"East Cannington",
    "Region":"WA",
    "PostalCode":"6107",
    "FullAddress":"8 Gianatti Ramble, East Cannington, WA, 6107, Australia",
    "Longitude":115.959881,
    "Latitude":-32.01266
  },
  {
    "SiteID":57875,
    "TenantName":"Guo, Xingchen",
    "Address":"2 River Bed Pass,",
    "City":"Wilson",
    "Region":"WA",
    "PostalCode":"6107",
    "FullAddress":"2 River Bed Pass,, Wilson, WA, 6107, Australia",
    "Longitude":115.90923,
    "Latitude":-32.02769
  },
  {
    "SiteID":57875,
    "TenantName":"Zahradnik, Uwe",
    "Address":"Unit 65 8 Riversdale Road",
    "City":"Burswood",
    "Region":"WA",
    "PostalCode":"6100",
    "FullAddress":"Unit 65 8 Riversdale Road, Burswood, WA, 6100, Australia",
    "Longitude":115.900458,
    "Latitude":-31.956424
  },
  {
    "SiteID":57875,
    "TenantName":"Hollier, Steven",
    "Address":"8 Behan Street",
    "City":"Bentley",
    "Region":"WA",
    "PostalCode":"6102",
    "FullAddress":"8 Behan Street, Bentley, WA, 6102, Australia",
    "Longitude":115.9154,
    "Latitude":-32.00804
  },
  {
    "SiteID":57875,
    "TenantName":"Ulrich, Nathan",
    "Address":"18-24 Bannick Court",
    "City":"Canningvale",
    "Region":"WA",
    "PostalCode":"6155",
    "FullAddress":"18-24 Bannick Court, Canningvale, WA, 6155, Australia",
    "Longitude":115.923385,
    "Latitude":-32.063037
  },
  {
    "SiteID":57875,
    "TenantName":"McNeil, Eliza",
    "Address":"17 Motteram Ave",
    "City":"Claremont",
    "Region":"WA",
    "PostalCode":"6010",
    "FullAddress":"17 Motteram Ave, Claremont, WA, 6010, Australia",
    "Longitude":115.782217,
    "Latitude":-31.97445
  },
  {
    "SiteID":57875,
    "TenantName":"Gaser, Afrah",
    "Address":"72A Queen Street",
    "City":"Bentley",
    "Region":"WA",
    "PostalCode":"6102",
    "FullAddress":"72A Queen Street, Bentley, WA, 6102, Australia",
    "Longitude":115.913972,
    "Latitude":-32.007766
  },
  {
    "SiteID":57875,
    "TenantName":"Lim, Han Nee",
    "Address":"148 Rannoch Circle",
    "City":"Hamersley",
    "Region":"WA",
    "PostalCode":"6022",
    "FullAddress":"148 Rannoch Circle, Hamersley, WA, 6022, Australia",
    "Longitude":115.821253,
    "Latitude":-31.850011
  },
  {
    "SiteID":57875,
    "TenantName":"Ameer, Anisa",
    "Address":"114 Comrie Road",
    "City":"Canningvale",
    "Region":"WA",
    "PostalCode":"6155",
    "FullAddress":"114 Comrie Road, Canningvale, WA, 6155, Australia",
    "Longitude":115.928383,
    "Latitude":-32.084512
  },
  {
    "SiteID":57875,
    "TenantName":"Yarim, Hakki T",
    "Address":"6 Woonan Place",
    "City":"Karawara",
    "Region":"WA",
    "PostalCode":"6152",
    "FullAddress":"6 Woonan Place, Karawara, WA, 6152, Australia",
    "Longitude":115.877958,
    "Latitude":-32.006124
  },
  {
    "SiteID":57875,
    "TenantName":"Mutiara, Farida",
    "Address":"c\/o 30B Landsborough Way",
    "City":"Padbury",
    "Region":"WA",
    "PostalCode":"6025",
    "FullAddress":"c\/o 30B Landsborough Way, Padbury, WA, 6025, Australia",
    "Longitude":115.761504,
    "Latitude":-31.811285
  },
  {
    "SiteID":57875,
    "TenantName":"Terrell, Rhennae",
    "Address":"29 Milverton Avenue",
    "City":"Karrinyup",
    "Region":"WA",
    "PostalCode":"6018",
    "FullAddress":"29 Milverton Avenue, Karrinyup, WA, 6018, Australia",
    "Longitude":115.772666,
    "Latitude":-31.86139
  },
  {
    "SiteID":57875,
    "TenantName":"Bowe, Jason",
    "Address":"Unit 2 1105 Albany Highway",
    "City":"St James",
    "Region":"WA",
    "PostalCode":"6102",
    "FullAddress":"Unit 2 1105 Albany Highway, St James, WA, 6102, Australia",
    "Longitude":115.916794,
    "Latitude":-31.999906
  },
  {
    "SiteID":57875,
    "TenantName":"Schlipalius, Christopher D",
    "Address":"Unit 4\/ 42 Baler Court",
    "City":"Hammond Park",
    "Region":"WA",
    "PostalCode":"6164",
    "FullAddress":"Unit 4\/ 42 Baler Court, Hammond Park, WA, 6164, Australia",
    "Longitude":115.85394,
    "Latitude":-32.159802
  },
  {
    "SiteID":57875,
    "TenantName":"Kennedy, Russell",
    "Address":"1 Opal Court",
    "City":"Madia vale",
    "Region":"Wa",
    "PostalCode":"6057",
    "FullAddress":"1 Opal Court, Madia vale, Wa, 6057, Australia",
    "Longitude":116.01614,
    "Latitude":-31.94585
  },
  {
    "SiteID":57875,
    "TenantName":"Spittle, James",
    "Address":"100 Washington Street",
    "City":"Victoria Park",
    "Region":"WA",
    "PostalCode":"6100",
    "FullAddress":"100 Washington Street, Victoria Park, WA, 6100, Australia",
    "Longitude":115.891515,
    "Latitude":-31.975232
  },
  {
    "SiteID":57875,
    "TenantName":"Radzi, Shariman",
    "Address":"U10 - 23-25 Mason Street",
    "City":"Cannington",
    "Region":"WA",
    "PostalCode":"6107",
    "FullAddress":"U10 - 23-25 Mason Street, Cannington, WA, 6107, Australia",
    "Longitude":115.932197,
    "Latitude":-32.019154
  },
  {
    "SiteID":57875,
    "TenantName":"Marcikic, Darko",
    "Address":"2,11 A Wharf St",
    "City":"Queen Park",
    "Region":"WA",
    "PostalCode":"6017",
    "FullAddress":"2,11 A Wharf St, Queen Park, WA, 6017, Australia",
    "Longitude":115.978217,
    "Latitude":-31.76645
  },
  {
    "SiteID":57875,
    "TenantName":"Dewar, Michael",
    "Address":"U 3 8 Fairfeild St",
    "City":"Mount Hawthorn",
    "Region":"WA",
    "PostalCode":"6016",
    "FullAddress":"U 3 8 Fairfeild St, Mount Hawthorn, WA, 6016, Australia",
    "Longitude":115.84032,
    "Latitude":-31.92452
  },
  {
    "SiteID":57875,
    "TenantName":"Gidion, Susann",
    "Address":"15 Cosmo St",
    "City":"East Cannington",
    "Region":"WA",
    "PostalCode":"6107",
    "FullAddress":"15 Cosmo St, East Cannington, WA, 6107, Australia",
    "Longitude":115.97102,
    "Latitude":-32.00681
  },
  {
    "SiteID":57875,
    "TenantName":"Khoo, Jeannette",
    "Address":"1\/29 Cale st",
    "City":"Como",
    "Region":"WA",
    "PostalCode":"6152",
    "FullAddress":"1\/29 Cale st, Como, WA, 6152, Australia",
    "Longitude":115.864223,
    "Latitude":-32.003545
  },
  {
    "SiteID":57875,
    "TenantName":"Hancock, Jane",
    "Address":"10\/3 Abbotsford St,",
    "City":"West Leederville",
    "Region":"WA",
    "PostalCode":"6007",
    "FullAddress":"10\/3 Abbotsford St,, West Leederville, WA, 6007, Australia",
    "Longitude":115.837414,
    "Latitude":-31.941592
  },
  {
    "SiteID":57875,
    "TenantName":"Sayed Neame, Adnan",
    "Address":"Unit 5A\/ 18-36 South Terrace",
    "City":"Fremantle",
    "Region":"WA",
    "PostalCode":"6160",
    "FullAddress":"Unit 5A\/ 18-36 South Terrace, Fremantle, WA, 6160, Australia",
    "Longitude":115.747757,
    "Latitude":-32.055443
  },
  {
    "SiteID":57875,
    "TenantName":"Siki, David",
    "Address":"5 Agnew Cove",
    "City":"Bentley",
    "Region":"WA",
    "PostalCode":"6102",
    "FullAddress":"5 Agnew Cove, Bentley, WA, 6102, Australia",
    "Longitude":115.91413,
    "Latitude":-32.00801
  },
  {
    "SiteID":57875,
    "TenantName":"Jaffri, Syed Muhhamad Zain",
    "Address":"23 B Stanard St.",
    "City":"Bentley",
    "Region":"wa",
    "PostalCode":"6102",
    "FullAddress":"23 B Stanard St., Bentley, wa, 6102, Australia",
    "Longitude":115.90303,
    "Latitude":-32.006876
  },
  {
    "SiteID":57875,
    "TenantName":"Evfrosinis, James",
    "Address":"10\/75 Cambridge Street",
    "City":"West leederville",
    "Region":"WA",
    "PostalCode":"6007",
    "FullAddress":"10\/75 Cambridge Street, West leederville, WA, 6007, Australia",
    "Longitude":115.83675,
    "Latitude":-31.94116
  },
  {
    "SiteID":57875,
    "TenantName":"Williams, Murray J",
    "Address":"115 Dulwich Street",
    "City":"Beckenham",
    "Region":"WA",
    "PostalCode":"6107",
    "FullAddress":"115 Dulwich Street, Beckenham, WA, 6107, Australia",
    "Longitude":115.96702,
    "Latitude":-32.01815
  },
  {
    "SiteID":57875,
    "TenantName":"Smith-Ali, Denise",
    "Address":"1 & 2\/24 Burton Street",
    "City":"Cannington",
    "Region":"WA",
    "PostalCode":"6107",
    "FullAddress":"1 & 2\/24 Burton Street, Cannington, WA, 6107, Australia",
    "Longitude":115.9238,
    "Latitude":-32.011377
  },
  {
    "SiteID":57875,
    "TenantName":"Ngendakuriyo, Jonas",
    "Address":"110 Verdant Cres",
    "City":"Perth",
    "Region":"WA",
    "PostalCode":"6112",
    "FullAddress":"110 Verdant Cres, Perth, WA, 6112, Australia",
    "Longitude":115.990658,
    "Latitude":-32.126948
  },
  {
    "SiteID":57875,
    "TenantName":"Potter, Kellie",
    "Address":"20 Nanven Place",
    "City":"Rivervale",
    "Region":"WA",
    "PostalCode":"6105",
    "FullAddress":"20 Nanven Place, Rivervale, WA, 6105, Australia",
    "Longitude":115.923648,
    "Latitude":-31.966596
  },
  {
    "SiteID":57875,
    "TenantName":"Demir, Gokhan",
    "Address":"163 Nollamara Ave",
    "City":"Nollamara",
    "Region":"WA",
    "PostalCode":"6061",
    "FullAddress":"163 Nollamara Ave, Nollamara, WA, 6061, Australia",
    "Longitude":115.851189,
    "Latitude":-31.878065
  },
  {
    "SiteID":57875,
    "TenantName":"Shomali, Nadia",
    "Address":"PO BOX 36",
    "City":"Inglewood",
    "Region":"WA",
    "PostalCode":"6932",
    "FullAddress":"PO BOX 36, Inglewood, WA, 6932, Australia",
    "Longitude":146.576009,
    "Latitude":-38.12309
  },
  {
    "SiteID":57875,
    "TenantName":"Petricevic, Adam",
    "Address":"49 Hardey East Rd",
    "City":"Wattle Grove",
    "Region":"WA",
    "PostalCode":"6107",
    "FullAddress":"49 Hardey East Rd, Wattle Grove, WA, 6107, Australia",
    "Longitude":115.98874,
    "Latitude":-31.992676
  },
  {
    "SiteID":57875,
    "TenantName":"Wilson, Lorraine",
    "Address":"229 Durlacher Street",
    "City":"Geraldton",
    "Region":"WA",
    "PostalCode":"6530",
    "FullAddress":"229 Durlacher Street, Geraldton, WA, 6530, Australia",
    "Longitude":114.61843,
    "Latitude":-28.78546
  },
  {
    "SiteID":57875,
    "TenantName":"Wells, Janne",
    "Address":"21 Whittlesford Street",
    "City":"East Victoria Park",
    "Region":"WA",
    "PostalCode":"6101",
    "FullAddress":"21 Whittlesford Street, East Victoria Park, WA, 6101, Australia",
    "Longitude":115.9037,
    "Latitude":-31.99489
  },
  {
    "SiteID":57875,
    "TenantName":"Kalonda, Gilbert",
    "Address":"13 Sullivan St",
    "City":"Beckenham",
    "Region":"WA",
    "PostalCode":"6107",
    "FullAddress":"13 Sullivan St, Beckenham, WA, 6107, Australia",
    "Longitude":115.96128,
    "Latitude":-32.024408
  },
  {
    "SiteID":57875,
    "TenantName":"Cabilan, Gilberto",
    "Address":"17\/58 King George St",
    "City":"Victoria Park",
    "Region":"WA",
    "PostalCode":"6100",
    "FullAddress":"17\/58 King George St, Victoria Park, WA, 6100, Australia",
    "Longitude":115.89144,
    "Latitude":-31.97771
  },
  {
    "SiteID":57875,
    "TenantName":"Andrews, Anthony",
    "Address":"5 Esther Street",
    "City":"Eden Hill",
    "Region":"Western Australia",
    "PostalCode":"6054",
    "FullAddress":"5 Esther Street, Eden Hill, Western Australia, 6054, Australia",
    "Longitude":115.95336,
    "Latitude":-31.89371
  },
  {
    "SiteID":57875,
    "TenantName":"Milner, La-toya",
    "Address":"9 Koongee cross",
    "City":"High Wycombe",
    "Region":"Western Australia",
    "PostalCode":"6057",
    "FullAddress":"9 Koongee cross, High Wycombe, Western Australia, 6057, Australia",
    "Longitude":115.99985,
    "Latitude":-31.93309
  },
  {
    "SiteID":57875,
    "TenantName":"Wood, James",
    "Address":"U 3, 12 Rathay st",
    "City":"Victoria Park",
    "Region":"WA",
    "PostalCode":"6100",
    "FullAddress":"U 3, 12 Rathay st, Victoria Park, WA, 6100, Australia",
    "Longitude":115.89798,
    "Latitude":-31.979861
  },
  {
    "SiteID":57875,
    "TenantName":"West, Michael",
    "Address":"20A Barnsley Street",
    "City":"Queens Park",
    "Region":"W.A",
    "PostalCode":"6107",
    "FullAddress":"20A Barnsley Street, Queens Park, W.A, 6107, Australia",
    "Longitude":115.946371,
    "Latitude":-31.999934
  },
  {
    "SiteID":57875,
    "TenantName":"Roosendaal, Lambertus",
    "Address":"2B Alston Avenue",
    "City":"Como",
    "Region":"WA",
    "PostalCode":"6152",
    "FullAddress":"2B Alston Avenue, Como, WA, 6152, Australia",
    "Longitude":115.85603,
    "Latitude":-31.99771
  },
  {
    "SiteID":57875,
    "TenantName":"Peters, Eric",
    "Address":"33C Mosaic St E",
    "City":"Shelley",
    "Region":"WA",
    "PostalCode":"6148",
    "FullAddress":"33C Mosaic St E, Shelley, WA, 6148, Australia",
    "Longitude":115.893426,
    "Latitude":-32.025554
  },
  {
    "SiteID":57875,
    "TenantName":"Northover, Barbara (Joy)",
    "Address":"Unit 26, 20 Alday Street",
    "City":"St James",
    "Region":"WA",
    "PostalCode":"6102",
    "FullAddress":"Unit 26, 20 Alday Street, St James, WA, 6102, Australia",
    "Longitude":115.911359,
    "Latitude":-31.994525
  },
  {
    "SiteID":57875,
    "TenantName":"Lee, Nikkita",
    "Address":"Unit 3, 28 Central Terrace",
    "City":"Beckenham",
    "Region":"WA",
    "PostalCode":"6107",
    "FullAddress":"Unit 3, 28 Central Terrace, Beckenham, WA, 6107, Australia",
    "Longitude":115.956256,
    "Latitude":-32.020417
  },
  {
    "SiteID":57875,
    "TenantName":"Kearing, Shannon",
    "Address":"15 Jarrah Grove",
    "City":"Gosnells",
    "Region":"WA",
    "PostalCode":"6110",
    "FullAddress":"15 Jarrah Grove, Gosnells, WA, 6110, Australia",
    "Longitude":115.9756,
    "Latitude":-32.08603
  },
  {
    "SiteID":57875,
    "TenantName":"Gray, James",
    "Address":"22A Bland Street",
    "City":"Como",
    "Region":"WA",
    "PostalCode":"6152",
    "FullAddress":"22A Bland Street, Como, WA, 6152, Australia",
    "Longitude":115.877582,
    "Latitude":-31.989181
  },
  {
    "SiteID":57875,
    "TenantName":"Gering, Dmitriy",
    "Address":"29 Meadowview Drive",
    "City":"Carrara",
    "Region":"QLD",
    "PostalCode":"4211",
    "FullAddress":"29 Meadowview Drive, Carrara, QLD, 4211, Australia",
    "Longitude":153.379354,
    "Latitude":-28.026
  },
  {
    "SiteID":57875,
    "TenantName":"Cumming, Marie-victoire",
    "Address":"41\/148 Adelaide Tce",
    "City":"East Perth",
    "Region":"WA",
    "PostalCode":"6004",
    "FullAddress":"41\/148 Adelaide Tce, East Perth, WA, 6004, Australia",
    "Longitude":115.872434,
    "Latitude":-31.959584
  },
  {
    "SiteID":57875,
    "TenantName":"Brown, Lloyd D",
    "Address":"1-13 King George st",
    "City":"Victoria Park",
    "Region":"WA",
    "PostalCode":"6100",
    "FullAddress":"1-13 King George st, Victoria Park, WA, 6100, Australia",
    "Longitude":115.895717,
    "Latitude":-31.973268
  },
  {
    "SiteID":57875,
    "TenantName":"Ardinah, Muslim",
    "Address":"16 Mariana close",
    "City":"Maddington",
    "Region":"WA",
    "PostalCode":"6109",
    "FullAddress":"16 Mariana close, Maddington, WA, 6109, Australia",
    "Longitude":116.01301,
    "Latitude":-32.04808
  },
  {
    "SiteID":57875,
    "TenantName":"Turner, Jackson",
    "Address":"8 Finchley St Lynwood",
    "City":"Perth",
    "Region":"W.A",
    "PostalCode":"6147",
    "FullAddress":"8 Finchley St Lynwood, Perth, W.A, 6147, Australia",
    "Longitude":115.9312,
    "Latitude":-32.04492
  },
  {
    "SiteID":57875,
    "TenantName":"Hillis, Jacinta",
    "Address":"3B Seabrooke chase",
    "City":"Helena va\u013aley",
    "Region":"WA",
    "PostalCode":"6056",
    "FullAddress":"3B Seabrooke chase, Helena va\u013aley, WA, 6056, Australia",
    "Longitude":116.032586,
    "Latitude":-31.921433
  },
  {
    "SiteID":57875,
    "TenantName":"Taylor, Megan",
    "Address":"2 Coneflower Corner Churchland",
    "City":"Perth",
    "Region":"Western Australia",
    "PostalCode":"WA 6018",
    "FullAddress":"2 Coneflower Corner Churchland, Perth, Western Australia, WA 6018, Australia",
    "Longitude":115.789892,
    "Latitude":-31.924731
  },
  {
    "SiteID":57875,
    "TenantName":"Garbutt, Natalie",
    "Address":"2 Hicks Street",
    "City":"Esperance",
    "Region":"WA",
    "PostalCode":"6450",
    "FullAddress":"2 Hicks Street, Esperance, WA, 6450, Australia",
    "Longitude":121.89194,
    "Latitude":-33.85756
  },
  {
    "SiteID":57875,
    "TenantName":"Ngaro, Denzell Tepaki",
    "Address":"342 Newcastle st, Northbridge",
    "City":"Perth",
    "Region":"WA",
    "PostalCode":"6000",
    "FullAddress":"342 Newcastle st, Northbridge, Perth, WA, 6000, Australia",
    "Longitude":115.85565,
    "Latitude":-31.943501
  },
  {
    "SiteID":57875,
    "TenantName":"Helgason, Helgi",
    "Address":"127 Chadstone Road",
    "City":"Craigie",
    "Region":"WA",
    "PostalCode":"6025",
    "FullAddress":"127 Chadstone Road, Craigie, WA, 6025, Australia",
    "Longitude":115.76981,
    "Latitude":-31.78638
  },
  {
    "SiteID":57875,
    "TenantName":"Gaynor, Michelle",
    "Address":"Unit 4",
    "City":"18-22 Hardie Street",
    "Region":"NWS",
    "PostalCode":"2010",
    "FullAddress":"Unit 4, 18-22 Hardie Street, NWS, 2010, Australia",
    "Longitude":151.220893,
    "Latitude":-33.878091
  },
  {
    "SiteID":57875,
    "TenantName":"Denny, Michael",
    "Address":"P O BOX 1235",
    "City":"West Perth",
    "Region":"WA",
    "PostalCode":"6872",
    "FullAddress":"P O BOX 1235, West Perth, WA, 6872, Australia",
    "Longitude":115.854012,
    "Latitude":-31.905612
  },
  {
    "SiteID":57875,
    "TenantName":"Alawi, Shwana",
    "Address":"164-166 Hay Street",
    "City":"Kalgoorlie",
    "Region":"WA",
    "PostalCode":"6430",
    "FullAddress":"164-166 Hay Street, Kalgoorlie, WA, 6430, Australia",
    "Longitude":121.46591,
    "Latitude":-30.75099
  },
  {
    "SiteID":57875,
    "TenantName":"Merola, Pasquale",
    "Address":"Unit 3 \/ 7 Cohn Street",
    "City":"Carlisle",
    "Region":"Wa",
    "PostalCode":"6101",
    "FullAddress":"Unit 3 \/ 7 Cohn Street, Carlisle, Wa, 6101, Australia",
    "Longitude":115.91862,
    "Latitude":-31.98755
  },
  {
    "SiteID":57875,
    "TenantName":"Marevic, Jason",
    "Address":"3 Deschamp Road",
    "City":"Noranda",
    "Region":"WA",
    "PostalCode":"6062",
    "FullAddress":"3 Deschamp Road, Noranda, WA, 6062, Australia",
    "Longitude":115.91243,
    "Latitude":-31.8792
  },
  {
    "SiteID":57875,
    "TenantName":"Zhang, Wentao (John)",
    "Address":"289 Campbell Road",
    "City":"Canning Vale",
    "Region":"WA",
    "PostalCode":"6155",
    "FullAddress":"289 Campbell Road, Canning Vale, WA, 6155, Australia",
    "Longitude":115.9199,
    "Latitude":-32.097867
  },
  {
    "SiteID":57875,
    "TenantName":"Svosve, Rosewitta",
    "Address":"13 Dumond St",
    "City":"Bentley",
    "Region":"WA",
    "PostalCode":"6102",
    "FullAddress":"13 Dumond St, Bentley, WA, 6102, Australia",
    "Longitude":115.906119,
    "Latitude":-32.007913
  },
  {
    "SiteID":57875,
    "TenantName":"Eriksson, Calvin",
    "Address":"52 Crawford Street",
    "City":"East Cannington",
    "Region":"WA",
    "PostalCode":"6107",
    "FullAddress":"52 Crawford Street, East Cannington, WA, 6107, Australia",
    "Longitude":115.95225,
    "Latitude":-32.01713
  },
  {
    "SiteID":57875,
    "TenantName":"Ya Yun, Liu",
    "Address":"10 Noyce Way",
    "City":"East Cannington",
    "Region":"WA",
    "PostalCode":"6107",
    "FullAddress":"10 Noyce Way, East Cannington, WA, 6107, Australia",
    "Longitude":115.955858,
    "Latitude":-32.007019
  },
  {
    "SiteID":57875,
    "TenantName":"Mulvaney, Kieran",
    "Address":"1A Barradine Way",
    "City":"Craigie",
    "Region":"WA",
    "PostalCode":"6025",
    "FullAddress":"1A Barradine Way, Craigie, WA, 6025, Australia",
    "Longitude":115.758131,
    "Latitude":-31.783803
  },
  {
    "SiteID":57875,
    "TenantName":"Nyok, Rebecca",
    "Address":"179A Hill View Terrace",
    "City":"Bentley",
    "Region":"WA",
    "PostalCode":"6059",
    "FullAddress":"179A Hill View Terrace, Bentley, WA, 6059, Australia",
    "Longitude":115.90169,
    "Latitude":-32.00807
  },
  {
    "SiteID":57875,
    "TenantName":"Moreno, Elim",
    "Address":"11A Warwick Street",
    "City":"St James",
    "Region":"WA",
    "PostalCode":"6102",
    "FullAddress":"11A Warwick Street, St James, WA, 6102, Australia",
    "Longitude":115.907799,
    "Latitude":-32.003945
  },
  {
    "SiteID":57875,
    "TenantName":"Healy, Rebecca Mary",
    "Address":"148 Keymer Street",
    "City":"Belmont",
    "Region":"WA",
    "PostalCode":"6104",
    "FullAddress":"148 Keymer Street, Belmont, WA, 6104, Australia",
    "Longitude":115.93878,
    "Latitude":-31.94661
  },
  {
    "SiteID":57875,
    "TenantName":"Muller, Jacqueline",
    "Address":"U 2 \/ 215",
    "City":"COMO",
    "Region":"WA",
    "PostalCode":"6152",
    "FullAddress":"U 2 \/ 215, COMO, WA, 6152, Australia",
    "Longitude":118.057052,
    "Latitude":-34.95577
  },
  {
    "SiteID":57875,
    "TenantName":"Hussain, Juliana",
    "Address":"53 Cross Street,  Queens Park 6107",
    "City":"Queens Park",
    "Region":"WA",
    "PostalCode":"6107",
    "FullAddress":"53 Cross Street,  Queens Park 6107, Queens Park, WA, 6107, Australia",
    "Longitude":115.946363,
    "Latitude":-32.002459
  },
  {
    "SiteID":57875,
    "TenantName":"Pearce, Tim",
    "Address":"140 Rosebery Street",
    "City":"Bedford",
    "Region":"WA",
    "PostalCode":"6053",
    "FullAddress":"140 Rosebery Street, Bedford, WA, 6053, Australia",
    "Longitude":115.888789,
    "Latitude":-31.912801
  },
  {
    "SiteID":57875,
    "TenantName":"Howard, Stephanie",
    "Address":"26 Porto Santo Green",
    "City":"Secret Harbour",
    "Region":"Western Australia",
    "PostalCode":"6173",
    "FullAddress":"26 Porto Santo Green, Secret Harbour, Western Australia, 6173, Australia",
    "Longitude":115.750545,
    "Latitude":-32.398758
  }
]