[
  {
    "SiteID":57871,
    "TenantName":"Williams, Luke",
    "Address":"47 South Terrace",
    "City":"Fremantle",
    "Region":"WA",
    "PostalCode":"6169",
    "FullAddress":"47 South Terrace, Fremantle, WA, 6169, Australia",
    "Longitude":115.749459,
    "Latitude":-32.057063
  },
  {
    "SiteID":57871,
    "TenantName":"Turner, Glenn",
    "Address":"250b Kew Street",
    "City":"Kewdale",
    "Region":"WA",
    "PostalCode":"6105",
    "FullAddress":"250b Kew Street, Kewdale, WA, 6105, Australia",
    "Longitude":115.94203,
    "Latitude":-31.97671
  },
  {
    "SiteID":57871,
    "TenantName":"Emery, Edda",
    "Address":"18 Dale Drive",
    "City":"Gooseberry Hill",
    "Region":"WA",
    "PostalCode":"6076",
    "FullAddress":"18 Dale Drive, Gooseberry Hill, WA, 6076, Australia",
    "Longitude":116.04399,
    "Latitude":-31.95618
  },
  {
    "SiteID":57871,
    "TenantName":"Peters, Russell",
    "Address":"42 Edmondson Crescent",
    "City":"Karrinyup",
    "Region":"WA",
    "PostalCode":"6018",
    "FullAddress":"42 Edmondson Crescent, Karrinyup, WA, 6018, Australia",
    "Longitude":115.782267,
    "Latitude":-31.881369
  },
  {
    "SiteID":57871,
    "TenantName":"Christie, Erwin",
    "Address":"PO Box 486",
    "City":"Cloverdale",
    "Region":"WA",
    "PostalCode":"6985",
    "FullAddress":"PO Box 486, Cloverdale, WA, 6985, Australia",
    "Longitude":149.814106,
    "Latitude":-36.663468
  },
  {
    "SiteID":57871,
    "TenantName":"Kinnane, Gary",
    "Address":"187c London st joondanna",
    "City":"Perth",
    "Region":"Wa",
    "PostalCode":"6060",
    "FullAddress":"187c London st joondanna, Perth, Wa, 6060, Australia",
    "Longitude":115.845036,
    "Latitude":-31.910933
  },
  {
    "SiteID":57871,
    "TenantName":"Batterham, Antony",
    "Address":"16 channel drive",
    "City":"heathridge",
    "Region":"w.a",
    "PostalCode":"6027",
    "FullAddress":"16 channel drive, heathridge, w.a, 6027, Australia",
    "Longitude":115.75616,
    "Latitude":-31.76269
  },
  {
    "SiteID":57871,
    "TenantName":"Heseltine, Brendan",
    "Address":"8 Coulson Street",
    "City":"Wilson",
    "Region":"WA",
    "PostalCode":"6107",
    "FullAddress":"8 Coulson Street, Wilson, WA, 6107, Australia",
    "Longitude":115.910272,
    "Latitude":-32.015155
  },
  {
    "SiteID":57871,
    "TenantName":"Poduti, Ebonnie",
    "Address":"22 Pondana Mews",
    "City":"Ballajurra",
    "Region":"WA",
    "PostalCode":"6066",
    "FullAddress":"22 Pondana Mews, Ballajurra, WA, 6066, Australia",
    "Longitude":115.91525,
    "Latitude":-31.84231
  },
  {
    "SiteID":57871,
    "TenantName":"Lee, Alyssa",
    "Address":"48 Mcmaster St",
    "City":"Vic Park",
    "Region":"WA",
    "PostalCode":"6100",
    "FullAddress":"48 Mcmaster St, Vic Park, WA, 6100, Australia",
    "Longitude":115.892102,
    "Latitude":-31.975565
  },
  {
    "SiteID":57871,
    "TenantName":"Bynder, Neil",
    "Address":"259 Johnson Rd",
    "City":"Bertram",
    "Region":"WA",
    "PostalCode":"6167",
    "FullAddress":"259 Johnson Rd, Bertram, WA, 6167, Australia",
    "Longitude":115.847795,
    "Latitude":-32.252089
  },
  {
    "SiteID":57871,
    "TenantName":"Mcfarland, Teal",
    "Address":"15 Gerygone Loop",
    "City":"East Cannington",
    "Region":"WA",
    "PostalCode":"6107",
    "FullAddress":"15 Gerygone Loop, East Cannington, WA, 6107, Australia",
    "Longitude":115.955931,
    "Latitude":-32.008933
  },
  {
    "SiteID":57871,
    "TenantName":"Connor, Miriam",
    "Address":"15 Gull Street",
    "City":"Wungong",
    "Region":"WA",
    "PostalCode":"6112",
    "FullAddress":"15 Gull Street, Wungong, WA, 6112, Australia",
    "Longitude":116.00358,
    "Latitude":-32.18306
  },
  {
    "SiteID":57871,
    "TenantName":"Carter, Alan",
    "Address":"1159 Doodenanning Road",
    "City":"Cunderdin",
    "Region":"WA",
    "PostalCode":"6407",
    "FullAddress":"1159 Doodenanning Road, Cunderdin, WA, 6407, Australia",
    "Longitude":117.059146,
    "Latitude":-31.884054
  },
  {
    "SiteID":57871,
    "TenantName":"Suckling, Jonathan",
    "Address":"29 Silverye Close",
    "City":"East Cannington",
    "Region":"WA",
    "PostalCode":"6107",
    "FullAddress":"29 Silverye Close, East Cannington, WA, 6107, Australia",
    "Longitude":115.9676,
    "Latitude":-32.00385
  },
  {
    "SiteID":57871,
    "TenantName":"Maffina, John",
    "Address":"95 Washington Street",
    "City":"Victoria Park",
    "Region":"WA",
    "PostalCode":"6100",
    "FullAddress":"95 Washington Street, Victoria Park, WA, 6100, Australia",
    "Longitude":115.89085,
    "Latitude":-31.97538
  },
  {
    "SiteID":57871,
    "TenantName":"Law, Sam",
    "Address":"48 Oakhill Heights",
    "City":"Ellenbrook",
    "Region":"WA",
    "PostalCode":"6069",
    "FullAddress":"48 Oakhill Heights, Ellenbrook, WA, 6069, Australia",
    "Longitude":115.964989,
    "Latitude":-31.765668
  },
  {
    "SiteID":57871,
    "TenantName":"Laughton, Craig",
    "Address":"8 Lucca Entrance",
    "City":"Pearsall",
    "Region":"WA",
    "PostalCode":"6965",
    "FullAddress":"8 Lucca Entrance, Pearsall, WA, 6965, Australia",
    "Longitude":115.816821,
    "Latitude":-31.777788
  },
  {
    "SiteID":57871,
    "TenantName":"Gospodinova, Iva",
    "Address":"115\/ 454 Scarborough Beach Rd",
    "City":"Osborne Park",
    "Region":"WA",
    "PostalCode":"6017",
    "FullAddress":"115\/ 454 Scarborough Beach Rd, Osborne Park, WA, 6017, Australia",
    "Longitude":115.8105,
    "Latitude":-31.90624
  },
  {
    "SiteID":57871,
    "TenantName":"Parker, Ali",
    "Address":"Unit 1\/156 Knutsford Ave",
    "City":"Rivervale",
    "Region":"WA",
    "PostalCode":"6103",
    "FullAddress":"Unit 1\/156 Knutsford Ave, Rivervale, WA, 6103, Australia",
    "Longitude":115.92727,
    "Latitude":-31.96366
  },
  {
    "SiteID":57871,
    "TenantName":"Lam, To Hin Adrian",
    "Address":"77 Beazley Aveune",
    "City":"Bentley",
    "Region":"WA",
    "PostalCode":"6102",
    "FullAddress":"77 Beazley Aveune, Bentley, WA, 6102, Australia",
    "Longitude":115.891991,
    "Latitude":-32.002326
  },
  {
    "SiteID":57871,
    "TenantName":"Wilson, Michael",
    "Address":"14 Kelsall Cresant",
    "City":"Manning",
    "Region":"WA",
    "PostalCode":"6152",
    "FullAddress":"14 Kelsall Cresant, Manning, WA, 6152, Australia",
    "Longitude":115.865788,
    "Latitude":-32.008537
  },
  {
    "SiteID":57871,
    "TenantName":"Hackenberg, Frederik",
    "Address":"37 Canterbury Terrace",
    "City":"East Victoria Park",
    "Region":"WA",
    "PostalCode":"6101",
    "FullAddress":"37 Canterbury Terrace, East Victoria Park, WA, 6101, Australia",
    "Longitude":115.901391,
    "Latitude":-31.987525
  },
  {
    "SiteID":57871,
    "TenantName":"Adams, Leah",
    "Address":"67B Gibbs St",
    "City":"East Cannington",
    "Region":"Western Australia",
    "PostalCode":"6107",
    "FullAddress":"67B Gibbs St, East Cannington, Western Australia, 6107, Australia",
    "Longitude":115.95128,
    "Latitude":-32.00976
  },
  {
    "SiteID":57871,
    "TenantName":"Bradley, Peter John",
    "Address":"PO Box 437",
    "City":"Caloundra",
    "Region":"QLD",
    "PostalCode":"4551",
    "FullAddress":"PO Box 437, Caloundra, QLD, 4551, Australia",
    "Longitude":150.423746,
    "Latitude":-34.46109
  },
  {
    "SiteID":57871,
    "TenantName":"Smith, Bernie",
    "Address":"2\/245 Labouchere Road",
    "City":"Como",
    "Region":"WA",
    "PostalCode":"6152",
    "FullAddress":"2\/245 Labouchere Road, Como, WA, 6152, Australia",
    "Longitude":115.86021,
    "Latitude":-32.00065
  },
  {
    "SiteID":57871,
    "TenantName":"Opum, Crystal",
    "Address":"10\/16 Hudson Street",
    "City":"Bayswater",
    "Region":"WA",
    "PostalCode":"6053",
    "FullAddress":"10\/16 Hudson Street, Bayswater, WA, 6053, Australia",
    "Longitude":115.911994,
    "Latitude":-31.910964
  },
  {
    "SiteID":57871,
    "TenantName":"Green, Allen",
    "Address":"14 Ryrie Ave",
    "City":"Como",
    "Region":"WA",
    "PostalCode":"6152",
    "FullAddress":"14 Ryrie Ave, Como, WA, 6152, Australia",
    "Longitude":115.867566,
    "Latitude":-31.994866
  },
  {
    "SiteID":57871,
    "TenantName":"Armstrong, Douglas",
    "Address":"88 Jarrah Road",
    "City":"East Victoria Park",
    "Region":"WA",
    "PostalCode":"6101",
    "FullAddress":"88 Jarrah Road, East Victoria Park, WA, 6101, Australia",
    "Longitude":115.89919,
    "Latitude":-32.0001
  },
  {
    "SiteID":57871,
    "TenantName":"Fyfe, Robert",
    "Address":"172 Carmel Road",
    "City":"Carmel",
    "Region":"WA",
    "PostalCode":"6076",
    "FullAddress":"172 Carmel Road, Carmel, WA, 6076, Australia",
    "Longitude":116.09213,
    "Latitude":-32.02054
  },
  {
    "SiteID":57871,
    "TenantName":"Millar, Joshua",
    "Address":"12 Trinnick Place",
    "City":"Booragoon",
    "Region":"WA",
    "PostalCode":"6154",
    "FullAddress":"12 Trinnick Place, Booragoon, WA, 6154, Australia",
    "Longitude":115.84331,
    "Latitude":-32.04186
  },
  {
    "SiteID":57871,
    "TenantName":"Alban, Maryann",
    "Address":"10 KALLAMA PARADE",
    "City":"MILLARS WELL",
    "Region":"WA",
    "PostalCode":"6714",
    "FullAddress":"10 KALLAMA PARADE, MILLARS WELL, WA, 6714, Australia",
    "Longitude":116.82441,
    "Latitude":-20.73779
  },
  {
    "SiteID":57871,
    "TenantName":"Logan, Kristy",
    "Address":"40A Brixton Street",
    "City":"Beckenham",
    "Region":"WA",
    "PostalCode":"6107",
    "FullAddress":"40A Brixton Street, Beckenham, WA, 6107, Australia",
    "Longitude":115.962998,
    "Latitude":-32.020693
  },
  {
    "SiteID":57871,
    "TenantName":"Macleay, Dudley",
    "Address":"5 Stilt Cove",
    "City":"Cannington",
    "Region":"WA",
    "PostalCode":"6107",
    "FullAddress":"5 Stilt Cove, Cannington, WA, 6107, Australia",
    "Longitude":115.930053,
    "Latitude":-32.005769
  },
  {
    "SiteID":57871,
    "TenantName":"Murugappa, Siva",
    "Address":"8B Joiner Street",
    "City":"Melville",
    "Region":"WA",
    "PostalCode":"6156",
    "FullAddress":"8B Joiner Street, Melville, WA, 6156, Australia",
    "Longitude":115.807751,
    "Latitude":-32.041715
  },
  {
    "SiteID":57871,
    "TenantName":"Washburn Groome, Malissa",
    "Address":"35A Planet Street",
    "City":"Carlisle",
    "Region":"WA",
    "PostalCode":"6101",
    "FullAddress":"35A Planet Street, Carlisle, WA, 6101, Australia",
    "Longitude":115.91182,
    "Latitude":-31.97618
  },
  {
    "SiteID":57871,
    "TenantName":"Falivene, Natalia",
    "Address":"22 St George terrace",
    "City":"Perth",
    "Region":"WA",
    "PostalCode":"6000",
    "FullAddress":"22 St George terrace, Perth, WA, 6000, Australia",
    "Longitude":115.863886,
    "Latitude":-31.956498
  },
  {
    "SiteID":57871,
    "TenantName":"Adams, Craig",
    "Address":"38 Nottingham Street",
    "City":"East Victoria Park",
    "Region":"WA",
    "PostalCode":"6101",
    "FullAddress":"38 Nottingham Street, East Victoria Park, WA, 6101, Australia",
    "Longitude":115.89453,
    "Latitude":-31.99429
  },
  {
    "SiteID":57871,
    "TenantName":"Wu, JC",
    "Address":"4 Picton Rd",
    "City":"East Bunbury",
    "Region":"WA",
    "PostalCode":"6230",
    "FullAddress":"4 Picton Rd, East Bunbury, WA, 6230, Australia",
    "Longitude":115.65808,
    "Latitude":-33.34396
  },
  {
    "SiteID":57871,
    "TenantName":"Lainson, Caan",
    "Address":"37 Austin loop",
    "City":"Karratha",
    "Region":"WA",
    "PostalCode":"6714",
    "FullAddress":"37 Austin loop, Karratha, WA, 6714, Australia",
    "Longitude":116.80187,
    "Latitude":-20.74078
  },
  {
    "SiteID":57871,
    "TenantName":"Perring, Nicola",
    "Address":"200 Norton Prom",
    "City":"Dalyellup",
    "Region":"WA",
    "PostalCode":"6230",
    "FullAddress":"200 Norton Prom, Dalyellup, WA, 6230, Australia",
    "Longitude":115.61735,
    "Latitude":-33.39699
  },
  {
    "SiteID":57871,
    "TenantName":"O'Keefe, Sean",
    "Address":"Unit 8 \/ 966 Albany Hwy",
    "City":"East Vic Park",
    "Region":"WA",
    "PostalCode":"6101",
    "FullAddress":"Unit 8 \/ 966 Albany Hwy, East Vic Park, WA, 6101, Australia",
    "Longitude":115.908236,
    "Latitude":-31.990212
  },
  {
    "SiteID":57871,
    "TenantName":"Hill, Belinder",
    "Address":"Unit 1 \/ 163 Hamilton Street",
    "City":"Queens Park",
    "Region":"WA",
    "PostalCode":"6107",
    "FullAddress":"Unit 1 \/ 163 Hamilton Street, Queens Park, WA, 6107, Australia",
    "Longitude":115.938209,
    "Latitude":-32.001733
  },
  {
    "SiteID":57871,
    "TenantName":"Dunne, Isaac",
    "Address":"6 Spence Court",
    "City":"Leeming",
    "Region":"WA",
    "PostalCode":"6149",
    "FullAddress":"6 Spence Court, Leeming, WA, 6149, Australia",
    "Longitude":115.86604,
    "Latitude":-32.06856
  },
  {
    "SiteID":57871,
    "TenantName":"Wilson, Judith",
    "Address":"54 Young Street",
    "City":"Moulamein",
    "Region":"NSW",
    "PostalCode":"2733",
    "FullAddress":"54 Young Street, Moulamein, NSW, 2733, Australia",
    "Longitude":144.03286,
    "Latitude":-35.086873
  },
  {
    "SiteID":57871,
    "TenantName":"Paul, Simon",
    "Address":"U309\/45 Adelaide Tce",
    "City":"East Perth",
    "Region":"WA",
    "PostalCode":"6004",
    "FullAddress":"U309\/45 Adelaide Tce, East Perth, WA, 6004, Australia",
    "Longitude":115.8753,
    "Latitude":-31.961759
  },
  {
    "SiteID":57871,
    "TenantName":"Linsley, Matt",
    "Address":"Unit 23 6 Manning Tce",
    "City":"South Perth",
    "Region":"WA",
    "PostalCode":"6151",
    "FullAddress":"Unit 23 6 Manning Tce, South Perth, WA, 6151, Australia",
    "Longitude":115.8738,
    "Latitude":-31.97247
  },
  {
    "SiteID":57871,
    "TenantName":"Akerina, Louisa",
    "Address":"U 21 19 Malibu Rd",
    "City":"Safety Bay",
    "Region":"WA",
    "PostalCode":"6169",
    "FullAddress":"U 21 19 Malibu Rd, Safety Bay, WA, 6169, Australia",
    "Longitude":115.733633,
    "Latitude":-32.309003
  },
  {
    "SiteID":57871,
    "TenantName":"Abdalla, Youssef",
    "Address":"29 Simons Way",
    "City":"Langford",
    "Region":"WA",
    "PostalCode":"6147",
    "FullAddress":"29 Simons Way, Langford, WA, 6147, Australia",
    "Longitude":115.940465,
    "Latitude":-32.039884
  },
  {
    "SiteID":57871,
    "TenantName":"Woudberg, Kelly",
    "Address":"PO Box 302",
    "City":"Welshpool DC",
    "Region":"WA",
    "PostalCode":"6986",
    "FullAddress":"PO Box 302, Welshpool DC, WA, 6986, Australia",
    "Longitude":115.949515,
    "Latitude":-31.997412
  },
  {
    "SiteID":57871,
    "TenantName":"Seelander, Damien-martyn",
    "Address":"12 Relucent Way",
    "City":"Baldivis",
    "Region":"WA",
    "PostalCode":"6171",
    "FullAddress":"12 Relucent Way, Baldivis, WA, 6171, Australia",
    "Longitude":115.82779,
    "Latitude":-32.358956
  },
  {
    "SiteID":57871,
    "TenantName":"Ling, Ramona",
    "Address":"29 Simper St",
    "City":"Wembley",
    "Region":"WA",
    "PostalCode":"6014",
    "FullAddress":"29 Simper St, Wembley, WA, 6014, Australia",
    "Longitude":115.808819,
    "Latitude":-31.937596
  },
  {
    "SiteID":57871,
    "TenantName":"Lehman, Gregory",
    "Address":"27 SHIRLEY AVENUE",
    "City":"Mount Pleasant",
    "Region":"WA",
    "PostalCode":"6153",
    "FullAddress":"27 SHIRLEY AVENUE, Mount Pleasant, WA, 6153, Australia",
    "Longitude":115.851804,
    "Latitude":-32.038108
  },
  {
    "SiteID":57871,
    "TenantName":"Ho, Ce Line",
    "Address":"39 Dickenson Way",
    "City":"Booragoon",
    "Region":"WA",
    "PostalCode":"6154",
    "FullAddress":"39 Dickenson Way, Booragoon, WA, 6154, Australia",
    "Longitude":115.82602,
    "Latitude":-32.04433
  },
  {
    "SiteID":57871,
    "TenantName":"Goodhill, Craig",
    "Address":"35 Whitby Pass",
    "City":"High Wycombe",
    "Region":"WA",
    "PostalCode":"6057",
    "FullAddress":"35 Whitby Pass, High Wycombe, WA, 6057, Australia",
    "Longitude":116.004971,
    "Latitude":-31.93067
  },
  {
    "SiteID":57871,
    "TenantName":"Garland, Matt",
    "Address":"18 King George street",
    "City":"Perth",
    "Region":"WA",
    "PostalCode":"6100",
    "FullAddress":"18 King George street, Perth, WA, 6100, Australia",
    "Longitude":115.891958,
    "Latitude":-31.97683
  },
  {
    "SiteID":57871,
    "TenantName":"Gallagher, Simon",
    "Address":"23 Hertford Street",
    "City":"East Vic Park",
    "Region":"WA",
    "PostalCode":"6101",
    "FullAddress":"23 Hertford Street, East Vic Park, WA, 6101, Australia",
    "Longitude":115.975292,
    "Latitude":-31.866428
  },
  {
    "SiteID":57871,
    "TenantName":"Hodges, Alan",
    "Address":"68 Agincourt Drive",
    "City":"Forrestfield",
    "Region":"WA",
    "PostalCode":"6058",
    "FullAddress":"68 Agincourt Drive, Forrestfield, WA, 6058, Australia",
    "Longitude":116.011998,
    "Latitude":-31.996981
  },
  {
    "SiteID":57871,
    "TenantName":"Lulia, Nathan",
    "Address":"31C McMillan Street",
    "City":"Victoria Park",
    "Region":"WA",
    "PostalCode":"6100",
    "FullAddress":"31C McMillan Street, Victoria Park, WA, 6100, Australia",
    "Longitude":115.894615,
    "Latitude":-31.977114
  },
  {
    "SiteID":57871,
    "TenantName":"Waters, Raymond",
    "Address":"80 Sterling Street",
    "City":"Northbridge",
    "Region":"WA",
    "PostalCode":"6000",
    "FullAddress":"80 Sterling Street, Northbridge, WA, 6000, Australia",
    "Longitude":115.864546,
    "Latitude":-31.950111
  },
  {
    "SiteID":57871,
    "TenantName":"Spencer, Dwayne",
    "Address":"28 Mcmanus St",
    "City":"Wilson",
    "Region":"WA",
    "PostalCode":"6107",
    "FullAddress":"28 Mcmanus St, Wilson, WA, 6107, Australia",
    "Longitude":115.90713,
    "Latitude":-32.01908
  },
  {
    "SiteID":57871,
    "TenantName":"Peach, Dennis",
    "Address":"1334 Albany Highway",
    "City":"Cannington",
    "Region":"WA",
    "PostalCode":"6107",
    "FullAddress":"1334 Albany Highway, Cannington, WA, 6107, Australia",
    "Longitude":115.933754,
    "Latitude":-32.016946
  },
  {
    "SiteID":57871,
    "TenantName":"Robinson, William",
    "Address":"10B Glinis Court",
    "City":"Ferndale",
    "Region":"WA",
    "PostalCode":"6148",
    "FullAddress":"10B Glinis Court, Ferndale, WA, 6148, Australia",
    "Longitude":115.91878,
    "Latitude":-32.03513
  },
  {
    "SiteID":57871,
    "TenantName":"Ador, Daniel",
    "Address":"38\/100 Terrace Road",
    "City":"East Perth",
    "Region":"WA",
    "PostalCode":"6004",
    "FullAddress":"38\/100 Terrace Road, East Perth, WA, 6004, Australia",
    "Longitude":115.868491,
    "Latitude":-31.960032
  },
  {
    "SiteID":57871,
    "TenantName":"Gurbuz, Ercan",
    "Address":"1\/14 Barnsley St Queens Park",
    "City":"Perth",
    "Region":"WA",
    "PostalCode":"6107",
    "FullAddress":"1\/14 Barnsley St Queens Park, Perth, WA, 6107, Australia",
    "Longitude":115.946157,
    "Latitude":-32.000268
  },
  {
    "SiteID":57871,
    "TenantName":"Thwaites, Jenni",
    "Address":"56 Queensville Ave",
    "City":"Lynwood",
    "Region":"WA",
    "PostalCode":"6147",
    "FullAddress":"56 Queensville Ave, Lynwood, WA, 6147, Australia",
    "Longitude":115.93073,
    "Latitude":-32.04511
  },
  {
    "SiteID":57871,
    "TenantName":"Naik, Ravi",
    "Address":"7\/11 Tanunda Drive",
    "City":"Rivervale",
    "Region":"WA",
    "PostalCode":"6103",
    "FullAddress":"7\/11 Tanunda Drive, Rivervale, WA, 6103, Australia",
    "Longitude":115.91394,
    "Latitude":-31.95261
  },
  {
    "SiteID":57871,
    "TenantName":"Stamenkovich, Paul",
    "Address":"Unit 17 303 Cambridge St",
    "City":"Wembley",
    "Region":"WA",
    "PostalCode":"6014",
    "FullAddress":"Unit 17 303 Cambridge St, Wembley, WA, 6014, Australia",
    "Longitude":115.8144,
    "Latitude":-31.94113
  },
  {
    "SiteID":57871,
    "TenantName":"Ithau, John",
    "Address":"16\/20 Row Avenue",
    "City":"Rivervale",
    "Region":"WA",
    "PostalCode":"6103",
    "FullAddress":"16\/20 Row Avenue, Rivervale, WA, 6103, Australia",
    "Longitude":115.904978,
    "Latitude":-31.955615
  },
  {
    "SiteID":57871,
    "TenantName":"Frazer, John",
    "Address":"376 Mill Point Road",
    "City":"South Perth",
    "Region":"WA",
    "PostalCode":"6151",
    "FullAddress":"376 Mill Point Road, South Perth, WA, 6151, Australia",
    "Longitude":115.88048,
    "Latitude":-31.97468
  },
  {
    "SiteID":57871,
    "TenantName":"Artan, Khalid",
    "Address":"8\/55 Fisher Street",
    "City":"Belmont",
    "Region":"WA",
    "PostalCode":"6104",
    "FullAddress":"8\/55 Fisher Street, Belmont, WA, 6104, Australia",
    "Longitude":115.932761,
    "Latitude":-31.955214
  },
  {
    "SiteID":57871,
    "TenantName":"Ingram, Terry",
    "Address":"24 Spargel Street",
    "City":"Wellard",
    "Region":"WA",
    "PostalCode":"6170",
    "FullAddress":"24 Spargel Street, Wellard, WA, 6170, Australia",
    "Longitude":115.845446,
    "Latitude":-32.259109
  },
  {
    "SiteID":57871,
    "TenantName":"Cortes, Hilda",
    "Address":"9\/444 Marmion st",
    "City":"Myaree",
    "Region":"WA",
    "PostalCode":"6154",
    "FullAddress":"9\/444 Marmion st, Myaree, WA, 6154, Australia",
    "Longitude":115.80978,
    "Latitude":-32.03926
  },
  {
    "SiteID":57871,
    "TenantName":"Meijs, David",
    "Address":"Unit 1, 101 Swansea St",
    "City":"East  Vic Park",
    "Region":"WA",
    "PostalCode":"6101",
    "FullAddress":"Unit 1, 101 Swansea St, East  Vic Park, WA, 6101, Australia",
    "Longitude":115.90732,
    "Latitude":-31.98709
  },
  {
    "SiteID":57871,
    "TenantName":"Wright, Damien",
    "Address":"255 Vincent st",
    "City":"Leederville",
    "Region":"WA",
    "PostalCode":"6007",
    "FullAddress":"255 Vincent st, Leederville, WA, 6007, Australia",
    "Longitude":115.84539,
    "Latitude":-31.93673
  },
  {
    "SiteID":57871,
    "TenantName":"Turner, Andrew",
    "Address":"30 Custance Street",
    "City":"Lathlain",
    "Region":"WA",
    "PostalCode":"6100",
    "FullAddress":"30 Custance Street, Lathlain, WA, 6100, Australia",
    "Longitude":115.91239,
    "Latitude":-31.96706
  },
  {
    "SiteID":57871,
    "TenantName":"Whitting, Anthony",
    "Address":"29A Armadale Road",
    "City":"Rivervale",
    "Region":"WA",
    "PostalCode":"6103",
    "FullAddress":"29A Armadale Road, Rivervale, WA, 6103, Australia",
    "Longitude":115.911992,
    "Latitude":-31.956851
  },
  {
    "SiteID":57871,
    "TenantName":"Thomas, Lyle",
    "Address":"17 Wilpon St",
    "City":"beckenham",
    "Region":"WA",
    "PostalCode":"6107",
    "FullAddress":"17 Wilpon St, beckenham, WA, 6107, Australia",
    "Longitude":115.95797,
    "Latitude":-32.028
  },
  {
    "SiteID":57871,
    "TenantName":"Quan Sing, Adrian",
    "Address":"1 Balmoral St",
    "City":"East  Perth",
    "Region":"WA",
    "PostalCode":"6101",
    "FullAddress":"1 Balmoral St, East  Perth, WA, 6101, Australia",
    "Longitude":115.90545,
    "Latitude":-31.98908
  },
  {
    "SiteID":57871,
    "TenantName":"Pan, Junwen",
    "Address":"6B Duke Street",
    "City":"Bentley",
    "Region":"WA",
    "PostalCode":"6102",
    "FullAddress":"6B Duke Street, Bentley, WA, 6102, Australia",
    "Longitude":115.918426,
    "Latitude":-32.010316
  },
  {
    "SiteID":57871,
    "TenantName":"McIntyre, Dave",
    "Address":"124 Woolcott Street",
    "City":"Earlwood",
    "Region":"NSW",
    "PostalCode":"2206",
    "FullAddress":"124 Woolcott Street, Earlwood, NSW, 2206, Australia",
    "Longitude":151.118856,
    "Latitude":-33.922307
  },
  {
    "SiteID":57871,
    "TenantName":"Lavington, Rod",
    "Address":"31 Diosma way",
    "City":"Forrestfield",
    "Region":"WA",
    "PostalCode":"6058",
    "FullAddress":"31 Diosma way, Forrestfield, WA, 6058, Australia",
    "Longitude":116.00939,
    "Latitude":-31.98104
  },
  {
    "SiteID":57871,
    "TenantName":"Kaitani, Mario",
    "Address":"Apt 4 \/ 67 Kooyong Road",
    "City":"Rivervale",
    "Region":"WA",
    "PostalCode":"6103",
    "FullAddress":"Apt 4 \/ 67 Kooyong Road, Rivervale, WA, 6103, Australia",
    "Longitude":115.912297,
    "Latitude":-31.959952
  },
  {
    "SiteID":57871,
    "TenantName":"Giannangelo, Lucas",
    "Address":"48 Forward Street",
    "City":"Baldivis",
    "Region":"WA",
    "PostalCode":"6171",
    "FullAddress":"48 Forward Street, Baldivis, WA, 6171, Australia",
    "Longitude":115.806367,
    "Latitude":-32.349789
  },
  {
    "SiteID":57871,
    "TenantName":"Edmondson, Ronda",
    "Address":"79 Seville Street",
    "City":"Cervantes",
    "Region":"WA",
    "PostalCode":"6511",
    "FullAddress":"79 Seville Street, Cervantes, WA, 6511, Australia",
    "Longitude":115.06415,
    "Latitude":-30.50639
  },
  {
    "SiteID":57871,
    "TenantName":"Eades, Connor",
    "Address":"Unit 4 10 Lacey Street",
    "City":"Beckenham",
    "Region":"WA",
    "PostalCode":"6107",
    "FullAddress":"Unit 4 10 Lacey Street, Beckenham, WA, 6107, Australia",
    "Longitude":115.95473,
    "Latitude":-32.01853
  },
  {
    "SiteID":57871,
    "TenantName":"Cooper, Anne",
    "Address":"7 Coronation St",
    "City":"Margaret River",
    "Region":"WA",
    "PostalCode":"6285",
    "FullAddress":"7 Coronation St, Margaret River, WA, 6285, Australia",
    "Longitude":115.07941,
    "Latitude":-33.95244
  },
  {
    "SiteID":57871,
    "TenantName":"Nairn, Joshua",
    "Address":"10 Contour Rd",
    "City":"Rolyestone",
    "Region":"WA",
    "PostalCode":"6111",
    "FullAddress":"10 Contour Rd, Rolyestone, WA, 6111, Australia",
    "Longitude":116.06099,
    "Latitude":-32.12211
  },
  {
    "SiteID":57871,
    "TenantName":"Shipton, Neil",
    "Address":"33 Clover App",
    "City":"Seville Grove",
    "Region":"WA",
    "PostalCode":"6112",
    "FullAddress":"33 Clover App, Seville Grove, WA, 6112, Australia",
    "Longitude":115.985818,
    "Latitude":-32.127164
  },
  {
    "SiteID":57871,
    "TenantName":"Crosby, Katherine",
    "Address":"18 Huntley Close",
    "City":"East Cannington",
    "Region":"WA",
    "PostalCode":"6107",
    "FullAddress":"18 Huntley Close, East Cannington, WA, 6107, Australia",
    "Longitude":115.96696,
    "Latitude":-32.00389
  },
  {
    "SiteID":57871,
    "TenantName":"Nolan, Darryl",
    "Address":"104 Gardiner Street",
    "City":"Belmont",
    "Region":"WA",
    "PostalCode":"6104",
    "FullAddress":"104 Gardiner Street, Belmont, WA, 6104, Australia",
    "Longitude":115.94426,
    "Latitude":-31.94987
  },
  {
    "SiteID":57871,
    "TenantName":"Watson, Jeremy",
    "Address":"10 Quandong Cresent",
    "City":"Nightcliff",
    "Region":"NT",
    "PostalCode":"0801",
    "FullAddress":"10 Quandong Cresent, Nightcliff, NT, 0801, Australia",
    "Longitude":130.847709,
    "Latitude":-12.386076
  },
  {
    "SiteID":57871,
    "TenantName":"Riley, Joshua",
    "Address":"200B Station Strreet",
    "City":"East Cannington",
    "Region":"WA",
    "PostalCode":"6107",
    "FullAddress":"200B Station Strreet, East Cannington, WA, 6107, Australia",
    "Longitude":115.959886,
    "Latitude":-32.007185
  },
  {
    "SiteID":57871,
    "TenantName":"Darlow, Anthony",
    "Address":"85 Great Eastern Highway",
    "City":"Rivervale",
    "Region":"WA",
    "PostalCode":"6103",
    "FullAddress":"85 Great Eastern Highway, Rivervale, WA, 6103, Australia",
    "Longitude":115.911308,
    "Latitude":-31.954457
  },
  {
    "SiteID":57871,
    "TenantName":"Paruchuri, Ram",
    "Address":"22 Perennial Dr",
    "City":"Truganinia",
    "Region":"WA",
    "PostalCode":"3029",
    "FullAddress":"22 Perennial Dr, Truganinia, WA, 3029, Australia",
    "Longitude":144.733813,
    "Latitude":-37.851407
  },
  {
    "SiteID":57871,
    "TenantName":"Murolo, Peter",
    "Address":"378 Settlement Rd,  VIC 3074",
    "City":"Thomastown",
    "Region":"VIC",
    "PostalCode":"3074",
    "FullAddress":"378 Settlement Rd,  VIC 3074, Thomastown, VIC, 3074, Australia",
    "Longitude":145.015972,
    "Latitude":-37.688039
  },
  {
    "SiteID":57871,
    "TenantName":"Mitchell, Alex",
    "Address":"PO Box 245",
    "City":"Cannington",
    "Region":"WA",
    "PostalCode":"6987",
    "FullAddress":"PO Box 245, Cannington, WA, 6987, Australia",
    "Longitude":115.946445,
    "Latitude":-32.01056
  },
  {
    "SiteID":57871,
    "TenantName":"Leca, Pedro",
    "Address":"Unit 4 \/ 984 Albany Hwy",
    "City":"East Vic Park",
    "Region":"WA",
    "PostalCode":"6101",
    "FullAddress":"Unit 4 \/ 984 Albany Hwy, East Vic Park, WA, 6101, Australia",
    "Longitude":115.909788,
    "Latitude":-31.991102
  },
  {
    "SiteID":57871,
    "TenantName":"Atthowe, Adrian",
    "Address":"12 Templar Pass",
    "City":"Wattle Grove",
    "Region":"WA",
    "PostalCode":"6106",
    "FullAddress":"12 Templar Pass, Wattle Grove, WA, 6106, Australia",
    "Longitude":115.991619,
    "Latitude":-32.003237
  },
  {
    "SiteID":57871,
    "TenantName":"Chase, Campbell",
    "Address":"U 56-35 Wellington St",
    "City":"East Perth",
    "Region":"WA",
    "PostalCode":"6004",
    "FullAddress":"U 56-35 Wellington St, East Perth, WA, 6004, Australia",
    "Longitude":115.873621,
    "Latitude":-31.956337
  },
  {
    "SiteID":57871,
    "TenantName":"Ali, Ahmed Haitham",
    "Address":"7 Backwith Loop",
    "City":"Haynes",
    "Region":"WA",
    "PostalCode":"6112",
    "FullAddress":"7 Backwith Loop, Haynes, WA, 6112, Australia",
    "Longitude":115.989902,
    "Latitude":-32.157049
  },
  {
    "SiteID":57871,
    "TenantName":"Davies, Benjamin",
    "Address":"8 Sail Boulevard",
    "City":"Sunset Beach",
    "Region":"WA",
    "PostalCode":"6530",
    "FullAddress":"8 Sail Boulevard, Sunset Beach, WA, 6530, Australia",
    "Longitude":114.624754,
    "Latitude":-28.715439
  },
  {
    "SiteID":57871,
    "TenantName":"Lewis, Brett",
    "Address":"YAKABINDIE STATION Via",
    "City":"LEINSTER",
    "Region":"WA",
    "PostalCode":"6437",
    "FullAddress":"YAKABINDIE STATION Via, LEINSTER, WA, 6437, Australia",
    "Longitude":120.691916,
    "Latitude":-27.914831
  },
  {
    "SiteID":57871,
    "TenantName":"M Robertson, Helen",
    "Address":"50 Feeney Gardens",
    "City":"High WYCOMBE",
    "Region":"WA",
    "PostalCode":"6057",
    "FullAddress":"50 Feeney Gardens, High WYCOMBE, WA, 6057, Australia",
    "Longitude":116.01172,
    "Latitude":-31.95256
  },
  {
    "SiteID":57871,
    "TenantName":"Mitchell, Geoff",
    "Address":"Suite 2.4, 9 Bowman St",
    "City":"South Perth",
    "Region":"WA",
    "PostalCode":"6151",
    "FullAddress":"Suite 2.4, 9 Bowman St, South Perth, WA, 6151, Australia",
    "Longitude":115.849355,
    "Latitude":-31.973556
  },
  {
    "SiteID":57871,
    "TenantName":"Finger, Erik",
    "Address":"136B Keymer Street",
    "City":"Belmont",
    "Region":"WA",
    "PostalCode":"6104",
    "FullAddress":"136B Keymer Street, Belmont, WA, 6104, Australia",
    "Longitude":115.938183,
    "Latitude":-31.946099
  },
  {
    "SiteID":57871,
    "TenantName":"Jackson, Trent",
    "Address":"101 Hampshire St",
    "City":"East Vic Park",
    "Region":"WA",
    "PostalCode":"6101",
    "FullAddress":"101 Hampshire St, East Vic Park, WA, 6101, Australia",
    "Longitude":115.899798,
    "Latitude":-31.991675
  },
  {
    "SiteID":57871,
    "TenantName":"Scott, David",
    "Address":"22A Raleigh Road",
    "City":"Bayswater",
    "Region":"WA",
    "PostalCode":"6053",
    "FullAddress":"22A Raleigh Road, Bayswater, WA, 6053, Australia",
    "Longitude":115.91688,
    "Latitude":-31.91437
  },
  {
    "SiteID":57871,
    "TenantName":"Mason, Danny",
    "Address":"PO 6 Pollock Street",
    "City":"Bentley",
    "Region":"WA",
    "PostalCode":"6102",
    "FullAddress":"PO 6 Pollock Street, Bentley, WA, 6102, Australia",
    "Longitude":115.91082,
    "Latitude":-32.00538
  },
  {
    "SiteID":57871,
    "TenantName":"Hall, Sharna",
    "Address":"111 Wittenoom Rd",
    "City":"High Wycombe",
    "Region":"WA",
    "PostalCode":"6057",
    "FullAddress":"111 Wittenoom Rd, High Wycombe, WA, 6057, Australia",
    "Longitude":115.991546,
    "Latitude":-31.941592
  },
  {
    "SiteID":57871,
    "TenantName":"Tolentino, Rachel",
    "Address":"Unit 2 388 Belgravia Street",
    "City":"Kewdale",
    "Region":"WA",
    "PostalCode":"6105",
    "FullAddress":"Unit 2 388 Belgravia Street, Kewdale, WA, 6105, Australia",
    "Longitude":115.946559,
    "Latitude":-31.964452
  },
  {
    "SiteID":57871,
    "TenantName":"Woodhouse, David",
    "Address":"Unit 182 3 Powell Road",
    "City":"Coogee",
    "Region":"WA",
    "PostalCode":"6166",
    "FullAddress":"Unit 182 3 Powell Road, Coogee, WA, 6166, Australia",
    "Longitude":115.76422,
    "Latitude":-32.113483
  },
  {
    "SiteID":57871,
    "TenantName":"Basto, Edgar",
    "Address":"77 Waterford Ave",
    "City":"Waterford",
    "Region":"WA",
    "PostalCode":"6152",
    "FullAddress":"77 Waterford Ave, Waterford, WA, 6152, Australia",
    "Longitude":115.89015,
    "Latitude":-32.01549
  },
  {
    "SiteID":57871,
    "TenantName":"MCInerney, Vincent",
    "Address":"5 Casserley Way",
    "City":"Lancelin",
    "Region":"WA",
    "PostalCode":"6044",
    "FullAddress":"5 Casserley Way, Lancelin, WA, 6044, Australia",
    "Longitude":115.33497,
    "Latitude":-31.02435
  },
  {
    "SiteID":57871,
    "TenantName":"Ringuet, Angela",
    "Address":"Unit 2 \/ 50 Victoria Street",
    "City":"St James",
    "Region":"WA",
    "PostalCode":"6102",
    "FullAddress":"Unit 2 \/ 50 Victoria Street, St James, WA, 6102, Australia",
    "Longitude":115.912347,
    "Latitude":-32.00085
  },
  {
    "SiteID":57871,
    "TenantName":"Vlok, Christopher",
    "Address":"36 Armour Way",
    "City":"Lesmurdie",
    "Region":"WA",
    "PostalCode":"6017",
    "FullAddress":"36 Armour Way, Lesmurdie, WA, 6017, Australia",
    "Longitude":116.06271,
    "Latitude":-32.00395
  },
  {
    "SiteID":57871,
    "TenantName":"Zare, Pegah",
    "Address":"2B Newhaven Way",
    "City":"Nollamara",
    "Region":"WA",
    "PostalCode":"6061",
    "FullAddress":"2B Newhaven Way, Nollamara, WA, 6061, Australia",
    "Longitude":115.850336,
    "Latitude":-31.876516
  },
  {
    "SiteID":57871,
    "TenantName":"Murphy, Shane P",
    "Address":"13 Beenan Close",
    "City":"Kararawara",
    "Region":"WA",
    "PostalCode":"6152",
    "FullAddress":"13 Beenan Close, Kararawara, WA, 6152, Australia",
    "Longitude":115.875687,
    "Latitude":-32.007331
  },
  {
    "SiteID":57871,
    "TenantName":"Ashburn, Stephen",
    "Address":"27 Second Avenue",
    "City":"Kensington",
    "Region":"WA",
    "PostalCode":"6151",
    "FullAddress":"27 Second Avenue, Kensington, WA, 6151, Australia",
    "Longitude":115.883151,
    "Latitude":-31.977701
  },
  {
    "SiteID":57871,
    "TenantName":"Luckman, Jade",
    "Address":"15 Retusa Street",
    "City":"Beeliar",
    "Region":"WA",
    "PostalCode":"6164",
    "FullAddress":"15 Retusa Street, Beeliar, WA, 6164, Australia",
    "Longitude":115.811135,
    "Latitude":-32.137194
  },
  {
    "SiteID":57871,
    "TenantName":"Perry, Mitchell",
    "Address":"10 Woodloes St",
    "City":"Cannington",
    "Region":"WA",
    "PostalCode":"6107",
    "FullAddress":"10 Woodloes St, Cannington, WA, 6107, Australia",
    "Longitude":115.939659,
    "Latitude":-32.026252
  },
  {
    "SiteID":57871,
    "TenantName":"Ball, Kevin Charles",
    "Address":"23 Monash Avenue",
    "City":"Como",
    "Region":"WA",
    "PostalCode":"6152",
    "FullAddress":"23 Monash Avenue, Como, WA, 6152, Australia",
    "Longitude":115.87139,
    "Latitude":-31.99218
  },
  {
    "SiteID":57871,
    "TenantName":"Amsha, Sophia (Zion)",
    "Address":"PO BOX 7222",
    "City":"Karawarra",
    "Region":"WA",
    "PostalCode":"6152",
    "FullAddress":"PO BOX 7222, Karawarra, WA, 6152, Australia",
    "Longitude":148.1035,
    "Latitude":-35.057863
  },
  {
    "SiteID":57871,
    "TenantName":"Harp-Wortham, Rachael",
    "Address":"5 Shaw close",
    "City":"Brentwood",
    "Region":"WA",
    "PostalCode":"6100",
    "FullAddress":"5 Shaw close, Brentwood, WA, 6100, Australia",
    "Longitude":115.856686,
    "Latitude":-32.043395
  },
  {
    "SiteID":57871,
    "TenantName":"Sinclair, Jeremy",
    "Address":"22 Oriole Way",
    "City":"South Headland",
    "Region":"WA",
    "PostalCode":"6722",
    "FullAddress":"22 Oriole Way, South Headland, WA, 6722, Australia",
    "Longitude":118.61531,
    "Latitude":-20.40438
  },
  {
    "SiteID":57871,
    "TenantName":"Smyth, Barbara",
    "Address":"30 delamere ave",
    "City":"Currambine",
    "Region":"Wa",
    "PostalCode":"6028",
    "FullAddress":"30 delamere ave, Currambine, Wa, 6028, Australia",
    "Longitude":115.740041,
    "Latitude":-31.73709
  },
  {
    "SiteID":57871,
    "TenantName":"Tamarapa, Toni",
    "Address":"unit 11 19 Kelsall Cres",
    "City":"Manning",
    "Region":"WA",
    "PostalCode":"6152",
    "FullAddress":"unit 11 19 Kelsall Cres, Manning, WA, 6152, Australia",
    "Longitude":115.86664,
    "Latitude":-32.00934
  },
  {
    "SiteID":57871,
    "TenantName":"Ragus, Lorraine",
    "Address":"4 Beaconsfield St",
    "City":"St James",
    "Region":"WA",
    "PostalCode":"6102",
    "FullAddress":"4 Beaconsfield St, St James, WA, 6102, Australia",
    "Longitude":115.91031,
    "Latitude":-31.99734
  },
  {
    "SiteID":57871,
    "TenantName":"Mazza, Harry",
    "Address":"811 Welshpool rd",
    "City":"Wattle Grove",
    "Region":"WA",
    "PostalCode":"6107",
    "FullAddress":"811 Welshpool rd, Wattle Grove, WA, 6107, Australia",
    "Longitude":116.007916,
    "Latitude":-32.005521
  },
  {
    "SiteID":57871,
    "TenantName":"Kidson, Josh",
    "Address":"145 Mills Street",
    "City":"Queens Park",
    "Region":"WA",
    "PostalCode":"6106",
    "FullAddress":"145 Mills Street, Queens Park, WA, 6106, Australia",
    "Longitude":115.93783,
    "Latitude":-31.99853
  },
  {
    "SiteID":57871,
    "TenantName":"Hardy, Hayden",
    "Address":"17 Copper Lane",
    "City":"Wattle Grove",
    "Region":"Western Australia",
    "PostalCode":"6107",
    "FullAddress":"17 Copper Lane, Wattle Grove, Western Australia, 6107, Australia",
    "Longitude":115.984511,
    "Latitude":-31.991696
  },
  {
    "SiteID":57871,
    "TenantName":"Wolf, Matthias",
    "Address":"52 View way",
    "City":"Nedlands",
    "Region":"WA",
    "PostalCode":"6009",
    "FullAddress":"52 View way, Nedlands, WA, 6009, Australia",
    "Longitude":116.042166,
    "Latitude":-31.973808
  },
  {
    "SiteID":57871,
    "TenantName":"Rowe, Ellen",
    "Address":"62 Kennard St",
    "City":"Kensington",
    "Region":"WA",
    "PostalCode":"6635",
    "FullAddress":"62 Kennard St, Kensington, WA, 6635, Australia",
    "Longitude":115.89071,
    "Latitude":-31.98498
  },
  {
    "SiteID":57871,
    "TenantName":"Rostron, Allan",
    "Address":"6 Kincaid Cl",
    "City":"Bridgetown",
    "Region":"WA",
    "PostalCode":"6255",
    "FullAddress":"6 Kincaid Cl, Bridgetown, WA, 6255, Australia",
    "Longitude":116.101151,
    "Latitude":-33.951359
  },
  {
    "SiteID":57871,
    "TenantName":"Hughes, John",
    "Address":"101B Roberts Rd",
    "City":"Rivervale",
    "Region":"WA",
    "PostalCode":"6103",
    "FullAddress":"101B Roberts Rd, Rivervale, WA, 6103, Australia",
    "Longitude":115.917162,
    "Latitude":-31.966985
  },
  {
    "SiteID":57871,
    "TenantName":"Hou, Yali",
    "Address":"146A Holbeck St",
    "City":"Doubleview",
    "Region":"WA",
    "PostalCode":"6018",
    "FullAddress":"146A Holbeck St, Doubleview, WA, 6018, Australia",
    "Longitude":115.78512,
    "Latitude":-31.88763
  },
  {
    "SiteID":57871,
    "TenantName":"Fairbrass, Suzanne",
    "Address":"Bromley Farm Walshaw Rd",
    "City":"Boyup Brook",
    "Region":"WA",
    "PostalCode":"6244",
    "FullAddress":"Bromley Farm Walshaw Rd, Boyup Brook, WA, 6244, Australia",
    "Longitude":116.723287,
    "Latitude":-33.819063
  },
  {
    "SiteID":57871,
    "TenantName":"Costar, Stephen",
    "Address":"U 703 8 Moreau Pde",
    "City":"East Perth",
    "Region":"WA",
    "PostalCode":"6004",
    "FullAddress":"U 703 8 Moreau Pde, East Perth, WA, 6004, Australia",
    "Longitude":115.876597,
    "Latitude":-31.960583
  },
  {
    "SiteID":57871,
    "TenantName":"Carberry, Geoff",
    "Address":"4 Naree Rd",
    "City":"Wilson",
    "Region":"WA",
    "PostalCode":"6107",
    "FullAddress":"4 Naree Rd, Wilson, WA, 6107, Australia",
    "Longitude":115.92498,
    "Latitude":-32.01849
  },
  {
    "SiteID":57871,
    "TenantName":"Cagoco, Jethrene",
    "Address":"26 Trotman Ct",
    "City":"Brookdale",
    "Region":"WA",
    "PostalCode":"6112",
    "FullAddress":"26 Trotman Ct, Brookdale, WA, 6112, Australia",
    "Longitude":116.008197,
    "Latitude":-32.172385
  },
  {
    "SiteID":57871,
    "TenantName":"Sidhu, Kulwinder",
    "Address":"202 Gabriel Street",
    "City":"Cloverdale",
    "Region":"WA",
    "PostalCode":"6105",
    "FullAddress":"202 Gabriel Street, Cloverdale, WA, 6105, Australia",
    "Longitude":115.94779,
    "Latitude":-31.96028
  },
  {
    "SiteID":57871,
    "TenantName":"Chisholm, Dean",
    "Address":"1 10 Selkik Drive",
    "City":"Kinross",
    "Region":"WA",
    "PostalCode":"6028",
    "FullAddress":"1 10 Selkik Drive, Kinross, WA, 6028, Australia",
    "Longitude":115.74269,
    "Latitude":-31.718191
  },
  {
    "SiteID":57871,
    "TenantName":"Chen, Si Wen",
    "Address":"28 Montrose St",
    "City":"Lynwood",
    "Region":"WA",
    "PostalCode":"6147",
    "FullAddress":"28 Montrose St, Lynwood, WA, 6147, Australia",
    "Longitude":115.93536,
    "Latitude":-32.03252
  },
  {
    "SiteID":57871,
    "TenantName":"Moffett, Christopher Paul",
    "Address":"6 Anzac St",
    "City":"Bayswater",
    "Region":"WA",
    "PostalCode":"6059",
    "FullAddress":"6 Anzac St, Bayswater, WA, 6059, Australia",
    "Longitude":115.92187,
    "Latitude":-31.92132
  },
  {
    "SiteID":57871,
    "TenantName":"Yang, Seokpyoung",
    "Address":"2 Wannell St",
    "City":"Queens Park",
    "Region":"WA",
    "PostalCode":"6107",
    "FullAddress":"2 Wannell St, Queens Park, WA, 6107, Australia",
    "Longitude":115.950771,
    "Latitude":-32.002809
  },
  {
    "SiteID":57871,
    "TenantName":"Subritzky, Lovely",
    "Address":"7 westbourne way",
    "City":"Linwood",
    "Region":"WA",
    "PostalCode":"6147",
    "FullAddress":"7 westbourne way, Linwood, WA, 6147, Australia",
    "Longitude":115.93269,
    "Latitude":-32.03804
  },
  {
    "SiteID":57871,
    "TenantName":"Kassab, Mounir",
    "Address":"225B South Tce",
    "City":"Como",
    "Region":"WA",
    "PostalCode":"6152",
    "FullAddress":"225B South Tce, Como, WA, 6152, Australia",
    "Longitude":115.880512,
    "Latitude":-31.98916
  },
  {
    "SiteID":57871,
    "TenantName":"McDonald, Byron",
    "Address":"176 Adelaide Terrace",
    "City":"East  Perth",
    "Region":"WA",
    "PostalCode":"6004",
    "FullAddress":"176 Adelaide Terrace, East  Perth, WA, 6004, Australia",
    "Longitude":115.870821,
    "Latitude":-31.959165
  },
  {
    "SiteID":57871,
    "TenantName":"Ross, Anthony",
    "Address":"7 Pyrite Ct",
    "City":"Forrestfield",
    "Region":"WA",
    "PostalCode":"6058",
    "FullAddress":"7 Pyrite Ct, Forrestfield, WA, 6058, Australia",
    "Longitude":115.99368,
    "Latitude":-31.9908
  },
  {
    "SiteID":57871,
    "TenantName":"Mills, Neville",
    "Address":"30 Apollo Way",
    "City":"Carlilse",
    "Region":"WA",
    "PostalCode":"6101",
    "FullAddress":"30 Apollo Way, Carlilse, WA, 6101, Australia",
    "Longitude":115.91755,
    "Latitude":-31.976001
  },
  {
    "SiteID":57871,
    "TenantName":"King, David",
    "Address":"95 Gwenyfred Road",
    "City":"Kensington",
    "Region":"WA",
    "PostalCode":"6151",
    "FullAddress":"95 Gwenyfred Road, Kensington, WA, 6151, Australia",
    "Longitude":115.887081,
    "Latitude":-31.979914
  },
  {
    "SiteID":57871,
    "TenantName":"Pennings, Rod",
    "Address":"28 Burton Street",
    "City":"Cannington",
    "Region":"WA",
    "PostalCode":"6107",
    "FullAddress":"28 Burton Street, Cannington, WA, 6107, Australia",
    "Longitude":115.92349,
    "Latitude":-32.011738
  },
  {
    "SiteID":57871,
    "TenantName":"Brown, Craig",
    "Address":"13-39 Pilbara Street",
    "City":"Welshpool",
    "Region":"WA",
    "PostalCode":"6106",
    "FullAddress":"13-39 Pilbara Street, Welshpool, WA, 6106, Australia",
    "Longitude":115.939465,
    "Latitude":-31.994691
  },
  {
    "SiteID":57871,
    "TenantName":"Woods, Terence",
    "Address":"203 Gabriel St",
    "City":"Cloverdale",
    "Region":"Western Australia",
    "PostalCode":"6105",
    "FullAddress":"203 Gabriel St, Cloverdale, Western Australia, 6105, Australia",
    "Longitude":115.94737,
    "Latitude":-31.95982
  },
  {
    "SiteID":57871,
    "TenantName":"Fall, Rhys",
    "Address":"49 Wooramel Crescent",
    "City":"Gosnells",
    "Region":"WA",
    "PostalCode":"6110",
    "FullAddress":"49 Wooramel Crescent, Gosnells, WA, 6110, Australia",
    "Longitude":115.98153,
    "Latitude":-32.0897
  },
  {
    "SiteID":57871,
    "TenantName":"Alexander, Amanda",
    "Address":"52 Sunbury Road",
    "City":"Victoria Park",
    "Region":"WA",
    "PostalCode":"6100",
    "FullAddress":"52 Sunbury Road, Victoria Park, WA, 6100, Australia",
    "Longitude":115.902915,
    "Latitude":-31.973931
  },
  {
    "SiteID":57871,
    "TenantName":"Wedding, Delorraine",
    "Address":"32C Ticehurst Way",
    "City":"Balga",
    "Region":"WA",
    "PostalCode":"6061",
    "FullAddress":"32C Ticehurst Way, Balga, WA, 6061, Australia",
    "Longitude":115.844932,
    "Latitude":-31.858981
  },
  {
    "SiteID":57871,
    "TenantName":"Wikaira, Lavinia",
    "Address":"24 lyrebird street",
    "City":"Wellard",
    "Region":"WA",
    "PostalCode":"6170",
    "FullAddress":"24 lyrebird street, Wellard, WA, 6170, Australia",
    "Longitude":115.850768,
    "Latitude":-32.271287
  },
  {
    "SiteID":57871,
    "TenantName":"Lewis, Natalee",
    "Address":"73a Alexander road",
    "City":"Rivervale",
    "Region":"WA",
    "PostalCode":"6107",
    "FullAddress":"73a Alexander road, Rivervale, WA, 6107, Australia",
    "Longitude":115.920867,
    "Latitude":-31.96714
  },
  {
    "SiteID":57871,
    "TenantName":"Beaver, Keith",
    "Address":"61A Riseley Street",
    "City":"Ardross",
    "Region":"WA",
    "PostalCode":"6153",
    "FullAddress":"61A Riseley Street, Ardross, WA, 6153, Australia",
    "Longitude":115.837222,
    "Latitude":-32.026457
  },
  {
    "SiteID":57871,
    "TenantName":"Body, Lester",
    "Address":"6 cowrie way",
    "City":"South Hedland",
    "Region":"WA",
    "PostalCode":"6722",
    "FullAddress":"6 cowrie way, South Hedland, WA, 6722, Australia",
    "Longitude":118.615161,
    "Latitude":-20.405461
  },
  {
    "SiteID":57871,
    "TenantName":"George, Belinda",
    "Address":"3 Anderson Road",
    "City":"Forrestfield",
    "Region":"WA",
    "PostalCode":"6058",
    "FullAddress":"3 Anderson Road, Forrestfield, WA, 6058, Australia",
    "Longitude":116.017273,
    "Latitude":-31.985664
  },
  {
    "SiteID":57871,
    "TenantName":"Mildred, Rowan",
    "Address":"Unit 128 11 Marchamley Pl",
    "City":"Carsile",
    "Region":"WA",
    "PostalCode":"6101",
    "FullAddress":"Unit 128 11 Marchamley Pl, Carsile, WA, 6101, Australia",
    "Longitude":115.922148,
    "Latitude":-31.977181
  },
  {
    "SiteID":57871,
    "TenantName":"Foster, Daniel",
    "Address":"8 Gretel Ct",
    "City":"Sunrise Beach",
    "Region":"QLD",
    "PostalCode":"4567",
    "FullAddress":"8 Gretel Ct, Sunrise Beach, QLD, 4567, Australia",
    "Longitude":153.105226,
    "Latitude":-26.414813
  },
  {
    "SiteID":57871,
    "TenantName":"Hogg, Michael",
    "Address":"219 Yates Road",
    "City":"Margaret River",
    "Region":"WA",
    "PostalCode":"6285",
    "FullAddress":"219 Yates Road, Margaret River, WA, 6285, Australia",
    "Longitude":115.018418,
    "Latitude":-33.992203
  },
  {
    "SiteID":57871,
    "TenantName":"Williams, Jonathon",
    "Address":"96 Setosa Dr",
    "City":"Forrestfield",
    "Region":"WA",
    "PostalCode":"6058",
    "FullAddress":"96 Setosa Dr, Forrestfield, WA, 6058, Australia",
    "Longitude":116.014605,
    "Latitude":-31.975073
  },
  {
    "SiteID":57871,
    "TenantName":"Wharewera, Anthony",
    "Address":"19 Grasmere Way",
    "City":"Averley",
    "Region":"WA",
    "PostalCode":"6069",
    "FullAddress":"19 Grasmere Way, Averley, WA, 6069, Australia",
    "Longitude":115.997598,
    "Latitude":-31.785941
  },
  {
    "SiteID":57871,
    "TenantName":"Vercruysse, Paulien",
    "Address":"U6 38 McMaster Street",
    "City":"Victoria Park",
    "Region":"Western Australia",
    "PostalCode":"6100",
    "FullAddress":"U6 38 McMaster Street, Victoria Park, Western Australia, 6100, Australia",
    "Longitude":115.893038,
    "Latitude":-31.974804
  },
  {
    "SiteID":57871,
    "TenantName":"Steel, Samantha",
    "Address":"71 Streatley Rd",
    "City":"Lathlain",
    "Region":"WA",
    "PostalCode":"6100",
    "FullAddress":"71 Streatley Rd, Lathlain, WA, 6100, Australia",
    "Longitude":115.90991,
    "Latitude":-31.96526
  },
  {
    "SiteID":57871,
    "TenantName":"Spence, Robert",
    "Address":"53 Woolandra Dr",
    "City":"Byford",
    "Region":"WA",
    "PostalCode":"6122",
    "FullAddress":"53 Woolandra Dr, Byford, WA, 6122, Australia",
    "Longitude":115.989769,
    "Latitude":-32.225955
  },
  {
    "SiteID":57871,
    "TenantName":"Ryan, Braydon",
    "Address":"8 Morton Ave",
    "City":"Wellard",
    "Region":"WA",
    "PostalCode":"6170",
    "FullAddress":"8 Morton Ave, Wellard, WA, 6170, Australia",
    "Longitude":115.823896,
    "Latitude":-32.274284
  },
  {
    "SiteID":57871,
    "TenantName":"Rodney, Milton",
    "Address":"13 Oriana St",
    "City":"Belmont",
    "Region":"WA",
    "PostalCode":"6104",
    "FullAddress":"13 Oriana St, Belmont, WA, 6104, Australia",
    "Longitude":115.9321,
    "Latitude":-31.94938
  },
  {
    "SiteID":57871,
    "TenantName":"Preece, Daya",
    "Address":"2 River Drive",
    "City":"Rocky Point",
    "Region":"QLD",
    "PostalCode":"4874",
    "FullAddress":"2 River Drive, Rocky Point, QLD, 4874, Australia",
    "Longitude":141.876342,
    "Latitude":-12.626001
  },
  {
    "SiteID":57871,
    "TenantName":"Marsh, Rodney",
    "Address":"43 Valley View Road",
    "City":"Rolley",
    "Region":"WA",
    "PostalCode":"6111",
    "FullAddress":"43 Valley View Road, Rolley, WA, 6111, Australia",
    "Longitude":116.07931,
    "Latitude":-32.11302
  },
  {
    "SiteID":57871,
    "TenantName":"Lee-Steere, David",
    "Address":"112 Hordern St, Victoria Park",
    "City":"Perth",
    "Region":"WA",
    "PostalCode":"6100",
    "FullAddress":"112 Hordern St, Victoria Park, Perth, WA, 6100, Australia",
    "Longitude":115.893737,
    "Latitude":-31.974321
  },
  {
    "SiteID":57871,
    "TenantName":"Krans, Jay",
    "Address":"2 Cornish Crescent",
    "City":"manning",
    "Region":"WA",
    "PostalCode":"6152",
    "FullAddress":"2 Cornish Crescent, manning, WA, 6152, Australia",
    "Longitude":115.866326,
    "Latitude":-32.017792
  },
  {
    "SiteID":57871,
    "TenantName":"Frew, Richard",
    "Address":"32 April Close",
    "City":"Bullsbrook",
    "Region":"WA",
    "PostalCode":"6084",
    "FullAddress":"32 April Close, Bullsbrook, WA, 6084, Australia",
    "Longitude":116.047212,
    "Latitude":-31.642721
  },
  {
    "SiteID":57871,
    "TenantName":"Ellement, Benjamin",
    "Address":"6 Pecan Ct",
    "City":"South Lake",
    "Region":"WA",
    "PostalCode":"6164",
    "FullAddress":"6 Pecan Ct, South Lake, WA, 6164, Australia",
    "Longitude":115.83022,
    "Latitude":-32.10562
  },
  {
    "SiteID":57871,
    "TenantName":"Crowhurst, Aron J",
    "Address":"123b Westminster St",
    "City":"E Victoria Park",
    "Region":"WA",
    "PostalCode":"6101",
    "FullAddress":"123b Westminster St, E Victoria Park, WA, 6101, Australia",
    "Longitude":115.896517,
    "Latitude":-31.993144
  },
  {
    "SiteID":57871,
    "TenantName":"Conocono, Pernel",
    "Address":"28A Raleigh St",
    "City":"Belmont",
    "Region":"WA",
    "PostalCode":"6104",
    "FullAddress":"28A Raleigh St, Belmont, WA, 6104, Australia",
    "Longitude":115.937068,
    "Latitude":-31.946402
  },
  {
    "SiteID":57871,
    "TenantName":"Coggins, Liah",
    "Address":"U2 32 Saunders Street",
    "City":"Como",
    "Region":"WA",
    "PostalCode":"6152",
    "FullAddress":"U2 32 Saunders Street, Como, WA, 6152, Australia",
    "Longitude":115.864708,
    "Latitude":-32.000758
  },
  {
    "SiteID":57871,
    "TenantName":"Brunsdon, Nuttanich",
    "Address":"Unit 5\/953 Albany Highway",
    "City":"East Victoria Park",
    "Region":"WA",
    "PostalCode":"61501",
    "FullAddress":"Unit 5\/953 Albany Highway, East Victoria Park, WA, 61501, Australia",
    "Longitude":117.855236,
    "Latitude":-34.990096
  },
  {
    "SiteID":57871,
    "TenantName":"Badawy, Mahmud",
    "Address":"1\/101 Belmot ave",
    "City":"Belmont",
    "Region":"WA",
    "PostalCode":"6104",
    "FullAddress":"1\/101 Belmot ave, Belmont, WA, 6104, Australia",
    "Longitude":115.923528,
    "Latitude":-31.957302
  },
  {
    "SiteID":57871,
    "TenantName":"Andison, Colin",
    "Address":"83 Abernethy Rd",
    "City":"Belmont",
    "Region":"WA",
    "PostalCode":"6104",
    "FullAddress":"83 Abernethy Rd, Belmont, WA, 6104, Australia",
    "Longitude":115.924,
    "Latitude":-31.95161
  },
  {
    "SiteID":57871,
    "TenantName":"Ahern, Troy",
    "Address":"4 Daglish Road",
    "City":"Redcliff",
    "Region":"WA",
    "PostalCode":"6104",
    "FullAddress":"4 Daglish Road, Redcliff, WA, 6104, Australia",
    "Longitude":115.95131,
    "Latitude":-31.95213
  },
  {
    "SiteID":57871,
    "TenantName":"Pearson, Drew",
    "Address":"21 Bromfield drive Kelmscott",
    "City":"Perth",
    "Region":"Wa",
    "PostalCode":"6000",
    "FullAddress":"21 Bromfield drive Kelmscott, Perth, Wa, 6000, Australia",
    "Longitude":116.03982,
    "Latitude":-32.12868
  },
  {
    "SiteID":57871,
    "TenantName":"Ashworth, Martyn",
    "Address":"35 Jasmin Promenade",
    "City":"Byford",
    "Region":"WA",
    "PostalCode":"6122",
    "FullAddress":"35 Jasmin Promenade, Byford, WA, 6122, Australia",
    "Longitude":115.99737,
    "Latitude":-32.205726
  },
  {
    "SiteID":57871,
    "TenantName":"Vitale, Russell",
    "Address":"33 Just St",
    "City":"Goonellabah",
    "Region":"NSW",
    "PostalCode":"2480",
    "FullAddress":"33 Just St, Goonellabah, NSW, 2480, Australia",
    "Longitude":153.333165,
    "Latitude":-28.824741
  },
  {
    "SiteID":57871,
    "TenantName":"Pereira, Fernando",
    "Address":"Unit 17\/67 Ley St",
    "City":"Como",
    "Region":"WA",
    "PostalCode":"6152",
    "FullAddress":"Unit 17\/67 Ley St, Como, WA, 6152, Australia",
    "Longitude":115.86345,
    "Latitude":-32.01377
  },
  {
    "SiteID":57871,
    "TenantName":"Quarmby, Adam J",
    "Address":"16 Milford Way",
    "City":"Nollamara",
    "Region":"WA",
    "PostalCode":"6061",
    "FullAddress":"16 Milford Way, Nollamara, WA, 6061, Australia",
    "Longitude":115.84172,
    "Latitude":-31.88826
  },
  {
    "SiteID":57871,
    "TenantName":"Argiroffi, Frank",
    "Address":"36 Westminster St",
    "City":"East Vic Park",
    "Region":"WA",
    "PostalCode":"6101",
    "FullAddress":"36 Westminster St, East Vic Park, WA, 6101, Australia",
    "Longitude":115.90272,
    "Latitude":-31.98874
  },
  {
    "SiteID":57871,
    "TenantName":"Gilsoul, Romain",
    "Address":"144B Station street",
    "City":"East Cannington",
    "Region":"WA",
    "PostalCode":"6107",
    "FullAddress":"144B Station street, East Cannington, WA, 6107, Australia",
    "Longitude":115.955138,
    "Latitude":-32.011728
  },
  {
    "SiteID":57871,
    "TenantName":"Islam, Rashedul",
    "Address":"14 Scholar Terrace",
    "City":"Coobellup",
    "Region":"WA",
    "PostalCode":"6163.",
    "FullAddress":"14 Scholar Terrace, Coobellup, WA, 6163., Australia",
    "Longitude":115.802902,
    "Latitude":-32.079328
  },
  {
    "SiteID":57871,
    "TenantName":"Kumar, Vijay",
    "Address":"4 Plumosa Way",
    "City":"Wattle Grove",
    "Region":"WA",
    "PostalCode":"6107",
    "FullAddress":"4 Plumosa Way, Wattle Grove, WA, 6107, Australia",
    "Longitude":115.988317,
    "Latitude":-31.994815
  },
  {
    "SiteID":57871,
    "TenantName":"Tang, Tung Yew \"Nicholas\"",
    "Address":"4\/11 Alday Street",
    "City":"Saint James",
    "Region":"WA",
    "PostalCode":"6102",
    "FullAddress":"4\/11 Alday Street, Saint James, WA, 6102, Australia",
    "Longitude":115.91068,
    "Latitude":-31.99371
  },
  {
    "SiteID":57871,
    "TenantName":"Brodie, Rhys",
    "Address":"2\/11 Heppingstone Street",
    "City":"South Perth",
    "Region":"WA",
    "PostalCode":"6151",
    "FullAddress":"2\/11 Heppingstone Street, South Perth, WA, 6151, Australia",
    "Longitude":115.8795,
    "Latitude":-31.97367
  },
  {
    "SiteID":57871,
    "TenantName":"Blaquiere, Peter",
    "Address":"44 Kennerly Street",
    "City":"Cloverdale",
    "Region":"WA",
    "PostalCode":"6105",
    "FullAddress":"44 Kennerly Street, Cloverdale, WA, 6105, Australia",
    "Longitude":115.94663,
    "Latitude":-31.95903
  },
  {
    "SiteID":57871,
    "TenantName":"Bartlett, Shayne",
    "Address":"1 Landra Loop",
    "City":"Willetton",
    "Region":"WA",
    "PostalCode":"6155",
    "FullAddress":"1 Landra Loop, Willetton, WA, 6155, Australia",
    "Longitude":115.882331,
    "Latitude":-32.064889
  },
  {
    "SiteID":57871,
    "TenantName":"Callus-gannon, Marc",
    "Address":"2 croydon street",
    "City":"Perth",
    "Region":"Western Australia",
    "PostalCode":"6059",
    "FullAddress":"2 croydon street, Perth, Western Australia, 6059, Australia",
    "Longitude":115.884648,
    "Latitude":-31.898199
  },
  {
    "SiteID":57871,
    "TenantName":"Miners, Brayden",
    "Address":"199 treasure rd",
    "City":"Queens Park",
    "Region":"WA",
    "PostalCode":"6107",
    "FullAddress":"199 treasure rd, Queens Park, WA, 6107, Australia",
    "Longitude":115.94456,
    "Latitude":-31.9998
  },
  {
    "SiteID":57871,
    "TenantName":"Whitby, Delveen",
    "Address":"32 Holden St",
    "City":"Carnarvon",
    "Region":"WA",
    "PostalCode":"6701",
    "FullAddress":"32 Holden St, Carnarvon, WA, 6701, Australia",
    "Longitude":113.68611,
    "Latitude":-24.8712
  },
  {
    "SiteID":57871,
    "TenantName":"O'Shea, Norman",
    "Address":"78B Morrison St",
    "City":"Redcliffe",
    "Region":"WA",
    "PostalCode":"6104",
    "FullAddress":"78B Morrison St, Redcliffe, WA, 6104, Australia",
    "Longitude":115.9455,
    "Latitude":-31.94011
  },
  {
    "SiteID":57871,
    "TenantName":"Hor, Henson",
    "Address":"13 Russel St",
    "City":"East Cannington",
    "Region":"WA",
    "PostalCode":"6148",
    "FullAddress":"13 Russel St, East Cannington, WA, 6148, Australia",
    "Longitude":115.955062,
    "Latitude":-32.007626
  },
  {
    "SiteID":57871,
    "TenantName":"Hamilton, Craig",
    "Address":"113 Fruit Tree Cresent",
    "City":"Forrestfeild",
    "Region":"WA",
    "PostalCode":"6058",
    "FullAddress":"113 Fruit Tree Cresent, Forrestfeild, WA, 6058, Australia",
    "Longitude":116.00717,
    "Latitude":-31.96647
  },
  {
    "SiteID":57871,
    "TenantName":"Snook, Ena",
    "Address":"25 Vanda Place",
    "City":"Maddington",
    "Region":"WA",
    "PostalCode":"6109",
    "FullAddress":"25 Vanda Place, Maddington, WA, 6109, Australia",
    "Longitude":115.99884,
    "Latitude":-32.0555
  },
  {
    "SiteID":57871,
    "TenantName":"Routledge, Inga",
    "Address":"280 Fifth Street",
    "City":"Geraldton",
    "Region":"WA",
    "PostalCode":"6530",
    "FullAddress":"280 Fifth Street, Geraldton, WA, 6530, Australia",
    "Longitude":114.63358,
    "Latitude":-28.76541
  },
  {
    "SiteID":57871,
    "TenantName":"Hsu, Jeremy",
    "Address":"16 Gibney Ave",
    "City":"Mt Hawthorn",
    "Region":"WA",
    "PostalCode":"6016",
    "FullAddress":"16 Gibney Ave, Mt Hawthorn, WA, 6016, Australia",
    "Longitude":115.825887,
    "Latitude":-31.915022
  },
  {
    "SiteID":57871,
    "TenantName":"Murphy, Eoin",
    "Address":"5 Leigh court",
    "City":"Marangaroo",
    "Region":"WA",
    "PostalCode":"6104",
    "FullAddress":"5 Leigh court, Marangaroo, WA, 6104, Australia",
    "Longitude":115.82901,
    "Latitude":-31.83068
  },
  {
    "SiteID":57871,
    "TenantName":"Teo, Aaron",
    "Address":"267 Hamersley Road",
    "City":"Subiaco",
    "Region":"WA",
    "PostalCode":"6008",
    "FullAddress":"267 Hamersley Road, Subiaco, WA, 6008, Australia",
    "Longitude":115.815838,
    "Latitude":-31.952609
  },
  {
    "SiteID":57871,
    "TenantName":"Bradford, Morgan",
    "Address":"7 St James Place",
    "City":"Greenfields",
    "Region":"WA",
    "PostalCode":"6210",
    "FullAddress":"7 St James Place, Greenfields, WA, 6210, Australia",
    "Longitude":115.75832,
    "Latitude":-32.52712
  },
  {
    "SiteID":57871,
    "TenantName":"Nicholls, Allan",
    "Address":"Unit 13 78 Gladstone Road",
    "City":"Rivervale",
    "Region":"WA",
    "PostalCode":"6103",
    "FullAddress":"Unit 13 78 Gladstone Road, Rivervale, WA, 6103, Australia",
    "Longitude":115.909501,
    "Latitude":-31.962882
  },
  {
    "SiteID":57871,
    "TenantName":"Gwilt, Hannah",
    "Address":"117c Hordern Street",
    "City":"Victoria Park",
    "Region":"WA",
    "PostalCode":"6100",
    "FullAddress":"117c Hordern Street, Victoria Park, WA, 6100, Australia",
    "Longitude":115.893474,
    "Latitude":-31.9749
  },
  {
    "SiteID":57871,
    "TenantName":"Ali, Toorab",
    "Address":"20 Downsborough Avenue",
    "City":"Kewdale",
    "Region":"WA",
    "PostalCode":"6105",
    "FullAddress":"20 Downsborough Avenue, Kewdale, WA, 6105, Australia",
    "Longitude":115.94217,
    "Latitude":-31.97955
  },
  {
    "SiteID":57871,
    "TenantName":"Phan, Anh",
    "Address":"157A Park St",
    "City":"Henley Brook",
    "Region":"WA",
    "PostalCode":"6055",
    "FullAddress":"157A Park St, Henley Brook, WA, 6055, Australia",
    "Longitude":115.984095,
    "Latitude":-31.814824
  },
  {
    "SiteID":57871,
    "TenantName":"Zhang, David",
    "Address":"david.zhang@engytechservices.com.au",
    "City":"pymble",
    "Region":"New South Wales",
    "PostalCode":"2148",
    "FullAddress":"david.zhang@engytechservices.com.au, pymble, New South Wales, 2148, Australia",
    "Longitude":151.14319,
    "Latitude":-33.74568
  },
  {
    "SiteID":57871,
    "TenantName":"Walkley, Andrew",
    "Address":"36 Baddesley Way",
    "City":"Canning Vale",
    "Region":"WA",
    "PostalCode":"6155",
    "FullAddress":"36 Baddesley Way, Canning Vale, WA, 6155, Australia",
    "Longitude":115.937403,
    "Latitude":-32.079541
  },
  {
    "SiteID":57871,
    "TenantName":"Virtue, Erica",
    "Address":"18 Leach Ave",
    "City":"Riverton",
    "Region":"WA",
    "PostalCode":"6148",
    "FullAddress":"18 Leach Ave, Riverton, WA, 6148, Australia",
    "Longitude":115.896691,
    "Latitude":-32.035821
  },
  {
    "SiteID":57871,
    "TenantName":"Tuckwell, Anne",
    "Address":"Suite 20 - 443 Albany Highway",
    "City":"Victoria Park",
    "Region":"WA",
    "PostalCode":"6100",
    "FullAddress":"Suite 20 - 443 Albany Highway, Victoria Park, WA, 6100, Australia",
    "Longitude":115.897465,
    "Latitude":-31.976052
  },
  {
    "SiteID":57871,
    "TenantName":"Trent, Jason",
    "Address":"13 Timbrell Way",
    "City":"Leeming",
    "Region":"WA",
    "PostalCode":"6149",
    "FullAddress":"13 Timbrell Way, Leeming, WA, 6149, Australia",
    "Longitude":115.87962,
    "Latitude":-32.07173
  },
  {
    "SiteID":57871,
    "TenantName":"Rolle, Daniel",
    "Address":"10 Canterbury Terrace",
    "City":"East Victoria Park",
    "Region":"WA",
    "PostalCode":"6101",
    "FullAddress":"10 Canterbury Terrace, East Victoria Park, WA, 6101, Australia",
    "Longitude":115.903174,
    "Latitude":-31.986602
  },
  {
    "SiteID":57871,
    "TenantName":"Ramsamy, Herbert",
    "Address":"16 Selbourne Road",
    "City":"Southern River",
    "Region":"WA",
    "PostalCode":"6110",
    "FullAddress":"16 Selbourne Road, Southern River, WA, 6110, Australia",
    "Longitude":115.951083,
    "Latitude":-32.100835
  },
  {
    "SiteID":57871,
    "TenantName":"Haselwood, Patrick",
    "Address":"41 Ludlow Mews",
    "City":"Ballajura",
    "Region":"WA",
    "PostalCode":"6066",
    "FullAddress":"41 Ludlow Mews, Ballajura, WA, 6066, Australia",
    "Longitude":115.9048,
    "Latitude":-31.84895
  },
  {
    "SiteID":57871,
    "TenantName":"Warnock, Andrea",
    "Address":"1 Frederic Street",
    "City":"KOONGAMIA",
    "Region":"WA",
    "PostalCode":"6056",
    "FullAddress":"1 Frederic Street, KOONGAMIA, WA, 6056, Australia",
    "Longitude":116.038316,
    "Latitude":-31.909714
  },
  {
    "SiteID":57871,
    "TenantName":"Galton, Nigel",
    "Address":"U 22\/27 Burton St",
    "City":"Bentley",
    "Region":"WA",
    "PostalCode":"6102",
    "FullAddress":"U 22\/27 Burton St, Bentley, WA, 6102, Australia",
    "Longitude":115.922617,
    "Latitude":-32.011282
  },
  {
    "SiteID":57871,
    "TenantName":"Webb, Donna",
    "Address":"18 Myrtle Street",
    "City":"Perth",
    "Region":"WA",
    "PostalCode":"6000",
    "FullAddress":"18 Myrtle Street, Perth, WA, 6000, Australia",
    "Longitude":115.85855,
    "Latitude":-31.93921
  },
  {
    "SiteID":57871,
    "TenantName":"Sharp, Katriona",
    "Address":"237 George Street",
    "City":"Queens Park",
    "Region":"WA",
    "PostalCode":"6107",
    "FullAddress":"237 George Street, Queens Park, WA, 6107, Australia",
    "Longitude":115.94706,
    "Latitude":-32.00171
  },
  {
    "SiteID":57871,
    "TenantName":"Myhre, Eirik",
    "Address":"Gamle Kongeveg 54",
    "City":"Verdal",
    "Region":"Norway",
    "PostalCode":"7650",
    "FullAddress":"Gamle Kongeveg 54, Verdal, Norway, 7650, Australia",
    "Longitude":138.650652,
    "Latitude":-34.940999
  },
  {
    "SiteID":57871,
    "TenantName":"Lyons, Jeffrey",
    "Address":"30 Chalice Way",
    "City":"Baldivis",
    "Region":"WA",
    "PostalCode":"6171",
    "FullAddress":"30 Chalice Way, Baldivis, WA, 6171, Australia",
    "Longitude":115.815388,
    "Latitude":-32.352369
  },
  {
    "SiteID":57871,
    "TenantName":"Kraus, Aidan",
    "Address":"128 Hubbert Street",
    "City":"Victoria Park",
    "Region":"WA",
    "PostalCode":"6101",
    "FullAddress":"128 Hubbert Street, Victoria Park, WA, 6101, Australia",
    "Longitude":115.90789,
    "Latitude":-31.988478
  },
  {
    "SiteID":57871,
    "TenantName":"Higgins, Donald",
    "Address":"Unit 34, 60 Forrest Ave",
    "City":"East  Perth",
    "Region":"WA",
    "PostalCode":"6004",
    "FullAddress":"Unit 34, 60 Forrest Ave, East  Perth, WA, 6004, Australia",
    "Longitude":115.875605,
    "Latitude":-31.957621
  },
  {
    "SiteID":57871,
    "TenantName":"Ferrinda, Christine",
    "Address":"Unit 4 144 Gwenyfred Road",
    "City":"Kensington",
    "Region":"WA",
    "PostalCode":"6151",
    "FullAddress":"Unit 4 144 Gwenyfred Road, Kensington, WA, 6151, Australia",
    "Longitude":115.89089,
    "Latitude":-31.98208
  },
  {
    "SiteID":57871,
    "TenantName":"Edwards, Peter",
    "Address":"29 Lifestle Lane",
    "City":"Champions Lake",
    "Region":"WA",
    "PostalCode":"6111",
    "FullAddress":"29 Lifestle Lane, Champions Lake, WA, 6111, Australia",
    "Longitude":117.89275,
    "Latitude":-34.991558
  },
  {
    "SiteID":57871,
    "TenantName":"Cooke, Melanie",
    "Address":"12 Brinkley St",
    "City":"Cannington",
    "Region":"WA",
    "PostalCode":"6107",
    "FullAddress":"12 Brinkley St, Cannington, WA, 6107, Australia",
    "Longitude":115.92828,
    "Latitude":-32.01098
  },
  {
    "SiteID":57871,
    "TenantName":"Bevan, Nicole",
    "Address":"u 2 103 planet Street",
    "City":"Carlisle",
    "Region":"WA",
    "PostalCode":"6101",
    "FullAddress":"u 2 103 planet Street, Carlisle, WA, 6101, Australia",
    "Longitude":115.917222,
    "Latitude":-31.980814
  },
  {
    "SiteID":57871,
    "TenantName":"Singh, Jora",
    "Address":"Unit C 105 Mills Street",
    "City":"Queens Park",
    "Region":"WA",
    "PostalCode":"6107",
    "FullAddress":"Unit C 105 Mills Street, Queens Park, WA, 6107, Australia",
    "Longitude":115.933723,
    "Latitude":-32.002075
  },
  {
    "SiteID":57871,
    "TenantName":"Aysa, Ertan",
    "Address":"Unit 3 5 Pulchella St",
    "City":"Wattle Grove",
    "Region":"WA",
    "PostalCode":"6107",
    "FullAddress":"Unit 3 5 Pulchella St, Wattle Grove, WA, 6107, Australia",
    "Longitude":115.992085,
    "Latitude":-31.996321
  },
  {
    "SiteID":57871,
    "TenantName":"Ferdinands, Vernon",
    "Address":"Unit 3, 143 South Terrace",
    "City":"Como",
    "Region":"WA",
    "PostalCode":"6152",
    "FullAddress":"Unit 3, 143 South Terrace, Como, WA, 6152, Australia",
    "Longitude":115.869576,
    "Latitude":-31.988901
  },
  {
    "SiteID":57871,
    "TenantName":"Good, Jennifer",
    "Address":"U4\/2 Mill Gate Rd",
    "City":"Balga",
    "Region":"WA",
    "PostalCode":"6061",
    "FullAddress":"U4\/2 Mill Gate Rd, Balga, WA, 6061, Australia",
    "Longitude":118.552395,
    "Latitude":-31.467091
  },
  {
    "SiteID":57871,
    "TenantName":"Hoon, Jui",
    "Address":"257 Shepperton Road",
    "City":"East Victoria Park",
    "Region":"WA",
    "PostalCode":"6101",
    "FullAddress":"257 Shepperton Road, East Victoria Park, WA, 6101, Australia",
    "Longitude":115.90627,
    "Latitude":-31.98327
  },
  {
    "SiteID":57871,
    "TenantName":"Crosswell, Darryl",
    "Address":"Unit 2 Great Eastern Highway",
    "City":"Rivervale",
    "Region":"WA",
    "PostalCode":"6103",
    "FullAddress":"Unit 2 Great Eastern Highway, Rivervale, WA, 6103, Australia",
    "Longitude":121.4515,
    "Latitude":-30.76482
  },
  {
    "SiteID":57871,
    "TenantName":"Weerawardena, Chirantha",
    "Address":"17A Parklands Sq",
    "City":"Riverton",
    "Region":"WA",
    "PostalCode":"6148",
    "FullAddress":"17A Parklands Sq, Riverton, WA, 6148, Australia",
    "Longitude":115.891858,
    "Latitude":-32.034955
  },
  {
    "SiteID":57871,
    "TenantName":"Young, Reece",
    "Address":"34 Riverside Road",
    "City":"EAST FREMANTLE",
    "Region":"WA",
    "PostalCode":"6158",
    "FullAddress":"34 Riverside Road, EAST FREMANTLE, WA, 6158, Australia",
    "Longitude":115.763355,
    "Latitude":-32.03505
  },
  {
    "SiteID":57871,
    "TenantName":"Carrabba, Tony",
    "Address":"13 Ancheron Road",
    "City":"San Remo",
    "Region":"WA",
    "PostalCode":"6210",
    "FullAddress":"13 Ancheron Road, San Remo, WA, 6210, Australia",
    "Longitude":115.74436,
    "Latitude":-32.49033
  },
  {
    "SiteID":57871,
    "TenantName":"Macnish, Liam",
    "Address":"15 Valmae Road",
    "City":"Riverton",
    "Region":"WA",
    "PostalCode":"6148",
    "FullAddress":"15 Valmae Road, Riverton, WA, 6148, Australia",
    "Longitude":115.88119,
    "Latitude":-32.03711
  },
  {
    "SiteID":57871,
    "TenantName":"Santa Maria, Jade",
    "Address":"35 Lyons Street",
    "City":"Rivervale",
    "Region":"WA",
    "PostalCode":"6103",
    "FullAddress":"35 Lyons Street, Rivervale, WA, 6103, Australia",
    "Longitude":115.92293,
    "Latitude":-31.96115
  },
  {
    "SiteID":57871,
    "TenantName":"Thompson, Matt",
    "Address":"16 Cormack Court",
    "City":"Heathmont",
    "Region":"VIC",
    "PostalCode":"3155",
    "FullAddress":"16 Cormack Court, Heathmont, VIC, 3155, Australia",
    "Longitude":145.239647,
    "Latitude":-37.824293
  },
  {
    "SiteID":57871,
    "TenantName":"Emmett, Ruth",
    "Address":"4 Lorikeet Loop",
    "City":"High Wycombe",
    "Region":"WA",
    "PostalCode":"6057",
    "FullAddress":"4 Lorikeet Loop, High Wycombe, WA, 6057, Australia",
    "Longitude":115.99489,
    "Latitude":-31.94719
  },
  {
    "SiteID":57871,
    "TenantName":"Cooper, Roger",
    "Address":"105 Camboon Rd",
    "City":"Noranda",
    "Region":"WA",
    "PostalCode":"6062",
    "FullAddress":"105 Camboon Rd, Noranda, WA, 6062, Australia",
    "Longitude":115.88851,
    "Latitude":-31.8731
  },
  {
    "SiteID":57871,
    "TenantName":"Canini, Vivien",
    "Address":"PO Box 4412",
    "City":"Victoria Park",
    "Region":"WA",
    "PostalCode":"6979",
    "FullAddress":"PO Box 4412, Victoria Park, WA, 6979, Australia",
    "Longitude":115.865565,
    "Latitude":-31.957197
  },
  {
    "SiteID":57871,
    "TenantName":"Chandler, Kerry",
    "Address":"8 Darbon Crescent",
    "City":"Subiaco",
    "Region":"WA",
    "PostalCode":"6008",
    "FullAddress":"8 Darbon Crescent, Subiaco, WA, 6008, Australia",
    "Longitude":115.819843,
    "Latitude":-31.945656
  },
  {
    "SiteID":57871,
    "TenantName":"Van Assen, Rudy",
    "Address":"157 Lakeside Dr",
    "City":"Helena Valley",
    "Region":"WA",
    "PostalCode":"6056",
    "FullAddress":"157 Lakeside Dr, Helena Valley, WA, 6056, Australia",
    "Longitude":116.03245,
    "Latitude":-31.91547
  },
  {
    "SiteID":57871,
    "TenantName":"Taylor, Michael",
    "Address":"U 305 88 Dow St",
    "City":"Port Melbourne",
    "Region":"VIC",
    "PostalCode":"3207",
    "FullAddress":"U 305 88 Dow St, Port Melbourne, VIC, 3207, Australia",
    "Longitude":144.941281,
    "Latitude":-37.841983
  },
  {
    "SiteID":57871,
    "TenantName":"Sidanta, Fendy",
    "Address":"Unit 701\/18 Cecil Ave",
    "City":"Cannington",
    "Region":"WA",
    "PostalCode":"6107",
    "FullAddress":"Unit 701\/18 Cecil Ave, Cannington, WA, 6107, Australia",
    "Longitude":115.936531,
    "Latitude":-32.01668
  },
  {
    "SiteID":57871,
    "TenantName":"Robinson, Fiona",
    "Address":"7 White Street",
    "City":"Fremantle",
    "Region":"WA",
    "PostalCode":"6159",
    "FullAddress":"7 White Street, Fremantle, WA, 6159, Australia",
    "Longitude":115.753844,
    "Latitude":-32.032163
  },
  {
    "SiteID":57871,
    "TenantName":"Portugal, Malena",
    "Address":"24 Melaleuca Tce",
    "City":"Halls Head",
    "Region":"WA",
    "PostalCode":"6210",
    "FullAddress":"24 Melaleuca Tce, Halls Head, WA, 6210, Australia",
    "Longitude":115.69366,
    "Latitude":-32.54384
  },
  {
    "SiteID":57871,
    "TenantName":"Palmer, Geoff",
    "Address":"63 Mills Rd",
    "City":"Gosnells",
    "Region":"WA",
    "PostalCode":"6110",
    "FullAddress":"63 Mills Rd, Gosnells, WA, 6110, Australia",
    "Longitude":116.00352,
    "Latitude":-32.06816
  },
  {
    "SiteID":57871,
    "TenantName":"Michael, Paulo De Guzman",
    "Address":"5\/5 Pearl Road",
    "City":"Cloverdale",
    "Region":"WA",
    "PostalCode":"6105",
    "FullAddress":"5\/5 Pearl Road, Cloverdale, WA, 6105, Australia",
    "Longitude":115.94656,
    "Latitude":-31.96178
  },
  {
    "SiteID":57871,
    "TenantName":"Lemut, Silvio",
    "Address":"1 Michelle St",
    "City":"Wilson",
    "Region":"WA",
    "PostalCode":"6107",
    "FullAddress":"1 Michelle St, Wilson, WA, 6107, Australia",
    "Longitude":115.911062,
    "Latitude":-32.0223
  },
  {
    "SiteID":57871,
    "TenantName":"Kluck, Taya",
    "Address":"19 Robertson Rd",
    "City":"Ledge Point",
    "Region":"WA",
    "PostalCode":"6043",
    "FullAddress":"19 Robertson Rd, Ledge Point, WA, 6043, Australia",
    "Longitude":115.3733,
    "Latitude":-31.10281
  },
  {
    "SiteID":57871,
    "TenantName":"King, Greg",
    "Address":"89 Arthur Road",
    "City":"Wattle Grove",
    "Region":"WA",
    "PostalCode":"6107",
    "FullAddress":"89 Arthur Road, Wattle Grove, WA, 6107, Australia",
    "Longitude":115.99338,
    "Latitude":-32.003703
  },
  {
    "SiteID":57871,
    "TenantName":"Fernandes, Aaron",
    "Address":"U 6 21 Tuam St",
    "City":"Victoria Park",
    "Region":"WA",
    "PostalCode":"6100",
    "FullAddress":"U 6 21 Tuam St, Victoria Park, WA, 6100, Australia",
    "Longitude":115.89812,
    "Latitude":-31.98192
  },
  {
    "SiteID":57871,
    "TenantName":"Chambers, Mark",
    "Address":"7 Westland Place",
    "City":"Waterford",
    "Region":"WA",
    "PostalCode":"6152",
    "FullAddress":"7 Westland Place, Waterford, WA, 6152, Australia",
    "Longitude":115.88685,
    "Latitude":-32.0144
  },
  {
    "SiteID":57871,
    "TenantName":"Cai-frazer., Melissa",
    "Address":"11\/8 Hampton Street",
    "City":"Burswood",
    "Region":"WA",
    "PostalCode":"6100",
    "FullAddress":"11\/8 Hampton Street, Burswood, WA, 6100, Australia",
    "Longitude":115.898622,
    "Latitude":-31.969559
  },
  {
    "SiteID":57871,
    "TenantName":"Budhathoki, Sarishma",
    "Address":"4\/57 Bank street",
    "City":"East Victoria Park",
    "Region":"WA",
    "PostalCode":"6101",
    "FullAddress":"4\/57 Bank street, East Victoria Park, WA, 6101, Australia",
    "Longitude":115.90981,
    "Latitude":-31.98045
  },
  {
    "SiteID":57871,
    "TenantName":"Acott, Renee",
    "Address":"1 Riverina Drive",
    "City":"ASCOT",
    "Region":"WA",
    "PostalCode":"6104",
    "FullAddress":"1 Riverina Drive, ASCOT, WA, 6104, Australia",
    "Longitude":115.91745,
    "Latitude":-31.93945
  },
  {
    "SiteID":57871,
    "TenantName":"Tolson and Co, Accounts",
    "Address":"PO Box 3050",
    "City":"Perth",
    "Region":"WA",
    "PostalCode":"6832",
    "FullAddress":"PO Box 3050, Perth, WA, 6832, Australia",
    "Longitude":116.002131,
    "Latitude":-31.790914
  },
  {
    "SiteID":57871,
    "TenantName":"Laudzevics, Ingrid",
    "Address":"155 Woodcote Cres",
    "City":"Girraween",
    "Region":"NT",
    "PostalCode":"0835",
    "FullAddress":"155 Woodcote Cres, Girraween, NT, 0835, Australia",
    "Longitude":131.121897,
    "Latitude":-12.545519
  },
  {
    "SiteID":57871,
    "TenantName":"Milkovits, David",
    "Address":"PO Box 194",
    "City":"Riverton",
    "Region":"WA",
    "PostalCode":"6148",
    "FullAddress":"PO Box 194, Riverton, WA, 6148, Australia",
    "Longitude":115.86461,
    "Latitude":-32.036367
  },
  {
    "SiteID":57871,
    "TenantName":"Davies Slate, Stuart",
    "Address":"68A Ryrie Ave",
    "City":"Como",
    "Region":"WA",
    "PostalCode":"6152",
    "FullAddress":"68A Ryrie Ave, Como, WA, 6152, Australia",
    "Longitude":115.87372,
    "Latitude":-31.99483
  },
  {
    "SiteID":57871,
    "TenantName":"Suiter, Owen",
    "Address":"Unit 23 1 Silas Street",
    "City":"East Fremantle",
    "Region":"WA",
    "PostalCode":"6158",
    "FullAddress":"Unit 23 1 Silas Street, East Fremantle, WA, 6158, Australia",
    "Longitude":115.764145,
    "Latitude":-32.041207
  },
  {
    "SiteID":57871,
    "TenantName":"Deng, Xiongqiang",
    "Address":"Unit 2 30 Gibbs St",
    "City":"East Cannington",
    "Region":"WA",
    "PostalCode":"6107",
    "FullAddress":"Unit 2 30 Gibbs St, East Cannington, WA, 6107, Australia",
    "Longitude":115.947985,
    "Latitude":-32.011629
  },
  {
    "SiteID":57871,
    "TenantName":"Pingan, Zenaida",
    "Address":"28 Dugald Way",
    "City":"Bilgarra",
    "Region":"WA",
    "PostalCode":"6714",
    "FullAddress":"28 Dugald Way, Bilgarra, WA, 6714, Australia",
    "Longitude":116.852105,
    "Latitude":-20.728548
  },
  {
    "SiteID":57871,
    "TenantName":"Young, Norman",
    "Address":"9 Lorimer St",
    "City":"Clarkson",
    "Region":"WA",
    "PostalCode":"6063",
    "FullAddress":"9 Lorimer St, Clarkson, WA, 6063, Australia",
    "Longitude":115.732511,
    "Latitude":-31.685279
  },
  {
    "SiteID":57871,
    "TenantName":"Ishiguchi, Aaron",
    "Address":"51 Lacey Street",
    "City":"East Cannington",
    "Region":"WA",
    "PostalCode":"6107",
    "FullAddress":"51 Lacey Street, East Cannington, WA, 6107, Australia",
    "Longitude":115.95656,
    "Latitude":-32.01586
  },
  {
    "SiteID":57871,
    "TenantName":"Mccreery, Lisa",
    "Address":"695 Barrack Road",
    "City":"Tammin",
    "Region":"WA",
    "PostalCode":"6409",
    "FullAddress":"695 Barrack Road, Tammin, WA, 6409, Australia",
    "Longitude":117.412406,
    "Latitude":-31.647129
  },
  {
    "SiteID":57871,
    "TenantName":"Ginumbaga, Juliet",
    "Address":"2H \/ 66 Great eastern hwy",
    "City":"Rivervale",
    "Region":"WA",
    "PostalCode":"6103",
    "FullAddress":"2H \/ 66 Great eastern hwy, Rivervale, WA, 6103, Australia",
    "Longitude":115.911177,
    "Latitude":-31.953261
  },
  {
    "SiteID":57871,
    "TenantName":"Roldan, John (Redd)",
    "Address":"1 Floyd Crss",
    "City":"Usher",
    "Region":"WA",
    "PostalCode":"6230",
    "FullAddress":"1 Floyd Crss, Usher, WA, 6230, Australia",
    "Longitude":115.63452,
    "Latitude":-33.37615
  },
  {
    "SiteID":57871,
    "TenantName":"Walker, David",
    "Address":"U39\/50 Moondine Drive",
    "City":"Wembley",
    "Region":"WA",
    "PostalCode":"6017",
    "FullAddress":"U39\/50 Moondine Drive, Wembley, WA, 6017, Australia",
    "Longitude":115.811379,
    "Latitude":-31.929072
  },
  {
    "SiteID":57871,
    "TenantName":"Bolton, Lauressa",
    "Address":"35 Ulcombe Street",
    "City":"Kenwick",
    "Region":"Western Australia",
    "PostalCode":"6107",
    "FullAddress":"35 Ulcombe Street, Kenwick, Western Australia, 6107, Australia",
    "Longitude":115.97585,
    "Latitude":-32.03848
  },
  {
    "SiteID":57871,
    "TenantName":"Zuideveld, Ben",
    "Address":"24 Harry Way",
    "City":"Willeton",
    "Region":"WA",
    "PostalCode":"6155",
    "FullAddress":"24 Harry Way, Willeton, WA, 6155, Australia",
    "Longitude":115.87773,
    "Latitude":-32.04604
  },
  {
    "SiteID":57871,
    "TenantName":"Ahmed, Kamarul",
    "Address":"79A Armstrong Dr",
    "City":"Wilson",
    "Region":"WA",
    "PostalCode":"6107",
    "FullAddress":"79A Armstrong Dr, Wilson, WA, 6107, Australia",
    "Longitude":115.908657,
    "Latitude":-32.018366
  },
  {
    "SiteID":57871,
    "TenantName":"Pahi, Todd",
    "Address":"2\/9 Callan Close",
    "City":"Waterford",
    "Region":"WA",
    "PostalCode":"6152",
    "FullAddress":"2\/9 Callan Close, Waterford, WA, 6152, Australia",
    "Longitude":115.88955,
    "Latitude":-32.01307
  },
  {
    "SiteID":57871,
    "TenantName":"Vasiliades, Jasmine",
    "Address":"433 University Boulevard",
    "City":"Bentley",
    "Region":"WA",
    "PostalCode":"6102",
    "FullAddress":"433 University Boulevard, Bentley, WA, 6102, Australia",
    "Longitude":115.891137,
    "Latitude":-32.001235
  },
  {
    "SiteID":57871,
    "TenantName":"Wood, Georgie",
    "Address":"59 Henry Lawson Walk",
    "City":"East Perth",
    "Region":"WA",
    "PostalCode":"6004",
    "FullAddress":"59 Henry Lawson Walk, East Perth, WA, 6004, Australia",
    "Longitude":115.877799,
    "Latitude":-31.951343
  },
  {
    "SiteID":57871,
    "TenantName":"Loiacono, Pippa",
    "Address":"10 Susan st",
    "City":"Kensington",
    "Region":"WA",
    "PostalCode":"6151",
    "FullAddress":"10 Susan st, Kensington, WA, 6151, Australia",
    "Longitude":115.8891,
    "Latitude":-31.98024
  },
  {
    "SiteID":57871,
    "TenantName":"Hofer, Richard",
    "Address":"22 Crawshaw Cres",
    "City":"Manning",
    "Region":"WA",
    "PostalCode":"6152",
    "FullAddress":"22 Crawshaw Cres, Manning, WA, 6152, Australia",
    "Longitude":115.867383,
    "Latitude":-32.006759
  },
  {
    "SiteID":57871,
    "TenantName":"Beal, Lisa",
    "Address":"34 Eucalyptus Drive",
    "City":"Hammond Park",
    "Region":"WA",
    "PostalCode":"6146",
    "FullAddress":"34 Eucalyptus Drive, Hammond Park, WA, 6146, Australia",
    "Longitude":115.845878,
    "Latitude":-32.166468
  },
  {
    "SiteID":57871,
    "TenantName":"Johnson, Matt",
    "Address":"18 Woodsome Street",
    "City":"Mount Lawley",
    "Region":"WA",
    "PostalCode":"6050",
    "FullAddress":"18 Woodsome Street, Mount Lawley, WA, 6050, Australia",
    "Longitude":115.86657,
    "Latitude":-31.92588
  },
  {
    "SiteID":57871,
    "TenantName":"Reid, Jacqueline",
    "Address":"14 Carson Street",
    "City":"East Victoria Park",
    "Region":"WA",
    "PostalCode":"6101",
    "FullAddress":"14 Carson Street, East Victoria Park, WA, 6101, Australia",
    "Longitude":115.906061,
    "Latitude":-31.991909
  },
  {
    "SiteID":57871,
    "TenantName":"Walrond, Nigel",
    "Address":"U 80 22 St Georges Tce",
    "City":"Perth",
    "Region":"WA",
    "PostalCode":"6000",
    "FullAddress":"U 80 22 St Georges Tce, Perth, WA, 6000, Australia",
    "Longitude":115.863886,
    "Latitude":-31.956498
  },
  {
    "SiteID":57871,
    "TenantName":"Hedges, Scott",
    "Address":"Unit 6, 5 Parkview Parade",
    "City":"Redcliff",
    "Region":"WA",
    "PostalCode":"6104",
    "FullAddress":"Unit 6, 5 Parkview Parade, Redcliff, WA, 6104, Australia",
    "Longitude":115.943341,
    "Latitude":-31.944945
  },
  {
    "SiteID":57871,
    "TenantName":"Adams, Sereah",
    "Address":"20 Coniston Way",
    "City":"Ferndale",
    "Region":"WA",
    "PostalCode":"6148",
    "FullAddress":"20 Coniston Way, Ferndale, WA, 6148, Australia",
    "Longitude":115.92143,
    "Latitude":-32.0311
  },
  {
    "SiteID":57871,
    "TenantName":"Hajsiuk, Matthew",
    "Address":"41C Planet Street",
    "City":"Carlilse",
    "Region":"WA",
    "PostalCode":"6101",
    "FullAddress":"41C Planet Street, Carlilse, WA, 6101, Australia",
    "Longitude":115.912275,
    "Latitude":-31.976565
  },
  {
    "SiteID":57871,
    "TenantName":"Best, Breanne",
    "Address":"57 Wilson Street",
    "City":"Grass Valley",
    "Region":"WA",
    "PostalCode":"6403",
    "FullAddress":"57 Wilson Street, Grass Valley, WA, 6403, Australia",
    "Longitude":116.796176,
    "Latitude":-31.636965
  },
  {
    "SiteID":57871,
    "TenantName":"Wells, Donna",
    "Address":"344 Preston Point Road",
    "City":"Attadale",
    "Region":"WA",
    "PostalCode":"6156",
    "FullAddress":"344 Preston Point Road, Attadale, WA, 6156, Australia",
    "Longitude":115.799282,
    "Latitude":-32.032374
  },
  {
    "SiteID":57871,
    "TenantName":"Dunstan, Phillip",
    "Address":"40 Corbel Street",
    "City":"Shelley",
    "Region":"WA",
    "PostalCode":"6148",
    "FullAddress":"40 Corbel Street, Shelley, WA, 6148, Australia",
    "Longitude":115.890034,
    "Latitude":-32.026235
  },
  {
    "SiteID":57871,
    "TenantName":"Haddad, Tami",
    "Address":"Unit  2 6 Lawrence Street",
    "City":"Como",
    "Region":"WA",
    "PostalCode":"6152",
    "FullAddress":"Unit  2 6 Lawrence Street, Como, WA, 6152, Australia",
    "Longitude":115.868811,
    "Latitude":-31.999697
  },
  {
    "SiteID":57871,
    "TenantName":"Baqerzadeh, Ali",
    "Address":"31B Hartfield Street",
    "City":"Queens Park",
    "Region":"WA",
    "PostalCode":"6107",
    "FullAddress":"31B Hartfield Street, Queens Park, WA, 6107, Australia",
    "Longitude":115.946967,
    "Latitude":-31.999209
  },
  {
    "SiteID":57871,
    "TenantName":"Samat, Malek",
    "Address":"37 Woodloes Street",
    "City":"Cannington",
    "Region":"WA",
    "PostalCode":"6107",
    "FullAddress":"37 Woodloes Street, Cannington, WA, 6107, Australia",
    "Longitude":115.941316,
    "Latitude":-32.02721
  },
  {
    "SiteID":57871,
    "TenantName":"Donaldson, Brian",
    "Address":"14 Rowlands Street, Unit 5",
    "City":"Maylands",
    "Region":"WA",
    "PostalCode":"6051",
    "FullAddress":"14 Rowlands Street, Unit 5, Maylands, WA, 6051, Australia",
    "Longitude":115.895497,
    "Latitude":-31.928727
  },
  {
    "SiteID":57871,
    "TenantName":"Ure, Duncan",
    "Address":"c\/o Level 33, 250 St. Georges Terrace",
    "City":"Perth",
    "Region":"WA",
    "PostalCode":"6000",
    "FullAddress":"c\/o Level 33, 250 St. Georges Terrace, Perth, WA, 6000, Australia",
    "Longitude":115.850764,
    "Latitude":-31.951926
  },
  {
    "SiteID":57871,
    "TenantName":"Wilson, Christopher",
    "Address":"42 Juers Street",
    "City":"Kingston",
    "Region":"QLD",
    "PostalCode":"4114",
    "FullAddress":"42 Juers Street, Kingston, QLD, 4114, Australia",
    "Longitude":153.113076,
    "Latitude":-27.660004
  },
  {
    "SiteID":57871,
    "TenantName":"Li, Zhenhui",
    "Address":"14 Monash Ave",
    "City":"Como",
    "Region":"WA",
    "PostalCode":"6152",
    "FullAddress":"14 Monash Ave, Como, WA, 6152, Australia",
    "Longitude":115.87033,
    "Latitude":-31.99154
  },
  {
    "SiteID":57871,
    "TenantName":"Smith, Pamela",
    "Address":"6\/198 Labouchere Road",
    "City":"Como",
    "Region":"WA",
    "PostalCode":"6152",
    "FullAddress":"6\/198 Labouchere Road, Como, WA, 6152, Australia",
    "Longitude":115.86094,
    "Latitude":-31.99582
  },
  {
    "SiteID":57871,
    "TenantName":"Reindler, Christopher",
    "Address":"26 Thelma Street",
    "City":"Como",
    "Region":"WA",
    "PostalCode":"6152",
    "FullAddress":"26 Thelma Street, Como, WA, 6152, Australia",
    "Longitude":115.85935,
    "Latitude":-31.99594
  },
  {
    "SiteID":57871,
    "TenantName":"Miszcak, Tom",
    "Address":"14 Clarence Street",
    "City":"South Perth",
    "Region":"WA",
    "PostalCode":"6151",
    "FullAddress":"14 Clarence Street, South Perth, WA, 6151, Australia",
    "Longitude":115.857977,
    "Latitude":-31.97798
  },
  {
    "SiteID":57871,
    "TenantName":"Le Busque, Sophie",
    "Address":"PO Box 309",
    "City":"Bullsbrook",
    "Region":"WA",
    "PostalCode":"6084",
    "FullAddress":"PO Box 309, Bullsbrook, WA, 6084, Australia",
    "Longitude":116.026908,
    "Latitude":-31.670846
  },
  {
    "SiteID":57871,
    "TenantName":"Frost, Harry",
    "Address":"27 Aster Ave",
    "City":"Willetton",
    "Region":"WA",
    "PostalCode":"6155",
    "FullAddress":"27 Aster Ave, Willetton, WA, 6155, Australia",
    "Longitude":115.88517,
    "Latitude":-32.04633
  },
  {
    "SiteID":57871,
    "TenantName":"Egan, Ryan",
    "Address":"13 Maude Street",
    "City":"East  Vic Park",
    "Region":"WA",
    "PostalCode":"6101",
    "FullAddress":"13 Maude Street, East  Vic Park, WA, 6101, Australia",
    "Longitude":115.910919,
    "Latitude":-31.98706
  },
  {
    "SiteID":57871,
    "TenantName":"Trainor, Kristeena",
    "Address":"15 prinsep crescent",
    "City":"Collie",
    "Region":"WA",
    "PostalCode":"6225",
    "FullAddress":"15 prinsep crescent, Collie, WA, 6225, Australia",
    "Longitude":116.14373,
    "Latitude":-33.3679
  },
  {
    "SiteID":57871,
    "TenantName":"Shearing, Anika",
    "Address":"Unit 3\/57 Thelma Street",
    "City":"Como",
    "Region":"WA",
    "PostalCode":"6152",
    "FullAddress":"Unit 3\/57 Thelma Street, Como, WA, 6152, Australia",
    "Longitude":115.86552,
    "Latitude":-31.99653
  },
  {
    "SiteID":57871,
    "TenantName":"Kirk, Justin",
    "Address":"42 Sydenham Street",
    "City":"Kewdale",
    "Region":"WA",
    "PostalCode":"6105",
    "FullAddress":"42 Sydenham Street, Kewdale, WA, 6105, Australia",
    "Longitude":115.92187,
    "Latitude":-31.97079
  },
  {
    "SiteID":57871,
    "TenantName":"Kininmont, Gilmour",
    "Address":"2 Haig Park Cir",
    "City":"East Perth",
    "Region":"WA",
    "PostalCode":"6004",
    "FullAddress":"2 Haig Park Cir, East Perth, WA, 6004, Australia",
    "Longitude":115.87908,
    "Latitude":-31.95392
  },
  {
    "SiteID":57871,
    "TenantName":"Malla, Manoj Kumar",
    "Address":"10 Solingen Way",
    "City":"Piara Waters",
    "Region":"WA",
    "PostalCode":"6112",
    "FullAddress":"10 Solingen Way, Piara Waters, WA, 6112, Australia",
    "Longitude":115.928154,
    "Latitude":-32.136072
  },
  {
    "SiteID":57871,
    "TenantName":"Pedersen, Thida",
    "Address":"61 Horsley Road",
    "City":"Denmark",
    "Region":"WA",
    "PostalCode":"6333",
    "FullAddress":"61 Horsley Road, Denmark, WA, 6333, Australia",
    "Longitude":117.35218,
    "Latitude":-34.95372
  },
  {
    "SiteID":57871,
    "TenantName":"Powell, Tracey",
    "Address":"28 Nollamarra Ave",
    "City":"Nollamara",
    "Region":"WA",
    "PostalCode":"6061",
    "FullAddress":"28 Nollamarra Ave, Nollamara, WA, 6061, Australia",
    "Longitude":115.83882,
    "Latitude":-31.88338
  },
  {
    "SiteID":57871,
    "TenantName":"Hall, Chris",
    "Address":"112 Mackie street",
    "City":"Victoria Park",
    "Region":"WA",
    "PostalCode":"6100",
    "FullAddress":"112 Mackie street, Victoria Park, WA, 6100, Australia",
    "Longitude":115.88718,
    "Latitude":-31.97805
  },
  {
    "SiteID":57871,
    "TenantName":"Tait, Nancy",
    "Address":"Unit 11 65 Wittenoom St",
    "City":"East Perth",
    "Region":"WA",
    "PostalCode":"6004",
    "FullAddress":"Unit 11 65 Wittenoom St, East Perth, WA, 6004, Australia",
    "Longitude":115.87473,
    "Latitude":-31.95383
  },
  {
    "SiteID":57871,
    "TenantName":"Weir, Gary",
    "Address":"23 Brodie Road (North)",
    "City":"Lonsdale",
    "Region":"SA",
    "PostalCode":"5162",
    "FullAddress":"23 Brodie Road (North), Lonsdale, SA, 5162, Australia",
    "Longitude":138.507742,
    "Latitude":-35.10339
  },
  {
    "SiteID":57871,
    "TenantName":"Onno, James",
    "Address":"44\/6 McMaster Street",
    "City":"VICTORIA PARK",
    "Region":"WA",
    "PostalCode":"6100",
    "FullAddress":"44\/6 McMaster Street, VICTORIA PARK, WA, 6100, Australia",
    "Longitude":115.89534,
    "Latitude":-31.972895
  },
  {
    "SiteID":57871,
    "TenantName":"Hala, Richard",
    "Address":"133 Hardeyu Road",
    "City":"Belmont",
    "Region":"WA",
    "PostalCode":"6104",
    "FullAddress":"133 Hardeyu Road, Belmont, WA, 6104, Australia",
    "Longitude":115.93501,
    "Latitude":-31.94694
  },
  {
    "SiteID":57871,
    "TenantName":"Pope, Amanda",
    "Address":"20 Lang Road",
    "City":"Mundijong",
    "Region":"WA",
    "PostalCode":"6123",
    "FullAddress":"20 Lang Road, Mundijong, WA, 6123, Australia",
    "Longitude":115.9797,
    "Latitude":-32.27928
  },
  {
    "SiteID":57871,
    "TenantName":"Ellery, Jacob",
    "Address":"12\/125 Glouchester",
    "City":"East  Vic Park",
    "Region":"WA",
    "PostalCode":"6001",
    "FullAddress":"12\/125 Glouchester, East  Vic Park, WA, 6001, Australia",
    "Longitude":115.89084,
    "Latitude":-31.97822
  },
  {
    "SiteID":57871,
    "TenantName":"Thorburn, Rogan",
    "Address":"14 Colahan Way",
    "City":"Ferndale",
    "Region":"WA",
    "PostalCode":"6148",
    "FullAddress":"14 Colahan Way, Ferndale, WA, 6148, Australia",
    "Longitude":115.93391,
    "Latitude":-32.02623
  },
  {
    "SiteID":57871,
    "TenantName":"Tangaraja, Darlene",
    "Address":"13 Mullingar Close",
    "City":"Waterford",
    "Region":"WA",
    "PostalCode":"6152",
    "FullAddress":"13 Mullingar Close, Waterford, WA, 6152, Australia",
    "Longitude":115.88748,
    "Latitude":-32.01622
  },
  {
    "SiteID":57871,
    "TenantName":"Santini, Madaline",
    "Address":"57 Hapshire Street",
    "City":"East Vic Park",
    "Region":"WA",
    "PostalCode":"6101",
    "FullAddress":"57 Hapshire Street, East Vic Park, WA, 6101, Australia",
    "Longitude":115.9019,
    "Latitude":-31.98989
  },
  {
    "SiteID":57871,
    "TenantName":"O'Brien, Janine",
    "Address":"320 Brindle Road",
    "City":"Parkerville",
    "Region":"WA",
    "PostalCode":"6081",
    "FullAddress":"320 Brindle Road, Parkerville, WA, 6081, Australia",
    "Longitude":116.14759,
    "Latitude":-31.86695
  },
  {
    "SiteID":57871,
    "TenantName":"Liesegang, Mark",
    "Address":"48 Bow River Crs",
    "City":"Burswood",
    "Region":"WA",
    "PostalCode":"6100",
    "FullAddress":"48 Bow River Crs, Burswood, WA, 6100, Australia",
    "Longitude":115.895617,
    "Latitude":-31.957121
  },
  {
    "SiteID":57871,
    "TenantName":"Hill, Tony",
    "Address":"2 Pecten Way",
    "City":"South Hedland",
    "Region":"WA",
    "PostalCode":"6722",
    "FullAddress":"2 Pecten Way, South Hedland, WA, 6722, Australia",
    "Longitude":118.612,
    "Latitude":-20.40617
  },
  {
    "SiteID":57871,
    "TenantName":"Bergin, Tiarna",
    "Address":"8 Jamieson Street",
    "City":"South Perth",
    "Region":"WA",
    "PostalCode":"6151",
    "FullAddress":"8 Jamieson Street, South Perth, WA, 6151, Australia",
    "Longitude":115.87357,
    "Latitude":-31.97913
  },
  {
    "SiteID":57871,
    "TenantName":"Kelly, Trevor",
    "Address":"1 Smith Street",
    "City":"Gascoyne Junction",
    "Region":"WA",
    "PostalCode":"6705",
    "FullAddress":"1 Smith Street, Gascoyne Junction, WA, 6705, Australia",
    "Longitude":115.208503,
    "Latitude":-25.056112
  },
  {
    "SiteID":57871,
    "TenantName":"Ong, Soohin",
    "Address":"Unit 4, 6 Manning Road",
    "City":"South Perth",
    "Region":"WA",
    "PostalCode":"6151",
    "FullAddress":"Unit 4, 6 Manning Road, South Perth, WA, 6151, Australia",
    "Longitude":116.056326,
    "Latitude":-31.971002
  },
  {
    "SiteID":57871,
    "TenantName":"Garven, Ashley",
    "Address":"16 Chiddington Street",
    "City":"Beckenham",
    "Region":"WA",
    "PostalCode":"6107",
    "FullAddress":"16 Chiddington Street, Beckenham, WA, 6107, Australia",
    "Longitude":115.96721,
    "Latitude":-32.02773
  },
  {
    "SiteID":57871,
    "TenantName":"Jealous, Matthew George",
    "Address":"PO Box 8094",
    "City":"Fremantle",
    "Region":"WA",
    "PostalCode":"6160",
    "FullAddress":"PO Box 8094, Fremantle, WA, 6160, Australia",
    "Longitude":116.711321,
    "Latitude":-20.669927
  },
  {
    "SiteID":57871,
    "TenantName":"Swayn, Matthew",
    "Address":"469 Kalamunda Road",
    "City":"High Wycombe",
    "Region":"WA",
    "PostalCode":"6057",
    "FullAddress":"469 Kalamunda Road, High Wycombe, WA, 6057, Australia",
    "Longitude":116.00996,
    "Latitude":-31.9383
  },
  {
    "SiteID":57871,
    "TenantName":"Taukulis, Troy",
    "Address":"14 unit 2 ozone parade",
    "City":"Trigg",
    "Region":"WA",
    "PostalCode":"6030",
    "FullAddress":"14 unit 2 ozone parade, Trigg, WA, 6030, Australia",
    "Longitude":115.759836,
    "Latitude":-31.886704
  },
  {
    "SiteID":57871,
    "TenantName":"Bentiez, Paula",
    "Address":"Suite 6 \/ 2 Canning Highway",
    "City":"South Perth",
    "Region":"WA",
    "PostalCode":"6151",
    "FullAddress":"Suite 6 \/ 2 Canning Highway, South Perth, WA, 6151, Australia",
    "Longitude":115.88276,
    "Latitude":-31.97471
  },
  {
    "SiteID":57871,
    "TenantName":"Frances, Matthew",
    "Address":"415 Mundaring Weir Road",
    "City":"Piesse Brook",
    "Region":"WA",
    "PostalCode":"6076",
    "FullAddress":"415 Mundaring Weir Road, Piesse Brook, WA, 6076, Australia",
    "Longitude":116.08986,
    "Latitude":-31.97576
  },
  {
    "SiteID":57871,
    "TenantName":"Wilkin, Neils",
    "Address":"24 Brandis Street",
    "City":"Crystal Brook",
    "Region":"SA",
    "PostalCode":"5523",
    "FullAddress":"24 Brandis Street, Crystal Brook, SA, 5523, Australia",
    "Longitude":138.208846,
    "Latitude":-33.354143
  },
  {
    "SiteID":57871,
    "TenantName":"Meldrum, Robert",
    "Address":"unit 3 32 Harrison St",
    "City":"Balcatta",
    "Region":"WA",
    "PostalCode":"6021",
    "FullAddress":"unit 3 32 Harrison St, Balcatta, WA, 6021, Australia",
    "Longitude":115.831863,
    "Latitude":-31.88544
  },
  {
    "SiteID":57871,
    "TenantName":"Calabrese, Rosanna",
    "Address":"PO Box 1343",
    "City":"Booragoon",
    "Region":"WA",
    "PostalCode":"6954",
    "FullAddress":"PO Box 1343, Booragoon, WA, 6954, Australia",
    "Longitude":148.103516,
    "Latitude":-35.057818
  },
  {
    "SiteID":57871,
    "TenantName":"Webster, Samuel",
    "Address":"3a caledonian ave",
    "City":"Perth",
    "Region":"WA",
    "PostalCode":"6053",
    "FullAddress":"3a caledonian ave, Perth, WA, 6053, Australia",
    "Longitude":115.906129,
    "Latitude":-31.936747
  },
  {
    "SiteID":57871,
    "TenantName":"Kariuki, Irene",
    "Address":"PO 160 Bentley",
    "City":"Bentley",
    "Region":"WA",
    "PostalCode":"6982",
    "FullAddress":"PO 160 Bentley, Bentley, WA, 6982, Australia",
    "Longitude":116.171875,
    "Latitude":-31.869796
  },
  {
    "SiteID":57871,
    "TenantName":"Dibb, Mason",
    "Address":"7A Galway Gr",
    "City":"Waterford",
    "Region":"WA",
    "PostalCode":"6152",
    "FullAddress":"7A Galway Gr, Waterford, WA, 6152, Australia",
    "Longitude":115.883573,
    "Latitude":-32.017377
  },
  {
    "SiteID":57871,
    "TenantName":"Fowler, Cory",
    "Address":"75 Hume Rd",
    "City":"Thornlie",
    "Region":"WA",
    "PostalCode":"6108",
    "FullAddress":"75 Hume Rd, Thornlie, WA, 6108, Australia",
    "Longitude":115.95626,
    "Latitude":-32.06179
  },
  {
    "SiteID":57871,
    "TenantName":"Mabbs, Reece",
    "Address":"5 Old Tower Court",
    "City":"Darlington",
    "Region":"WA",
    "PostalCode":"6054",
    "FullAddress":"5 Old Tower Court, Darlington, WA, 6054, Australia",
    "Longitude":116.083021,
    "Latitude":-31.911668
  },
  {
    "SiteID":57871,
    "TenantName":"Elliott, Chris",
    "Address":"19 Ashworth Cres",
    "City":"Narrogin",
    "Region":"WA",
    "PostalCode":"6312",
    "FullAddress":"19 Ashworth Cres, Narrogin, WA, 6312, Australia",
    "Longitude":117.158763,
    "Latitude":-32.932887
  },
  {
    "SiteID":57871,
    "TenantName":"Galangue, Bernadeth",
    "Address":"201a Chesser road",
    "City":"Queens Park",
    "Region":"WA",
    "PostalCode":"6107",
    "FullAddress":"201a Chesser road, Queens Park, WA, 6107, Australia",
    "Longitude":117.383635,
    "Latitude":-33.338724
  },
  {
    "SiteID":57871,
    "TenantName":"Vincenti, Kane",
    "Address":"11 Verna St",
    "City":"Gosnells",
    "Region":"WA",
    "PostalCode":"6110",
    "FullAddress":"11 Verna St, Gosnells, WA, 6110, Australia",
    "Longitude":116.007599,
    "Latitude":-32.07883
  },
  {
    "SiteID":57871,
    "TenantName":"Spartalis, Alexander",
    "Address":"4 Cassey Street",
    "City":"Como",
    "Region":"WA",
    "PostalCode":"6152",
    "FullAddress":"4 Cassey Street, Como, WA, 6152, Australia",
    "Longitude":115.85706,
    "Latitude":-32.00759
  },
  {
    "SiteID":57871,
    "TenantName":"Sankey, David",
    "Address":"30 Chaucer Way",
    "City":"Kalamunda",
    "Region":"WA",
    "PostalCode":"6076",
    "FullAddress":"30 Chaucer Way, Kalamunda, WA, 6076, Australia",
    "Longitude":116.06197,
    "Latitude":-31.965
  },
  {
    "SiteID":57871,
    "TenantName":"Mundell, Scott",
    "Address":"9 Apus Loop",
    "City":"Waterford",
    "Region":"WA",
    "PostalCode":"6152",
    "FullAddress":"9 Apus Loop, Waterford, WA, 6152, Australia",
    "Longitude":115.89769,
    "Latitude":-32.014595
  },
  {
    "SiteID":57871,
    "TenantName":"Kozakai, Hideo",
    "Address":"Unit 5\/211 Ferndale CRES",
    "City":"Ferndale",
    "Region":"WA",
    "PostalCode":"6148",
    "FullAddress":"Unit 5\/211 Ferndale CRES, Ferndale, WA, 6148, Australia",
    "Longitude":115.92535,
    "Latitude":-32.03149
  },
  {
    "SiteID":57871,
    "TenantName":"Gillies, Carl Ian",
    "Address":"187A Fern Rd",
    "City":"Wilson",
    "Region":"WA",
    "PostalCode":"6107",
    "FullAddress":"187A Fern Rd, Wilson, WA, 6107, Australia",
    "Longitude":115.905901,
    "Latitude":-32.024982
  },
  {
    "SiteID":57871,
    "TenantName":"Cure, Greg",
    "Address":"P.O. Box 860",
    "City":"Newman",
    "Region":"WA",
    "PostalCode":"6753",
    "FullAddress":"P.O. Box 860, Newman, WA, 6753, Australia",
    "Longitude":152.768993,
    "Latitude":-26.998161
  },
  {
    "SiteID":57871,
    "TenantName":"Chen, Shiyan",
    "Address":"101B Beatrice St",
    "City":"Innaloo",
    "Region":"WA",
    "PostalCode":"6018",
    "FullAddress":"101B Beatrice St, Innaloo, WA, 6018, Australia",
    "Longitude":115.791818,
    "Latitude":-31.894371
  },
  {
    "SiteID":57871,
    "TenantName":"Bath, Sundeep S",
    "Address":"28 Clarke Street",
    "City":"East Cannington",
    "Region":"WA",
    "PostalCode":"6107",
    "FullAddress":"28 Clarke Street, East Cannington, WA, 6107, Australia",
    "Longitude":115.950984,
    "Latitude":-32.010528
  },
  {
    "SiteID":57871,
    "TenantName":"Babinall, Robert A",
    "Address":"195 Harpenden Street",
    "City":"Hungtingdale",
    "Region":"WA",
    "PostalCode":"6110",
    "FullAddress":"195 Harpenden Street, Hungtingdale, WA, 6110, Australia",
    "Longitude":115.954633,
    "Latitude":-32.086688
  },
  {
    "SiteID":57871,
    "TenantName":"Brookes, David",
    "Address":"12 O'Brien Way",
    "City":"Karratha",
    "Region":"WA",
    "PostalCode":"6714",
    "FullAddress":"12 O'Brien Way, Karratha, WA, 6714, Australia",
    "Longitude":116.808139,
    "Latitude":-20.75557
  },
  {
    "SiteID":57871,
    "TenantName":"Warren, Cayde",
    "Address":"2\/38 Temple Street",
    "City":"Victoria Park",
    "Region":"WA",
    "PostalCode":"6100",
    "FullAddress":"2\/38 Temple Street, Victoria Park, WA, 6100, Australia",
    "Longitude":115.89497,
    "Latitude":-31.97933
  },
  {
    "SiteID":57871,
    "TenantName":"Barron, Caroline",
    "Address":"291 Fisher Street",
    "City":"Cloverdale",
    "Region":"WA",
    "PostalCode":"6105",
    "FullAddress":"291 Fisher Street, Cloverdale, WA, 6105, Australia",
    "Longitude":115.946402,
    "Latitude":-31.966978
  },
  {
    "SiteID":57871,
    "TenantName":"Orr, Mick",
    "Address":"380 Mill point road",
    "City":"South Perth",
    "Region":"WA",
    "PostalCode":"6151",
    "FullAddress":"380 Mill point road, South Perth, WA, 6151, Australia",
    "Longitude":115.8808,
    "Latitude":-31.97455
  },
  {
    "SiteID":57871,
    "TenantName":"Robson, Jeffrey",
    "Address":"Suite 143, 580 Hay St",
    "City":"Perth",
    "Region":"WA",
    "PostalCode":"6000",
    "FullAddress":"Suite 143, 580 Hay St, Perth, WA, 6000, Australia",
    "Longitude":115.861039,
    "Latitude":-31.954531
  },
  {
    "SiteID":57871,
    "TenantName":"Coleman, Shannon",
    "Address":"Suite 15, 8 Welshpool Road",
    "City":"East Victoria Park",
    "Region":"WA",
    "PostalCode":"6101",
    "FullAddress":"Suite 15, 8 Welshpool Road, East Victoria Park, WA, 6101, Australia",
    "Longitude":115.914582,
    "Latitude":-31.993632
  },
  {
    "SiteID":57871,
    "TenantName":"Reindler, Ella",
    "Address":"200 MADDINGTON Road,",
    "City":"Maddington",
    "Region":"WA",
    "PostalCode":"6109",
    "FullAddress":"200 MADDINGTON Road,, Maddington, WA, 6109, Australia",
    "Longitude":116.00507,
    "Latitude":-32.04072
  },
  {
    "SiteID":57871,
    "TenantName":"Forsyth, Kim",
    "Address":"Unit 9\/29 Hill Street",
    "City":"Perth",
    "Region":"WA",
    "PostalCode":"6000",
    "FullAddress":"Unit 9\/29 Hill Street, Perth, WA, 6000, Australia",
    "Longitude":115.867486,
    "Latitude":-31.959298
  },
  {
    "SiteID":57871,
    "TenantName":"Chow, Wai Tak",
    "Address":"Unit 6 \/ 7-9 Hesford Avenue",
    "City":"Mount Pleasant",
    "Region":"WA",
    "PostalCode":"6153",
    "FullAddress":"Unit 6 \/ 7-9 Hesford Avenue, Mount Pleasant, WA, 6153, Australia",
    "Longitude":115.85187,
    "Latitude":-32.03702
  },
  {
    "SiteID":57871,
    "TenantName":"Halim, Sherly",
    "Address":"8B Downey Dr",
    "City":"Manning",
    "Region":"WA",
    "PostalCode":"6152",
    "FullAddress":"8B Downey Dr, Manning, WA, 6152, Australia",
    "Longitude":115.865202,
    "Latitude":-32.012511
  },
  {
    "SiteID":57871,
    "TenantName":"Morgan, Graham",
    "Address":"22 Mellish Cres",
    "City":"Emerald",
    "Region":"QLD",
    "PostalCode":"4720",
    "FullAddress":"22 Mellish Cres, Emerald, QLD, 4720, Australia",
    "Longitude":148.158877,
    "Latitude":-23.516306
  },
  {
    "SiteID":57871,
    "TenantName":"Rowe, Andrew",
    "Address":"10 O'Brien Street",
    "City":"Cowaramup",
    "Region":"WA",
    "PostalCode":"6284",
    "FullAddress":"10 O'Brien Street, Cowaramup, WA, 6284, Australia",
    "Longitude":115.10276,
    "Latitude":-33.84977
  },
  {
    "SiteID":57871,
    "TenantName":"Spicer, Matthew",
    "Address":"20 Modillion Avenue",
    "City":"Shelley",
    "Region":"WA",
    "PostalCode":"6148",
    "FullAddress":"20 Modillion Avenue, Shelley, WA, 6148, Australia",
    "Longitude":115.889538,
    "Latitude":-32.034111
  },
  {
    "SiteID":57871,
    "TenantName":"Geng, Tianci",
    "Address":"115 Maamba Road",
    "City":"Wattle Grove",
    "Region":"WA",
    "PostalCode":"6107",
    "FullAddress":"115 Maamba Road, Wattle Grove, WA, 6107, Australia",
    "Longitude":115.991972,
    "Latitude":-32.001939
  },
  {
    "SiteID":57871,
    "TenantName":"Vaccaro, Marie",
    "Address":"85A Celebration Street",
    "City":"Beckenham",
    "Region":"WA",
    "PostalCode":"6107",
    "FullAddress":"85A Celebration Street, Beckenham, WA, 6107, Australia",
    "Longitude":115.965131,
    "Latitude":-32.010542
  },
  {
    "SiteID":57871,
    "TenantName":"Skinner, Andrew",
    "Address":"9 Dotterel Way",
    "City":"East Cannington",
    "Region":"WA",
    "PostalCode":"6107",
    "FullAddress":"9 Dotterel Way, East Cannington, WA, 6107, Australia",
    "Longitude":115.952485,
    "Latitude":-32.013402
  },
  {
    "SiteID":57871,
    "TenantName":"Pitcher, Debbie",
    "Address":"Unit 1604 893 Canning Hwy",
    "City":"Mount Pleasant",
    "Region":"WA",
    "PostalCode":"6153",
    "FullAddress":"Unit 1604 893 Canning Hwy, Mount Pleasant, WA, 6153, Australia",
    "Longitude":115.847536,
    "Latitude":-32.014054
  },
  {
    "SiteID":57871,
    "TenantName":"O'Brien, Kim",
    "Address":"Unit 1 4 Pearl Road",
    "City":"Cloverdale",
    "Region":"WA",
    "PostalCode":"6105",
    "FullAddress":"Unit 1 4 Pearl Road, Cloverdale, WA, 6105, Australia",
    "Longitude":115.94585,
    "Latitude":-31.96208
  },
  {
    "SiteID":57871,
    "TenantName":"Muir, Jamie G",
    "Address":"18 Fantail Drive",
    "City":"Bibra Lake",
    "Region":"WA",
    "PostalCode":"6163",
    "FullAddress":"18 Fantail Drive, Bibra Lake, WA, 6163, Australia",
    "Longitude":115.827366,
    "Latitude":-32.102675
  },
  {
    "SiteID":57871,
    "TenantName":"Hobbs, Kerran",
    "Address":"119 Landsdowne Road",
    "City":"Kensington",
    "Region":"WA",
    "PostalCode":"6151",
    "FullAddress":"119 Landsdowne Road, Kensington, WA, 6151, Australia",
    "Longitude":115.88767,
    "Latitude":-31.98183
  },
  {
    "SiteID":57871,
    "TenantName":"Hitchmough, Geoff",
    "Address":"13 Pitt Street",
    "City":"KENSINGTON",
    "Region":"WA",
    "PostalCode":"6151",
    "FullAddress":"13 Pitt Street, KENSINGTON, WA, 6151, Australia",
    "Longitude":115.8823,
    "Latitude":-31.98589
  },
  {
    "SiteID":57871,
    "TenantName":"Dalese, Claude",
    "Address":"16 Mary Drive",
    "City":"Lesmurdie",
    "Region":"WA",
    "PostalCode":"6076",
    "FullAddress":"16 Mary Drive, Lesmurdie, WA, 6076, Australia",
    "Longitude":116.04179,
    "Latitude":-32.00947
  },
  {
    "SiteID":57871,
    "TenantName":"Blake, Patrick",
    "Address":"2 Isobel Street",
    "City":"Bentley",
    "Region":"WA",
    "PostalCode":"6102",
    "FullAddress":"2 Isobel Street, Bentley, WA, 6102, Australia",
    "Longitude":115.918931,
    "Latitude":-31.999903
  },
  {
    "SiteID":57871,
    "TenantName":"Whyham, Raymond",
    "Address":"Appt 9, 954 Albany Highway",
    "City":"East  Victoria Park",
    "Region":"WA",
    "PostalCode":"6101",
    "FullAddress":"Appt 9, 954 Albany Highway, East  Victoria Park, WA, 6101, Australia",
    "Longitude":115.907623,
    "Latitude":-31.989648
  },
  {
    "SiteID":57871,
    "TenantName":"Sykes, James Lewis",
    "Address":"39 Nicol Road",
    "City":"Parkwood",
    "Region":"WA",
    "PostalCode":"6147",
    "FullAddress":"39 Nicol Road, Parkwood, WA, 6147, Australia",
    "Longitude":115.90943,
    "Latitude":-32.05082
  },
  {
    "SiteID":57871,
    "TenantName":"Savic, Vesna",
    "Address":"Unit 31 10 Hawksburn Road",
    "City":"Rivervale",
    "Region":"WA",
    "PostalCode":"6103",
    "FullAddress":"Unit 31 10 Hawksburn Road, Rivervale, WA, 6103, Australia",
    "Longitude":115.903352,
    "Latitude":-31.955816
  },
  {
    "SiteID":57871,
    "TenantName":"Miller, Ebony",
    "Address":"224 Douglas Avenue",
    "City":"Kensington",
    "Region":"WA",
    "PostalCode":"6151",
    "FullAddress":"224 Douglas Avenue, Kensington, WA, 6151, Australia",
    "Longitude":115.88079,
    "Latitude":-31.98779
  },
  {
    "SiteID":57871,
    "TenantName":"Mandivengerei, Stephen",
    "Address":"11 Craft Street",
    "City":"Canning Vale",
    "Region":"WA",
    "PostalCode":"6155",
    "FullAddress":"11 Craft Street, Canning Vale, WA, 6155, Australia",
    "Longitude":115.910883,
    "Latitude":-32.064976
  },
  {
    "SiteID":57871,
    "TenantName":"Doherty, Lee",
    "Address":"4 Delhi Street",
    "City":"West Perth",
    "Region":"WA",
    "PostalCode":"6015",
    "FullAddress":"4 Delhi Street, West Perth, WA, 6015, Australia",
    "Longitude":115.845544,
    "Latitude":-31.945231
  },
  {
    "SiteID":57871,
    "TenantName":"De Torres, Gilbert",
    "Address":"8 Bushmills Road",
    "City":"Beckenham",
    "Region":"WA",
    "PostalCode":"6107",
    "FullAddress":"8 Bushmills Road, Beckenham, WA, 6107, Australia",
    "Longitude":115.960656,
    "Latitude":-32.025561
  },
  {
    "SiteID":57871,
    "TenantName":"Chrystie, Cody",
    "Address":"14 Haven Place",
    "City":"Pinjarra",
    "Region":"WA",
    "PostalCode":"6208",
    "FullAddress":"14 Haven Place, Pinjarra, WA, 6208, Australia",
    "Longitude":115.85687,
    "Latitude":-32.61021
  },
  {
    "SiteID":57871,
    "TenantName":"Walton, John",
    "Address":"44 Alfred St",
    "City":"York",
    "Region":"WA",
    "PostalCode":"6302",
    "FullAddress":"44 Alfred St, York, WA, 6302, Australia",
    "Longitude":116.763762,
    "Latitude":-31.881615
  },
  {
    "SiteID":57871,
    "TenantName":"Marnoch, Brett",
    "Address":"23 Monash Avenue",
    "City":"Como",
    "Region":"WA",
    "PostalCode":"6152",
    "FullAddress":"23 Monash Avenue, Como, WA, 6152, Australia",
    "Longitude":115.87139,
    "Latitude":-31.99218
  },
  {
    "SiteID":57871,
    "TenantName":"Colson, Aurielle",
    "Address":"PO Box 1284",
    "City":"Kenmore",
    "Region":"QLD",
    "PostalCode":"4069",
    "FullAddress":"PO Box 1284, Kenmore, QLD, 4069, Australia",
    "Longitude":150.423737,
    "Latitude":-34.461119
  },
  {
    "SiteID":57871,
    "TenantName":"Childs, Luke",
    "Address":"3\/48 kingsmill street",
    "City":"Port hedland",
    "Region":"Wa",
    "PostalCode":"6721",
    "FullAddress":"3\/48 kingsmill street, Port hedland, Wa, 6721, Australia",
    "Longitude":118.58397,
    "Latitude":-20.31009
  },
  {
    "SiteID":57871,
    "TenantName":"Ashworth, Kelly",
    "Address":"8 Uist Court",
    "City":"Port Kennedy",
    "Region":"WA",
    "PostalCode":"6172",
    "FullAddress":"8 Uist Court, Port Kennedy, WA, 6172, Australia",
    "Longitude":115.75778,
    "Latitude":-32.36201
  },
  {
    "SiteID":57871,
    "TenantName":"Liatris, Viv",
    "Address":"Unit 52 157-161 Hubert Street",
    "City":"East Victoria Park",
    "Region":"WA",
    "PostalCode":"6101",
    "FullAddress":"Unit 52 157-161 Hubert Street, East Victoria Park, WA, 6101, Australia",
    "Longitude":115.910104,
    "Latitude":-31.99078
  },
  {
    "SiteID":57871,
    "TenantName":"Field, Christopher",
    "Address":"11\/580 Hay Street",
    "City":"Perth",
    "Region":"WA",
    "PostalCode":"6000",
    "FullAddress":"11\/580 Hay Street, Perth, WA, 6000, Australia",
    "Longitude":115.861039,
    "Latitude":-31.954531
  },
  {
    "SiteID":57871,
    "TenantName":"Kare, Harold",
    "Address":"33 Oakover way",
    "City":"Gosnells",
    "Region":"WA",
    "PostalCode":"6110",
    "FullAddress":"33 Oakover way, Gosnells, WA, 6110, Australia",
    "Longitude":115.99066,
    "Latitude":-32.08931
  },
  {
    "SiteID":57871,
    "TenantName":"Leith, Trevor",
    "Address":"40 Stirling Highway",
    "City":"Nedlands",
    "Region":"WA",
    "PostalCode":"6009",
    "FullAddress":"40 Stirling Highway, Nedlands, WA, 6009, Australia",
    "Longitude":115.809483,
    "Latitude":-31.978442
  },
  {
    "SiteID":57871,
    "TenantName":"Donald, Jason",
    "Address":"P O Box 172",
    "City":"Bassendean",
    "Region":"WA",
    "PostalCode":"6934",
    "FullAddress":"P O Box 172, Bassendean, WA, 6934, Australia",
    "Longitude":115.920147,
    "Latitude":-31.915945
  },
  {
    "SiteID":57871,
    "TenantName":"James, Dean",
    "Address":"U 17 35-39 South Perth Esplanade",
    "City":"South Perth",
    "Region":"WA",
    "PostalCode":"6151",
    "FullAddress":"U 17 35-39 South Perth Esplanade, South Perth, WA, 6151, Australia",
    "Longitude":115.849806,
    "Latitude":-31.969016
  },
  {
    "SiteID":57871,
    "TenantName":"Trent, Anthony",
    "Address":"2\/77 Colin Road",
    "City":"Scarborough",
    "Region":"WA",
    "PostalCode":"6019",
    "FullAddress":"2\/77 Colin Road, Scarborough, WA, 6019, Australia",
    "Longitude":115.76654,
    "Latitude":-31.90657
  },
  {
    "SiteID":57871,
    "TenantName":"Doney-Waihi, Renata",
    "Address":"42A Ellam St",
    "City":"St James",
    "Region":"WA",
    "PostalCode":"6102",
    "FullAddress":"42A Ellam St, St James, WA, 6102, Australia",
    "Longitude":115.918863,
    "Latitude":-31.997816
  },
  {
    "SiteID":57871,
    "TenantName":"Davies, Mark",
    "Address":"12 Sandalwood Cl",
    "City":"Beechboro",
    "Region":"WA",
    "PostalCode":"6063",
    "FullAddress":"12 Sandalwood Cl, Beechboro, WA, 6063, Australia",
    "Longitude":115.92144,
    "Latitude":-31.86822
  },
  {
    "SiteID":57871,
    "TenantName":"Chia, Andre",
    "Address":"63A Weston St",
    "City":"Carlisle",
    "Region":"WA",
    "PostalCode":"6101",
    "FullAddress":"63A Weston St, Carlisle, WA, 6101, Australia",
    "Longitude":115.91861,
    "Latitude":-31.97641
  },
  {
    "SiteID":57871,
    "TenantName":"Majer, Daniel",
    "Address":"Unit 18 7 Vincent St",
    "City":"Mount Lawley",
    "Region":"WA",
    "PostalCode":"6050",
    "FullAddress":"Unit 18 7 Vincent St, Mount Lawley, WA, 6050, Australia",
    "Longitude":115.869689,
    "Latitude":-31.936949
  },
  {
    "SiteID":57871,
    "TenantName":"Otto, James",
    "Address":"33 Raleigh Street",
    "City":"Belmont",
    "Region":"WA",
    "PostalCode":"6104",
    "FullAddress":"33 Raleigh Street, Belmont, WA, 6104, Australia",
    "Longitude":115.93708,
    "Latitude":-31.94569
  },
  {
    "SiteID":57871,
    "TenantName":"Beylier, Maximilien",
    "Address":"57-59 Bennett St",
    "City":"East Perth",
    "Region":"WA",
    "PostalCode":"6004",
    "FullAddress":"57-59 Bennett St, East Perth, WA, 6004, Australia",
    "Longitude":115.871951,
    "Latitude":-31.957472
  },
  {
    "SiteID":57871,
    "TenantName":"Mathyi, Cohen",
    "Address":"Unit 3\/37 Summers street",
    "City":"Belmont",
    "Region":"WA",
    "PostalCode":"6104",
    "FullAddress":"Unit 3\/37 Summers street, Belmont, WA, 6104, Australia",
    "Longitude":115.878937,
    "Latitude":-31.945003
  },
  {
    "SiteID":57871,
    "TenantName":"Mitchell, Jane",
    "Address":"108 Elizabeth St",
    "City":"Beckenham",
    "Region":"WA",
    "PostalCode":"6107",
    "FullAddress":"108 Elizabeth St, Beckenham, WA, 6107, Australia",
    "Longitude":115.96793,
    "Latitude":-32.00918
  },
  {
    "SiteID":57871,
    "TenantName":"Walker Smith, Jocelyn",
    "Address":"52A Beatty Ave",
    "City":"East Vic Pk",
    "Region":"WA",
    "PostalCode":"6101",
    "FullAddress":"52A Beatty Ave, East Vic Pk, WA, 6101, Australia",
    "Longitude":115.909421,
    "Latitude":-31.980821
  },
  {
    "SiteID":57871,
    "TenantName":"Tait, Haiata",
    "Address":"Unit 2\/ 9 Lloyd Street",
    "City":"Cannington",
    "Region":"WA",
    "PostalCode":"6107",
    "FullAddress":"Unit 2\/ 9 Lloyd Street, Cannington, WA, 6107, Australia",
    "Longitude":115.93376,
    "Latitude":-32.01024
  },
  {
    "SiteID":57871,
    "TenantName":"Sukma Chandra, Edwin",
    "Address":"78C Culloton Crescent",
    "City":"Balga",
    "Region":"WA",
    "PostalCode":"6061",
    "FullAddress":"78C Culloton Crescent, Balga, WA, 6061, Australia",
    "Longitude":115.829626,
    "Latitude":-31.850736
  },
  {
    "SiteID":57871,
    "TenantName":"Squelch, Joan",
    "Address":"58B Mackie St",
    "City":"Victoria Park",
    "Region":"WA",
    "PostalCode":"6100",
    "FullAddress":"58B Mackie St, Victoria Park, WA, 6100, Australia",
    "Longitude":115.891267,
    "Latitude":-31.974824
  },
  {
    "SiteID":57871,
    "TenantName":"O'sullivan, Mark",
    "Address":"5 Hurlingham Road",
    "City":"South Perth",
    "Region":"WA",
    "PostalCode":"6151",
    "FullAddress":"5 Hurlingham Road, South Perth, WA, 6151, Australia",
    "Longitude":115.87601,
    "Latitude":-31.97561
  },
  {
    "SiteID":57871,
    "TenantName":"Moisley, Timothy",
    "Address":"157 Station Street East Cannington",
    "City":"Perth",
    "Region":"WA",
    "PostalCode":"6107",
    "FullAddress":"157 Station Street East Cannington, Perth, WA, 6107, Australia",
    "Longitude":115.95699,
    "Latitude":-32.01127
  },
  {
    "SiteID":57871,
    "TenantName":"Mcinerney, Maya",
    "Address":"27 Oats St",
    "City":"Kewdale",
    "Region":"WA",
    "PostalCode":"6105",
    "FullAddress":"27 Oats St, Kewdale, WA, 6105, Australia",
    "Longitude":115.92908,
    "Latitude":-31.97618
  },
  {
    "SiteID":57871,
    "TenantName":"McCabe, Madison",
    "Address":"25 Chester St",
    "City":"Newstead Brisbane",
    "Region":"QLD",
    "PostalCode":"4006",
    "FullAddress":"25 Chester St, Newstead Brisbane, QLD, 4006, Australia",
    "Longitude":153.041244,
    "Latitude":-27.45497
  },
  {
    "SiteID":57871,
    "TenantName":"Mackey, Kylie Anne",
    "Address":"51 Rathay St",
    "City":"Victoria Park",
    "Region":"WA",
    "PostalCode":"6100",
    "FullAddress":"51 Rathay St, Victoria Park, WA, 6100, Australia",
    "Longitude":115.894426,
    "Latitude":-31.982114
  },
  {
    "SiteID":57871,
    "TenantName":"Lun, Mandy",
    "Address":"8 Ellis Street",
    "City":"Wilson",
    "Region":"Western Australia",
    "PostalCode":"6107",
    "FullAddress":"8 Ellis Street, Wilson, Western Australia, 6107, Australia",
    "Longitude":115.90894,
    "Latitude":-32.01356
  },
  {
    "SiteID":57871,
    "TenantName":"Li, Billy",
    "Address":"65A Corinthian Rd",
    "City":"Shelley",
    "Region":"WA",
    "PostalCode":"6148",
    "FullAddress":"65A Corinthian Rd, Shelley, WA, 6148, Australia",
    "Longitude":115.894245,
    "Latitude":-32.034259
  },
  {
    "SiteID":57871,
    "TenantName":"Lee, Pang",
    "Address":"16 Richards Place",
    "City":"Cannington",
    "Region":"WA",
    "PostalCode":"6107",
    "FullAddress":"16 Richards Place, Cannington, WA, 6107, Australia",
    "Longitude":115.93214,
    "Latitude":-32.00511
  },
  {
    "SiteID":57871,
    "TenantName":"Knight, Dylan",
    "Address":"60\/15 Gardner Street",
    "City":"Como",
    "Region":"WA",
    "PostalCode":"6152",
    "FullAddress":"60\/15 Gardner Street, Como, WA, 6152, Australia",
    "Longitude":115.856181,
    "Latitude":-31.990463
  },
  {
    "SiteID":57871,
    "TenantName":"Hutchins, Nigel",
    "Address":"31 Strelitzia Ave",
    "City":"Forrestfield",
    "Region":"wa",
    "PostalCode":"6112",
    "FullAddress":"31 Strelitzia Ave, Forrestfield, wa, 6112, Australia",
    "Longitude":116.0107,
    "Latitude":-31.98594
  },
  {
    "SiteID":57871,
    "TenantName":"Hall, Jonathon",
    "Address":"25 Leehey St",
    "City":"Wedgefield",
    "Region":"WA",
    "PostalCode":"6721",
    "FullAddress":"25 Leehey St, Wedgefield, WA, 6721, Australia",
    "Longitude":118.58554,
    "Latitude":-20.36826
  },
  {
    "SiteID":57871,
    "TenantName":"Claughton, Vivien",
    "Address":"183 Gregory Street",
    "City":"Wembely",
    "Region":"WA",
    "PostalCode":"6014",
    "FullAddress":"183 Gregory Street, Wembely, WA, 6014, Australia",
    "Longitude":115.82089,
    "Latitude":-31.92685
  },
  {
    "SiteID":57871,
    "TenantName":"Chitty, Corrie",
    "Address":"25 Vander Place",
    "City":"Maddington",
    "Region":"WA",
    "PostalCode":"6109",
    "FullAddress":"25 Vander Place, Maddington, WA, 6109, Australia",
    "Longitude":116.007133,
    "Latitude":-32.045286
  },
  {
    "SiteID":57871,
    "TenantName":"Brough, Jennifer",
    "Address":"156 Raleigh St",
    "City":"Carlisle",
    "Region":"WA",
    "PostalCode":"6101",
    "FullAddress":"156 Raleigh St, Carlisle, WA, 6101, Australia",
    "Longitude":115.919651,
    "Latitude":-31.985277
  },
  {
    "SiteID":57871,
    "TenantName":"Blewitt, Dave",
    "Address":"Unit 14, 1 Silas St",
    "City":"East Fremantle",
    "Region":"WA",
    "PostalCode":"6158",
    "FullAddress":"Unit 14, 1 Silas St, East Fremantle, WA, 6158, Australia",
    "Longitude":115.764145,
    "Latitude":-32.041207
  },
  {
    "SiteID":57871,
    "TenantName":"Bianco, Anthony",
    "Address":"27 Mills Street",
    "City":"Cannington",
    "Region":"WA",
    "PostalCode":"6107",
    "FullAddress":"27 Mills Street, Cannington, WA, 6107, Australia",
    "Longitude":115.927589,
    "Latitude":-32.007726
  },
  {
    "SiteID":57871,
    "TenantName":"Winfield, Chloe",
    "Address":"16 Hanna Place",
    "City":"Huntingdale",
    "Region":"WA",
    "PostalCode":"6110",
    "FullAddress":"16 Hanna Place, Huntingdale, WA, 6110, Australia",
    "Longitude":115.96933,
    "Latitude":-32.08049
  },
  {
    "SiteID":57871,
    "TenantName":"Parker, Clint",
    "Address":"3\/51 Mary st",
    "City":"Como",
    "Region":"WA",
    "PostalCode":"6152",
    "FullAddress":"3\/51 Mary st, Como, WA, 6152, Australia",
    "Longitude":115.85657,
    "Latitude":-31.99735
  },
  {
    "SiteID":57871,
    "TenantName":"Morse, Jodi",
    "Address":"Unit 3\/85 Mercury Street",
    "City":"Kewdale",
    "Region":"WA",
    "PostalCode":"6105",
    "FullAddress":"Unit 3\/85 Mercury Street, Kewdale, WA, 6105, Australia",
    "Longitude":115.92543,
    "Latitude":-31.97612
  },
  {
    "SiteID":57871,
    "TenantName":"Butcher, Bronwyn",
    "Address":"Unit 8, 281 Mill Point Road",
    "City":"South Perth",
    "Region":"WA",
    "PostalCode":"6151",
    "FullAddress":"Unit 8, 281 Mill Point Road, South Perth, WA, 6151, Australia",
    "Longitude":115.870668,
    "Latitude":-31.977869
  },
  {
    "SiteID":57871,
    "TenantName":"Both, Christopher",
    "Address":"56 Sanderling Dr",
    "City":"Thornlie",
    "Region":"WA",
    "PostalCode":"6108",
    "FullAddress":"56 Sanderling Dr, Thornlie, WA, 6108, Australia",
    "Longitude":115.94961,
    "Latitude":-32.05982
  },
  {
    "SiteID":57871,
    "TenantName":"Best, Beau L",
    "Address":"69 Fruit Tree Crs",
    "City":"Forrestfield",
    "Region":"WA",
    "PostalCode":"6058",
    "FullAddress":"69 Fruit Tree Crs, Forrestfield, WA, 6058, Australia",
    "Longitude":116.003539,
    "Latitude":-31.968812
  },
  {
    "SiteID":57871,
    "TenantName":"Whitmore, Kody",
    "Address":"9 - 17 Gorky Pl",
    "City":"Munruben",
    "Region":"QLD",
    "PostalCode":"4125",
    "FullAddress":"9 - 17 Gorky Pl, Munruben, QLD, 4125, Australia",
    "Longitude":153.012333,
    "Latitude":-27.747936
  },
  {
    "SiteID":57871,
    "TenantName":"Poveda, Carlos",
    "Address":"1\/114 Labouchere Rd",
    "City":"South Perth",
    "Region":"WA",
    "PostalCode":"6151",
    "FullAddress":"1\/114 Labouchere Rd, South Perth, WA, 6151, Australia",
    "Longitude":115.85715,
    "Latitude":-31.98712
  },
  {
    "SiteID":57871,
    "TenantName":"Lee, Jessy",
    "Address":"50b mcmillan street",
    "City":"Victoria Park",
    "Region":"WA",
    "PostalCode":"6100",
    "FullAddress":"50b mcmillan street, Victoria Park, WA, 6100, Australia",
    "Longitude":115.89392,
    "Latitude":-31.97869
  },
  {
    "SiteID":57871,
    "TenantName":"Fox, Grace",
    "Address":"274 Main St",
    "City":"Osbourne Park",
    "Region":"WA",
    "PostalCode":"6017",
    "FullAddress":"274 Main St, Osbourne Park, WA, 6017, Australia",
    "Longitude":115.828653,
    "Latitude":-31.891561
  },
  {
    "SiteID":57871,
    "TenantName":"Buma, Caleb",
    "Address":"40B Gregory  Street",
    "City":"Belmont East",
    "Region":"WA",
    "PostalCode":"6104",
    "FullAddress":"40B Gregory  Street, Belmont East, WA, 6104, Australia",
    "Longitude":115.94043,
    "Latitude":-31.95095
  },
  {
    "SiteID":57871,
    "TenantName":"Springer, Andrew",
    "Address":"12 Merivale Street",
    "City":"South Launceston",
    "Region":"TAS",
    "PostalCode":"7249",
    "FullAddress":"12 Merivale Street, South Launceston, TAS, 7249, Australia",
    "Longitude":147.146692,
    "Latitude":-41.460556
  },
  {
    "SiteID":57871,
    "TenantName":"Hogben, Darren",
    "Address":"5 Evans St",
    "City":"Morawa",
    "Region":"WA",
    "PostalCode":"6623",
    "FullAddress":"5 Evans St, Morawa, WA, 6623, Australia",
    "Longitude":116.0138,
    "Latitude":-29.20808
  },
  {
    "SiteID":57871,
    "TenantName":"Ji, Xiao Lei",
    "Address":"117 Ladywells Street",
    "City":"Beckenham",
    "Region":"WA",
    "PostalCode":"6107",
    "FullAddress":"117 Ladywells Street, Beckenham, WA, 6107, Australia",
    "Longitude":115.96677,
    "Latitude":-32.02759
  },
  {
    "SiteID":57871,
    "TenantName":"Khalil, Dayang Datu",
    "Address":"PO Box 190",
    "City":"Victoria Park",
    "Region":"WA",
    "PostalCode":"6979",
    "FullAddress":"PO Box 190, Victoria Park, WA, 6979, Australia",
    "Longitude":115.865565,
    "Latitude":-31.957197
  },
  {
    "SiteID":57871,
    "TenantName":"Meyer, Glenn",
    "Address":"49 Kittyhawk Grove",
    "City":"Geographe",
    "Region":"WA",
    "PostalCode":"6280",
    "FullAddress":"49 Kittyhawk Grove, Geographe, WA, 6280, Australia",
    "Longitude":115.374009,
    "Latitude":-33.641449
  },
  {
    "SiteID":57871,
    "TenantName":"James, Ben",
    "Address":"59\/54 Mill Point Rd",
    "City":"South Perth",
    "Region":"WA",
    "PostalCode":"6151",
    "FullAddress":"59\/54 Mill Point Rd, South Perth, WA, 6151, Australia",
    "Longitude":115.849806,
    "Latitude":-31.969016
  },
  {
    "SiteID":57871,
    "TenantName":"Shipard, Sharnell",
    "Address":"Unit 17 365-377 Kent St",
    "City":"Sydney",
    "Region":"NSW",
    "PostalCode":"2000",
    "FullAddress":"Unit 17 365-377 Kent St, Sydney, NSW, 2000, Australia",
    "Longitude":151.204372,
    "Latitude":-33.869548
  },
  {
    "SiteID":57871,
    "TenantName":"Ratnam, Tony",
    "Address":"PO497 Bentley",
    "City":"Bentely",
    "Region":"WA",
    "PostalCode":"6982",
    "FullAddress":"PO497 Bentley, Bentely, WA, 6982, Australia",
    "Longitude":115.90586,
    "Latitude":-32.0073
  },
  {
    "SiteID":57871,
    "TenantName":"Napolitano, Giovanni",
    "Address":"7 Almondbury Street",
    "City":"Bayswater",
    "Region":"WA",
    "PostalCode":"6053",
    "FullAddress":"7 Almondbury Street, Bayswater, WA, 6053, Australia",
    "Longitude":115.913306,
    "Latitude":-31.92181
  },
  {
    "SiteID":57871,
    "TenantName":"Mathyi, Taylor",
    "Address":"249 Station Street",
    "City":"East Cannington",
    "Region":"WA",
    "PostalCode":"6107",
    "FullAddress":"249 Station Street, East Cannington, WA, 6107, Australia",
    "Longitude":115.96613,
    "Latitude":-32.00376
  },
  {
    "SiteID":57871,
    "TenantName":"Lunt, Andrew",
    "Address":"9 Gladstone st",
    "City":"St James",
    "Region":"W.A",
    "PostalCode":"6102",
    "FullAddress":"9 Gladstone st, St James, W.A, 6102, Australia",
    "Longitude":115.911879,
    "Latitude":-31.999729
  },
  {
    "SiteID":57871,
    "TenantName":"Lang, Michael",
    "Address":"65 Beatty Ave",
    "City":"East Victoria Park",
    "Region":"WA",
    "PostalCode":"6101",
    "FullAddress":"65 Beatty Ave, East Victoria Park, WA, 6101, Australia",
    "Longitude":115.909674,
    "Latitude":-31.982102
  },
  {
    "SiteID":57871,
    "TenantName":"Kirkby, David",
    "Address":"25 The Promenade",
    "City":"Wattle Grove",
    "Region":"WA",
    "PostalCode":"6107",
    "FullAddress":"25 The Promenade, Wattle Grove, WA, 6107, Australia",
    "Longitude":115.983088,
    "Latitude":-31.999428
  },
  {
    "SiteID":57871,
    "TenantName":"Ives, Mavis",
    "Address":"31 Prowse Rd",
    "City":"Capel",
    "Region":"WA",
    "PostalCode":"6271",
    "FullAddress":"31 Prowse Rd, Capel, WA, 6271, Australia",
    "Longitude":115.558034,
    "Latitude":-33.564748
  },
  {
    "SiteID":57871,
    "TenantName":"Hollis, Malcolm",
    "Address":"24 Errinbee Street",
    "City":"Riverton",
    "Region":"WA",
    "PostalCode":"6148",
    "FullAddress":"24 Errinbee Street, Riverton, WA, 6148, Australia",
    "Longitude":115.88758,
    "Latitude":-32.03448
  },
  {
    "SiteID":57871,
    "TenantName":"Hannah, Ryan",
    "Address":"4 Greenham PLace",
    "City":"Bibra Lake",
    "Region":"WA",
    "PostalCode":"6163",
    "FullAddress":"4 Greenham PLace, Bibra Lake, WA, 6163, Australia",
    "Longitude":115.84384,
    "Latitude":-32.08917
  },
  {
    "SiteID":57871,
    "TenantName":"Floate, Pauline",
    "Address":"20 Seaforth Loop",
    "City":"Kallaroo",
    "Region":"WA",
    "PostalCode":"6025",
    "FullAddress":"20 Seaforth Loop, Kallaroo, WA, 6025, Australia",
    "Longitude":115.73561,
    "Latitude":-31.79626
  },
  {
    "SiteID":57871,
    "TenantName":"Fisher, Peter",
    "Address":"U 6, 61 Kennerly Street",
    "City":"Cloverdale",
    "Region":"WA",
    "PostalCode":"6105",
    "FullAddress":"U 6, 61 Kennerly Street, Cloverdale, WA, 6105, Australia",
    "Longitude":115.947636,
    "Latitude":-31.959188
  },
  {
    "SiteID":57871,
    "TenantName":"D'Souza, Robert",
    "Address":"13 Dayana Court",
    "City":"Redcliffe",
    "Region":"WA",
    "PostalCode":"6104",
    "FullAddress":"13 Dayana Court, Redcliffe, WA, 6104, Australia",
    "Longitude":115.94883,
    "Latitude":-31.94434
  },
  {
    "SiteID":57871,
    "TenantName":"Dolton, Michael",
    "Address":"18 Hoffman Way",
    "City":"Byford",
    "Region":"WA",
    "PostalCode":"6122",
    "FullAddress":"18 Hoffman Way, Byford, WA, 6122, Australia",
    "Longitude":115.994088,
    "Latitude":-32.223902
  },
  {
    "SiteID":57871,
    "TenantName":"Carroll, John Richard",
    "Address":"226 Planet St",
    "City":"Welshpool",
    "Region":"WA",
    "PostalCode":"6106",
    "FullAddress":"226 Planet St, Welshpool, WA, 6106, Australia",
    "Longitude":115.92636,
    "Latitude":-31.98773
  },
  {
    "SiteID":57871,
    "TenantName":"Blyde, Heath",
    "Address":"5 woodland dale",
    "City":"Canning Vale",
    "Region":"WA",
    "PostalCode":"6155",
    "FullAddress":"5 woodland dale, Canning Vale, WA, 6155, Australia",
    "Longitude":115.905007,
    "Latitude":-32.077967
  },
  {
    "SiteID":57871,
    "TenantName":"Black, John",
    "Address":"11 Whittlesford Street",
    "City":"East  Victoria Park",
    "Region":"WA",
    "PostalCode":"6101",
    "FullAddress":"11 Whittlesford Street, East  Victoria Park, WA, 6101, Australia",
    "Longitude":115.90433,
    "Latitude":-31.99436
  },
  {
    "SiteID":57871,
    "TenantName":"Bitmead, Jessica",
    "Address":"5 Newcastle Rd",
    "City":"Northam",
    "Region":"WA",
    "PostalCode":"6401",
    "FullAddress":"5 Newcastle Rd, Northam, WA, 6401, Australia",
    "Longitude":116.665226,
    "Latitude":-31.654766
  },
  {
    "SiteID":57871,
    "TenantName":"Benong, Joel",
    "Address":"Unit 1 52 Grey Street",
    "City":"Cannington",
    "Region":"WA",
    "PostalCode":"6107",
    "FullAddress":"Unit 1 52 Grey Street, Cannington, WA, 6107, Australia",
    "Longitude":115.948267,
    "Latitude":-32.02334
  },
  {
    "SiteID":57871,
    "TenantName":"Armitage, Steve",
    "Address":"43 Gregory St",
    "City":"Belmont",
    "Region":"WA",
    "PostalCode":"6104",
    "FullAddress":"43 Gregory St, Belmont, WA, 6104, Australia",
    "Longitude":115.941145,
    "Latitude":-31.950819
  },
  {
    "SiteID":57871,
    "TenantName":"Ye, Yuqi",
    "Address":"17 Swetman Way",
    "City":"Nickol",
    "Region":"WA",
    "PostalCode":"6714",
    "FullAddress":"17 Swetman Way, Nickol, WA, 6714, Australia",
    "Longitude":116.80521,
    "Latitude":-20.73898
  },
  {
    "SiteID":57871,
    "TenantName":"Page, Michael",
    "Address":"45 Salter Point Parade",
    "City":"Salter Point",
    "Region":"WA",
    "PostalCode":"6152",
    "FullAddress":"45 Salter Point Parade, Salter Point, WA, 6152, Australia",
    "Longitude":115.87475,
    "Latitude":-32.02131
  },
  {
    "SiteID":57871,
    "TenantName":"Willmott, Sally",
    "Address":"170 Swansea St",
    "City":"East Victoria Park",
    "Region":"WA",
    "PostalCode":"6101",
    "FullAddress":"170 Swansea St, East Victoria Park, WA, 6101, Australia",
    "Longitude":115.909957,
    "Latitude":-31.988772
  },
  {
    "SiteID":57871,
    "TenantName":"Tan Guan Dao, Roger",
    "Address":"5\/170, Surrey Road",
    "City":"Rivervale",
    "Region":"WA",
    "PostalCode":"6103",
    "FullAddress":"5\/170, Surrey Road, Rivervale, WA, 6103, Australia",
    "Longitude":115.91736,
    "Latitude":-31.96835
  },
  {
    "SiteID":57871,
    "TenantName":"Stoneham, Melissa",
    "Address":"44 Jainba Street",
    "City":"Indooroopilly",
    "Region":"WA",
    "PostalCode":"4068",
    "FullAddress":"44 Jainba Street, Indooroopilly, WA, 4068, Australia",
    "Longitude":152.962435,
    "Latitude":-27.511818
  },
  {
    "SiteID":57871,
    "TenantName":"Pereira, Michael",
    "Address":"Level 1 \/ 1205 Hay Street",
    "City":"West Perth",
    "Region":"WA",
    "PostalCode":"6005",
    "FullAddress":"Level 1 \/ 1205 Hay Street, West Perth, WA, 6005, Australia",
    "Longitude":115.842678,
    "Latitude":-31.949192
  },
  {
    "SiteID":57871,
    "TenantName":"Pearson, Bella",
    "Address":"22 Kardan CRT",
    "City":"Kararawara",
    "Region":"WA",
    "PostalCode":"6152",
    "FullAddress":"22 Kardan CRT, Kararawara, WA, 6152, Australia",
    "Longitude":115.88095,
    "Latitude":-32.00824
  },
  {
    "SiteID":57871,
    "TenantName":"Olliver, Mary",
    "Address":"U49 189 Swansea St",
    "City":"East Vic Park",
    "Region":"WA",
    "PostalCode":"6101",
    "FullAddress":"U49 189 Swansea St, East Vic Park, WA, 6101, Australia",
    "Longitude":115.914484,
    "Latitude":-31.993123
  },
  {
    "SiteID":57871,
    "TenantName":"Mclean, Eufemia",
    "Address":"6 October Rd",
    "City":"Spearwood",
    "Region":"WA",
    "PostalCode":"6063",
    "FullAddress":"6 October Rd, Spearwood, WA, 6063, Australia",
    "Longitude":115.776586,
    "Latitude":-32.105782
  },
  {
    "SiteID":57871,
    "TenantName":"Mcgill, Oliver",
    "Address":"30 Warwick Rd",
    "City":"Hillvue",
    "Region":"NSW",
    "PostalCode":"2340",
    "FullAddress":"30 Warwick Rd, Hillvue, NSW, 2340, Australia",
    "Longitude":150.907306,
    "Latitude":-31.123796
  },
  {
    "SiteID":57871,
    "TenantName":"Davidson, David",
    "Address":"1 Norfolk Street",
    "City":"South Perth",
    "Region":"WA",
    "PostalCode":"6151",
    "FullAddress":"1 Norfolk Street, South Perth, WA, 6151, Australia",
    "Longitude":115.86575,
    "Latitude":-31.98171
  },
  {
    "SiteID":57871,
    "TenantName":"Bubb, Jodi",
    "Address":"33 Ornonde St",
    "City":"Castletown",
    "Region":"WA",
    "PostalCode":"6450",
    "FullAddress":"33 Ornonde St, Castletown, WA, 6450, Australia",
    "Longitude":121.918499,
    "Latitude":-33.831737
  },
  {
    "SiteID":57871,
    "TenantName":"Patching, Tearra",
    "Address":"5 Compton Place",
    "City":"Kewdale",
    "Region":"WA",
    "PostalCode":"6105",
    "FullAddress":"5 Compton Place, Kewdale, WA, 6105, Australia",
    "Longitude":115.93946,
    "Latitude":-31.98046
  },
  {
    "SiteID":57871,
    "TenantName":"Whyte, Robert",
    "Address":"21A Brandon Street",
    "City":"South Perth",
    "Region":"WA",
    "PostalCode":"6151",
    "FullAddress":"21A Brandon Street, South Perth, WA, 6151, Australia",
    "Longitude":115.87684,
    "Latitude":-31.97818
  },
  {
    "SiteID":57871,
    "TenantName":"Della-Franca, Paul",
    "Address":"35 Williams Road",
    "City":"Coolbellup",
    "Region":"WA",
    "PostalCode":"6063",
    "FullAddress":"35 Williams Road, Coolbellup, WA, 6063, Australia",
    "Longitude":115.79876,
    "Latitude":-32.07979
  },
  {
    "SiteID":57871,
    "TenantName":"Daniels, Quenton",
    "Address":"32 Wilara St",
    "City":"Newman",
    "Region":"WA",
    "PostalCode":"6753",
    "FullAddress":"32 Wilara St, Newman, WA, 6753, Australia",
    "Longitude":119.73469,
    "Latitude":-23.35073
  },
  {
    "SiteID":57871,
    "TenantName":"Cahill, Catherine",
    "Address":"21 Kingsmill Street",
    "City":"Port Hedland",
    "Region":"WA",
    "PostalCode":"6721",
    "FullAddress":"21 Kingsmill Street, Port Hedland, WA, 6721, Australia",
    "Longitude":118.58095,
    "Latitude":-20.30942
  },
  {
    "SiteID":57871,
    "TenantName":"Borg, Margarita",
    "Address":"Level 1, 111 Coventry St",
    "City":"Southbank",
    "Region":"VIC",
    "PostalCode":"3006",
    "FullAddress":"Level 1, 111 Coventry St, Southbank, VIC, 3006, Australia",
    "Longitude":144.965771,
    "Latitude":-37.83079
  },
  {
    "SiteID":57871,
    "TenantName":"Batt, Oliver",
    "Address":"40 Boulder Ave",
    "City":"Ascot",
    "Region":"WA",
    "PostalCode":"6100",
    "FullAddress":"40 Boulder Ave, Ascot, WA, 6100, Australia",
    "Longitude":115.942283,
    "Latitude":-31.930928
  },
  {
    "SiteID":57871,
    "TenantName":"Williams, Murray",
    "Address":"38 Lower King Rd",
    "City":"Albany",
    "Region":"WA",
    "PostalCode":"6330",
    "FullAddress":"38 Lower King Rd, Albany, WA, 6330, Australia",
    "Longitude":117.919048,
    "Latitude":-34.997297
  },
  {
    "SiteID":57871,
    "TenantName":"Boyle, Jason",
    "Address":"10 Krypton Lane",
    "City":"Wattle Grove",
    "Region":"WA",
    "PostalCode":"6107",
    "FullAddress":"10 Krypton Lane, Wattle Grove, WA, 6107, Australia",
    "Longitude":115.983673,
    "Latitude":-31.993411
  },
  {
    "SiteID":57871,
    "TenantName":"Binney, Clay",
    "Address":"1066 Crossman Rd",
    "City":"Crossman",
    "Region":"WA",
    "PostalCode":"6390",
    "FullAddress":"1066 Crossman Rd, Crossman, WA, 6390, Australia",
    "Longitude":116.584541,
    "Latitude":-32.784117
  },
  {
    "SiteID":57871,
    "TenantName":"Statze, Derek",
    "Address":"3a Farmer Street",
    "City":"North Perth",
    "Region":"WA",
    "PostalCode":"6006",
    "FullAddress":"3a Farmer Street, North Perth, WA, 6006, Australia",
    "Longitude":115.85822,
    "Latitude":-31.9278
  },
  {
    "SiteID":57871,
    "TenantName":"Leighton, Jai A",
    "Address":"46 Brixton crescent",
    "City":"Ellenbrook",
    "Region":"WA",
    "PostalCode":"6069",
    "FullAddress":"46 Brixton crescent, Ellenbrook, WA, 6069, Australia",
    "Longitude":115.984681,
    "Latitude":-31.762063
  },
  {
    "SiteID":57871,
    "TenantName":"Nunnari, Daniel",
    "Address":"13A Langham Gdns",
    "City":"Wilson",
    "Region":"WA",
    "PostalCode":"6107",
    "FullAddress":"13A Langham Gdns, Wilson, WA, 6107, Australia",
    "Longitude":115.923477,
    "Latitude":-32.014555
  },
  {
    "SiteID":57871,
    "TenantName":"Ross, Patricia",
    "Address":"62 Myerson Cres",
    "City":"Maida Vale",
    "Region":"WA",
    "PostalCode":"6057",
    "FullAddress":"62 Myerson Cres, Maida Vale, WA, 6057, Australia",
    "Longitude":116.018912,
    "Latitude":-31.955989
  },
  {
    "SiteID":57871,
    "TenantName":"Auriemma, Antonio",
    "Address":"Unit F7 Forge Street",
    "City":"Welshpool",
    "Region":"WA",
    "PostalCode":"6101",
    "FullAddress":"Unit F7 Forge Street, Welshpool, WA, 6101, Australia",
    "Longitude":115.932735,
    "Latitude":-31.989376
  },
  {
    "SiteID":57871,
    "TenantName":"Otley, Jacqui",
    "Address":"1 Daglish Road",
    "City":"Redcliffe",
    "Region":"WA",
    "PostalCode":"6104",
    "FullAddress":"1 Daglish Road, Redcliffe, WA, 6104, Australia",
    "Longitude":115.95087,
    "Latitude":-31.95193
  },
  {
    "SiteID":57871,
    "TenantName":"Palmer, Paula",
    "Address":"Unit 3\/ 164 Williamson Avenue",
    "City":"Cloverdale",
    "Region":"Western Australia",
    "PostalCode":"6105",
    "FullAddress":"Unit 3\/ 164 Williamson Avenue, Cloverdale, Western Australia, 6105, Australia",
    "Longitude":115.944511,
    "Latitude":-31.957507
  },
  {
    "SiteID":57871,
    "TenantName":"Rajagopalan, Eeshwar",
    "Address":"4 Binney Mews",
    "City":"Willeton",
    "Region":"WA",
    "PostalCode":"6155",
    "FullAddress":"4 Binney Mews, Willeton, WA, 6155, Australia",
    "Longitude":115.8995,
    "Latitude":-32.04129
  },
  {
    "SiteID":57871,
    "TenantName":"Giometti, Antonio",
    "Address":"101 Hill Street",
    "City":"Meekathara",
    "Region":"WA",
    "PostalCode":"6642",
    "FullAddress":"101 Hill Street, Meekathara, WA, 6642, Australia",
    "Longitude":118.49633,
    "Latitude":-26.59562
  },
  {
    "SiteID":57871,
    "TenantName":"Taylor, Colin",
    "Address":"110 Kurnall Road",
    "City":"Welshpool",
    "Region":"WA",
    "PostalCode":"6106",
    "FullAddress":"110 Kurnall Road, Welshpool, WA, 6106, Australia",
    "Longitude":115.960814,
    "Latitude":-31.989492
  },
  {
    "SiteID":57871,
    "TenantName":"Macintyre, Caleb",
    "Address":"2 Drake Avenue",
    "City":"Macquarie Park",
    "Region":"NSW",
    "PostalCode":"2113",
    "FullAddress":"2 Drake Avenue, Macquarie Park, NSW, 2113, Australia",
    "Longitude":151.125219,
    "Latitude":-33.786282
  },
  {
    "SiteID":57871,
    "TenantName":"Bansal, Nancy",
    "Address":"3\/90 Renou street",
    "City":"East cannington",
    "Region":"WA",
    "PostalCode":"6107",
    "FullAddress":"3\/90 Renou street, East cannington, WA, 6107, Australia",
    "Longitude":115.950194,
    "Latitude":-32.014284
  },
  {
    "SiteID":57871,
    "TenantName":"Kretzschmar, Detlef",
    "Address":"12 Park  Street",
    "City":"Pingelly",
    "Region":"WA",
    "PostalCode":"6308",
    "FullAddress":"12 Park  Street, Pingelly, WA, 6308, Australia",
    "Longitude":117.07892,
    "Latitude":-32.532775
  },
  {
    "SiteID":57871,
    "TenantName":"Hill, Korey",
    "Address":"110 Chardonnay Drive",
    "City":"Lower Chittering",
    "Region":"WA",
    "PostalCode":"6084",
    "FullAddress":"110 Chardonnay Drive, Lower Chittering, WA, 6084, Australia",
    "Longitude":116.039754,
    "Latitude":-31.567457
  },
  {
    "SiteID":57871,
    "TenantName":"Eades, Trepheena",
    "Address":"12 Bundalla Court",
    "City":"Kelmscott",
    "Region":"W.A.",
    "PostalCode":"6111",
    "FullAddress":"12 Bundalla Court, Kelmscott, W.A., 6111, Australia",
    "Longitude":116.01035,
    "Latitude":-32.12748
  },
  {
    "SiteID":57871,
    "TenantName":"Point, Parcel",
    "Address":"1 Babel Road",
    "City":"Welshpool",
    "Region":"WA",
    "PostalCode":"6106",
    "FullAddress":"1 Babel Road, Welshpool, WA, 6106, Australia",
    "Longitude":115.930832,
    "Latitude":-31.993588
  },
  {
    "SiteID":57871,
    "TenantName":"Johns, Brodie",
    "Address":"2 Desford Close",
    "City":"Shelley",
    "Region":"WA",
    "PostalCode":"6148",
    "FullAddress":"2 Desford Close, Shelley, WA, 6148, Australia",
    "Longitude":115.87395,
    "Latitude":-32.03517
  },
  {
    "SiteID":57871,
    "TenantName":"Eggington, Robert",
    "Address":"2 Grasmere Fairway",
    "City":"Tapping",
    "Region":"WA",
    "PostalCode":"6065",
    "FullAddress":"2 Grasmere Fairway, Tapping, WA, 6065, Australia",
    "Longitude":115.78407,
    "Latitude":-31.71751
  },
  {
    "SiteID":57871,
    "TenantName":"Hayes, Francis",
    "Address":"148B Sussex St",
    "City":"East Victoria Park",
    "Region":"WA",
    "PostalCode":"6101",
    "FullAddress":"148B Sussex St, East Victoria Park, WA, 6101, Australia",
    "Longitude":115.89176,
    "Latitude":-31.99203
  },
  {
    "SiteID":57871,
    "TenantName":"Ebb, Ken",
    "Address":"21 Torquay St",
    "City":"Greenhills Beach",
    "Region":"NSW",
    "PostalCode":"2230",
    "FullAddress":"21 Torquay St, Greenhills Beach, NSW, 2230, Australia",
    "Longitude":151.164174,
    "Latitude":-34.034955
  },
  {
    "SiteID":57871,
    "TenantName":"Holtfreter, Jane",
    "Address":"Unit 4, 146 Joel Tce",
    "City":"Mount Lawley",
    "Region":"WA",
    "PostalCode":"6050",
    "FullAddress":"Unit 4, 146 Joel Tce, Mount Lawley, WA, 6050, Australia",
    "Longitude":115.883102,
    "Latitude":-31.939103
  },
  {
    "SiteID":57871,
    "TenantName":"Nor, Norhayati",
    "Address":"26 Tralee Way",
    "City":"Waterford",
    "Region":"WA",
    "PostalCode":"6152",
    "FullAddress":"26 Tralee Way, Waterford, WA, 6152, Australia",
    "Longitude":115.88585,
    "Latitude":-32.01327
  },
  {
    "SiteID":57871,
    "TenantName":"Ali, Muhammad",
    "Address":"25 Clinton Avenue",
    "City":"St James",
    "Region":"WA",
    "PostalCode":"6102",
    "FullAddress":"25 Clinton Avenue, St James, WA, 6102, Australia",
    "Longitude":115.90623,
    "Latitude":-32.00211
  },
  {
    "SiteID":57871,
    "TenantName":"Aylmore, Michael",
    "Address":"Unit 9 7 Sarah Street",
    "City":"Maylands",
    "Region":"WA",
    "PostalCode":"6051",
    "FullAddress":"Unit 9 7 Sarah Street, Maylands, WA, 6051, Australia",
    "Longitude":115.90117,
    "Latitude":-31.93343
  },
  {
    "SiteID":57871,
    "TenantName":"Brown, Nathan",
    "Address":"65A Main St",
    "City":"Perth",
    "Region":"WA",
    "PostalCode":"6017",
    "FullAddress":"65A Main St, Perth, WA, 6017, Australia",
    "Longitude":115.82785,
    "Latitude":-31.90854
  },
  {
    "SiteID":57871,
    "TenantName":"Thombre, Atharva",
    "Address":"19, Goulburn street",
    "City":"Macquarie",
    "Region":"ACT",
    "PostalCode":"2614",
    "FullAddress":"19, Goulburn street, Macquarie, ACT, 2614, Australia",
    "Longitude":149.062451,
    "Latitude":-35.25162
  },
  {
    "SiteID":57871,
    "TenantName":"Masters, Leith",
    "Address":"315 Roberts Road",
    "City":"Subioaco",
    "Region":"WA",
    "PostalCode":"6008",
    "FullAddress":"315 Roberts Road, Subioaco, WA, 6008, Australia",
    "Longitude":115.82739,
    "Latitude":-31.94567
  }
]