[
  {
    "SiteID":57231,
    "TenantName":"Muller, Felicity J",
    "Address":"26 Ormanton Road",
    "City":null,
    "Region":"England",
    "PostalCode":"SE26 6RB",
    "FullAddress":"26 Ormanton Road, England, SE26 6RB, Australia",
    "Longitude":141.392344,
    "Latitude":-19.848782
  },
  {
    "SiteID":57231,
    "TenantName":"Mcdonald, Logan R",
    "Address":"213 Algester Road",
    "City":"Algester",
    "Region":"QLD",
    "PostalCode":"4115",
    "FullAddress":"213 Algester Road, Algester, QLD, 4115, Australia",
    "Longitude":153.036141,
    "Latitude":-27.615412
  },
  {
    "SiteID":57231,
    "TenantName":"Tiai, Kalameli",
    "Address":"19 Juniper Street",
    "City":"Heathwood",
    "Region":"QLD",
    "PostalCode":"4110",
    "FullAddress":"19 Juniper Street, Heathwood, QLD, 4110, Australia",
    "Longitude":152.987538,
    "Latitude":-27.632546
  },
  {
    "SiteID":57231,
    "TenantName":"Public Trustee, Ben",
    "Address":"c- Aveo Retirement Village 356 Blunder R",
    "City":"DURACK",
    "Region":"QLD",
    "PostalCode":"4077",
    "FullAddress":"c- Aveo Retirement Village 356 Blunder R, DURACK, QLD, 4077, Australia",
    "Longitude":152.988117,
    "Latitude":-27.579845
  },
  {
    "SiteID":57231,
    "TenantName":"Blair, Rose",
    "Address":"33 Degas Street",
    "City":"Forest Lake",
    "Region":"QLD",
    "PostalCode":"4078",
    "FullAddress":"33 Degas Street, Forest Lake, QLD, 4078, Australia",
    "Longitude":152.95462,
    "Latitude":-27.607803
  },
  {
    "SiteID":57231,
    "TenantName":"Casa, Frank",
    "Address":"976 Ipswich Road",
    "City":"MOOROOKA",
    "Region":"QLD",
    "PostalCode":"4105",
    "FullAddress":"976 Ipswich Road, MOOROOKA, QLD, 4105, Australia",
    "Longitude":153.019536,
    "Latitude":-27.529448
  },
  {
    "SiteID":57231,
    "TenantName":"Hallbauer, Melania",
    "Address":"30 Eugenia Street",
    "City":"Inala",
    "Region":"QLD",
    "PostalCode":"4077",
    "FullAddress":"30 Eugenia Street, Inala, QLD, 4077, Australia",
    "Longitude":152.964865,
    "Latitude":-27.582578
  },
  {
    "SiteID":57231,
    "TenantName":"Webster, Bradley J",
    "Address":"15 James Edward Street",
    "City":"Richlands",
    "Region":"QLD",
    "PostalCode":"4077",
    "FullAddress":"15 James Edward Street, Richlands, QLD, 4077, Australia",
    "Longitude":152.959238,
    "Latitude":-27.586074
  },
  {
    "SiteID":57231,
    "TenantName":"Carnarvon, Cassandra V",
    "Address":"64 Kokoda Street",
    "City":"DARRA",
    "Region":"QLD",
    "PostalCode":"4076",
    "FullAddress":"64 Kokoda Street, DARRA, QLD, 4076, Australia",
    "Longitude":152.938817,
    "Latitude":-27.578246
  },
  {
    "SiteID":57231,
    "TenantName":"Manskie, Rachel",
    "Address":"10 Bellerive Street",
    "City":"Pallara",
    "Region":"QLD",
    "PostalCode":"4110",
    "FullAddress":"10 Bellerive Street, Pallara, QLD, 4110, Australia",
    "Longitude":153.002264,
    "Latitude":-27.621606
  },
  {
    "SiteID":57231,
    "TenantName":"Whitelaw, Gary I",
    "Address":"63 Hampstead Street",
    "City":"Forest Lake",
    "Region":"QLD",
    "PostalCode":"4078",
    "FullAddress":"63 Hampstead Street, Forest Lake, QLD, 4078, Australia",
    "Longitude":152.954996,
    "Latitude":-27.631338
  },
  {
    "SiteID":57231,
    "TenantName":"Galuvao, Alatina",
    "Address":"138 Westminster Boulevard",
    "City":"Doolandella",
    "Region":"QLD",
    "PostalCode":"4077",
    "FullAddress":"138 Westminster Boulevard, Doolandella, QLD, 4077, Australia",
    "Longitude":152.987374,
    "Latitude":-27.615953
  },
  {
    "SiteID":57231,
    "TenantName":"Marshall, Melanie J",
    "Address":"19 Hook Street",
    "City":"INALA",
    "Region":"QLD",
    "PostalCode":"4077",
    "FullAddress":"19 Hook Street, INALA, QLD, 4077, Australia",
    "Longitude":152.965359,
    "Latitude":-27.58344
  },
  {
    "SiteID":57231,
    "TenantName":"Raslan, Ali",
    "Address":"156 Inala Avenue",
    "City":"Inala",
    "Region":"QLD",
    "PostalCode":"4077",
    "FullAddress":"156 Inala Avenue, Inala, QLD, 4077, Australia",
    "Longitude":152.974264,
    "Latitude":-27.598026
  },
  {
    "SiteID":57231,
    "TenantName":"Moody, Annie",
    "Address":"18 Box Street",
    "City":"RANGEVILLE",
    "Region":"QLD",
    "PostalCode":"4350",
    "FullAddress":"18 Box Street, RANGEVILLE, QLD, 4350, Australia",
    "Longitude":151.98251,
    "Latitude":-27.591988
  },
  {
    "SiteID":57231,
    "TenantName":"Adolfo Mena Montoya, Gustavo",
    "Address":"44 Farren Street",
    "City":"Camira",
    "Region":"QLD",
    "PostalCode":"4300",
    "FullAddress":"44 Farren Street, Camira, QLD, 4300, Australia",
    "Longitude":152.924769,
    "Latitude":-27.635473
  },
  {
    "SiteID":57231,
    "TenantName":"Ashurst, Kent N",
    "Address":"Unit B 42 Paddington Street",
    "City":"Bellmere",
    "Region":"QLD",
    "PostalCode":"4510",
    "FullAddress":"Unit B 42 Paddington Street, Bellmere, QLD, 4510, Australia",
    "Longitude":152.929271,
    "Latitude":-27.092017
  },
  {
    "SiteID":57231,
    "TenantName":"Thi Xuan Nguyen, Tham",
    "Address":"Unit 6, 12 Mcgregor Avenue",
    "City":"Lutwyche",
    "Region":"QLD",
    "PostalCode":"4030",
    "FullAddress":"Unit 6, 12 Mcgregor Avenue, Lutwyche, QLD, 4030, Australia",
    "Longitude":153.032889,
    "Latitude":-27.419269
  },
  {
    "SiteID":57231,
    "TenantName":"Walsh, Jessica M",
    "Address":"40 Cattiger Street",
    "City":"Richlands",
    "Region":"QLD",
    "PostalCode":"4077",
    "FullAddress":"40 Cattiger Street, Richlands, QLD, 4077, Australia",
    "Longitude":152.96219,
    "Latitude":-27.583421
  },
  {
    "SiteID":57231,
    "TenantName":"Hall, Cecily",
    "Address":"1 Bettong Place",
    "City":"Doolandella",
    "Region":"QLD",
    "PostalCode":"4077",
    "FullAddress":"1 Bettong Place, Doolandella, QLD, 4077, Australia",
    "Longitude":152.981127,
    "Latitude":-27.606426
  },
  {
    "SiteID":57231,
    "TenantName":"Hart, Bruce G",
    "Address":"27 Rimu Crescent",
    "City":"Forest Lake",
    "Region":"QLD",
    "PostalCode":"4078",
    "FullAddress":"27 Rimu Crescent, Forest Lake, QLD, 4078, Australia",
    "Longitude":152.961121,
    "Latitude":-27.618077
  },
  {
    "SiteID":57231,
    "TenantName":"Silooy, Benita A",
    "Address":"18 \/ 13-15 Smith Road",
    "City":"Woodridge",
    "Region":"QLD",
    "PostalCode":"4114",
    "FullAddress":"18 \/ 13-15 Smith Road, Woodridge, QLD, 4114, Australia",
    "Longitude":153.116952,
    "Latitude":-27.629451
  },
  {
    "SiteID":57231,
    "TenantName":"Culverhouse, Rebecca",
    "Address":"4\/23 Sanders Street",
    "City":"Upper Mount Gravatt",
    "Region":"QLD",
    "PostalCode":"4122",
    "FullAddress":"4\/23 Sanders Street, Upper Mount Gravatt, QLD, 4122, Australia",
    "Longitude":153.081129,
    "Latitude":-27.55774
  },
  {
    "SiteID":57231,
    "TenantName":"Massey, Donald F",
    "Address":"9 Boulia Court",
    "City":"Durack",
    "Region":"QLD",
    "PostalCode":"4077",
    "FullAddress":"9 Boulia Court, Durack, QLD, 4077, Australia",
    "Longitude":152.985292,
    "Latitude":-27.593263
  },
  {
    "SiteID":57231,
    "TenantName":"Roberts, Tynaja I",
    "Address":"5 Dingle Court",
    "City":"Gracemere",
    "Region":"QLD",
    "PostalCode":"4702",
    "FullAddress":"5 Dingle Court, Gracemere, QLD, 4702, Australia",
    "Longitude":150.465814,
    "Latitude":-23.460579
  },
  {
    "SiteID":57231,
    "TenantName":"Beutel, Graham L",
    "Address":"4 Fantail Street",
    "City":"Inala",
    "Region":"QLD",
    "PostalCode":"4077",
    "FullAddress":"4 Fantail Street, Inala, QLD, 4077, Australia",
    "Longitude":152.983368,
    "Latitude":-27.600078
  },
  {
    "SiteID":57231,
    "TenantName":"Allen, Lynette J",
    "Address":"63\/228 Enborisoff Street",
    "City":"Taigum",
    "Region":"QLD",
    "PostalCode":"4018",
    "FullAddress":"63\/228 Enborisoff Street, Taigum, QLD, 4018, Australia",
    "Longitude":153.042372,
    "Latitude":-27.338665
  },
  {
    "SiteID":57231,
    "TenantName":"Green, Khyle A",
    "Address":"62 Gardenia Circuit",
    "City":"Heathwood",
    "Region":"QLD",
    "PostalCode":"4110",
    "FullAddress":"62 Gardenia Circuit, Heathwood, QLD, 4110, Australia",
    "Longitude":152.990938,
    "Latitude":-27.635707
  },
  {
    "SiteID":57231,
    "TenantName":"Serridge, Rowena A",
    "Address":"5 Fitzroy Place",
    "City":"Forest Lake",
    "Region":"QLD",
    "PostalCode":"4078",
    "FullAddress":"5 Fitzroy Place, Forest Lake, QLD, 4078, Australia",
    "Longitude":152.972315,
    "Latitude":-27.632034
  },
  {
    "SiteID":57231,
    "TenantName":"Stuart, Brandon D",
    "Address":"39 Gaynor Road",
    "City":"Banyo",
    "Region":"QLD",
    "PostalCode":"4014",
    "FullAddress":"39 Gaynor Road, Banyo, QLD, 4014, Australia",
    "Longitude":153.075848,
    "Latitude":-27.371309
  },
  {
    "SiteID":57231,
    "TenantName":"Todd, Chloe",
    "Address":"5 Kitava Street",
    "City":"Fig Tree Pocket",
    "Region":"QLD",
    "PostalCode":"4069",
    "FullAddress":"5 Kitava Street, Fig Tree Pocket, QLD, 4069, Australia",
    "Longitude":152.953185,
    "Latitude":-27.52411
  },
  {
    "SiteID":57231,
    "TenantName":"SCHIRO, CARMEN",
    "Address":"7 Adonis Street",
    "City":"Inala",
    "Region":"QLD",
    "PostalCode":"4077",
    "FullAddress":"7 Adonis Street, Inala, QLD, 4077, Australia",
    "Longitude":152.976477,
    "Latitude":-27.593659
  },
  {
    "SiteID":57231,
    "TenantName":"Rumsey, Daniel Robert",
    "Address":"113a\/758 Blunder Road",
    "City":"Inala",
    "Region":"QLD",
    "PostalCode":"4077",
    "FullAddress":"113a\/758 Blunder Road, Inala, QLD, 4077, Australia",
    "Longitude":152.99082,
    "Latitude":-27.599213
  },
  {
    "SiteID":57231,
    "TenantName":"Quoc Nguyen, Hung",
    "Address":"60 Jordan Street",
    "City":"Richlands",
    "Region":"QLD",
    "PostalCode":"4077",
    "FullAddress":"60 Jordan Street, Richlands, QLD, 4077, Australia",
    "Longitude":152.96228,
    "Latitude":-27.589497
  },
  {
    "SiteID":57231,
    "TenantName":"Best, Chris",
    "Address":"12 Upward Street",
    "City":"Leichhardt",
    "Region":"NSW",
    "PostalCode":"2040",
    "FullAddress":"12 Upward Street, Leichhardt, NSW, 2040, Australia",
    "Longitude":151.14738,
    "Latitude":-33.888723
  },
  {
    "SiteID":57231,
    "TenantName":"Hasker, Simson S",
    "Address":"Unit l19 356 Blunder Road",
    "City":"Durack",
    "Region":"QLD",
    "PostalCode":"4077",
    "FullAddress":"Unit l19 356 Blunder Road, Durack, QLD, 4077, Australia",
    "Longitude":152.988117,
    "Latitude":-27.579845
  },
  {
    "SiteID":57231,
    "TenantName":"Yaqub, Emma J",
    "Address":"40 Cintra Street",
    "City":"Durack",
    "Region":"QLD",
    "PostalCode":"4077",
    "FullAddress":"40 Cintra Street, Durack, QLD, 4077, Australia",
    "Longitude":152.980618,
    "Latitude":-27.578874
  },
  {
    "SiteID":57231,
    "TenantName":"Maddalon, Daniella L",
    "Address":"Duncan Street",
    "City":"West End",
    "Region":"QLD",
    "PostalCode":"4101",
    "FullAddress":"Duncan Street, West End, QLD, 4101, Australia",
    "Longitude":153.000218,
    "Latitude":-27.483899
  },
  {
    "SiteID":57231,
    "TenantName":"Leota, Aukuso",
    "Address":"13 Linacre Street",
    "City":"Durack",
    "Region":"QLD",
    "PostalCode":"4077",
    "FullAddress":"13 Linacre Street, Durack, QLD, 4077, Australia",
    "Longitude":152.992074,
    "Latitude":-27.594773
  },
  {
    "SiteID":57231,
    "TenantName":"Campbell, Natasha L",
    "Address":"42 Regal Close",
    "City":"Heathwood",
    "Region":"QLD",
    "PostalCode":"4110",
    "FullAddress":"42 Regal Close, Heathwood, QLD, 4110, Australia",
    "Longitude":152.981912,
    "Latitude":-27.626214
  },
  {
    "SiteID":57231,
    "TenantName":"Gunton, Andrew",
    "Address":"23-27 Chaplin Drive",
    "City":"Lane Cove West",
    "Region":"QLD",
    "PostalCode":"2066",
    "FullAddress":"23-27 Chaplin Drive, Lane Cove West, QLD, 2066, Australia",
    "Longitude":151.149402,
    "Latitude":-33.80947
  },
  {
    "SiteID":57231,
    "TenantName":"Laki, Legatasia L",
    "Address":"18 Portree Cresent",
    "City":"Heathwood",
    "Region":"QLD",
    "PostalCode":"4110",
    "FullAddress":"18 Portree Cresent, Heathwood, QLD, 4110, Australia",
    "Longitude":152.986405,
    "Latitude":-27.62464
  },
  {
    "SiteID":57231,
    "TenantName":"Burch, Selena J",
    "Address":"17 Adonis Street",
    "City":"DURACK",
    "Region":"QLD",
    "PostalCode":"4077",
    "FullAddress":"17 Adonis Street, DURACK, QLD, 4077, Australia",
    "Longitude":152.976087,
    "Latitude":-27.594712
  },
  {
    "SiteID":57231,
    "TenantName":"Neuendorf, Gwendolyne V",
    "Address":"2 Mahogany Place",
    "City":"Forest Lake",
    "Region":"QLD",
    "PostalCode":"4078",
    "FullAddress":"2 Mahogany Place, Forest Lake, QLD, 4078, Australia",
    "Longitude":152.96269,
    "Latitude":-27.617835
  },
  {
    "SiteID":57231,
    "TenantName":"Norris, Wayne W",
    "Address":"5 Aquila Street",
    "City":"Inala",
    "Region":"QLD",
    "PostalCode":"4077",
    "FullAddress":"5 Aquila Street, Inala, QLD, 4077, Australia",
    "Longitude":152.969221,
    "Latitude":-27.605525
  },
  {
    "SiteID":57231,
    "TenantName":"Tedi, Sean",
    "Address":"Unit 601, 50 Ferry Road",
    "City":"West End",
    "Region":"QLD",
    "PostalCode":"4101",
    "FullAddress":"Unit 601, 50 Ferry Road, West End, QLD, 4101, Australia",
    "Longitude":152.998733,
    "Latitude":-27.485723
  },
  {
    "SiteID":57231,
    "TenantName":"Bradshaw, Brenda F",
    "Address":"71 Palmer Street",
    "City":"Nambucca Heads",
    "Region":"NSW",
    "PostalCode":"2448",
    "FullAddress":"71 Palmer Street, Nambucca Heads, NSW, 2448, Australia",
    "Longitude":152.995744,
    "Latitude":-30.63927
  },
  {
    "SiteID":57231,
    "TenantName":"Stewart, Andrew J",
    "Address":"11 Ronald Street",
    "City":"Ellen Grove",
    "Region":"QLD",
    "PostalCode":"4078",
    "FullAddress":"11 Ronald Street, Ellen Grove, QLD, 4078, Australia",
    "Longitude":152.937879,
    "Latitude":-27.609683
  },
  {
    "SiteID":57231,
    "TenantName":"Ialoloi Seden, Marika",
    "Address":"Unit 9, 102 Rockbourne Terrace",
    "City":"Paddington",
    "Region":"QLD",
    "PostalCode":"4064",
    "FullAddress":"Unit 9, 102 Rockbourne Terrace, Paddington, QLD, 4064, Australia",
    "Longitude":152.98998,
    "Latitude":-27.456752
  },
  {
    "SiteID":57231,
    "TenantName":"Whalley, Shane Victor",
    "Address":"36\/42 Ferney Road",
    "City":"WESTEND",
    "Region":"QLD",
    "PostalCode":"4101",
    "FullAddress":"36\/42 Ferney Road, WESTEND, QLD, 4101, Australia",
    "Longitude":145.415754,
    "Latitude":-36.368284
  },
  {
    "SiteID":57231,
    "TenantName":"Bennett, Luke",
    "Address":"114 Victoria Avenue",
    "City":"Chelmer",
    "Region":"QLD",
    "PostalCode":"4068",
    "FullAddress":"114 Victoria Avenue, Chelmer, QLD, 4068, Australia",
    "Longitude":152.971469,
    "Latitude":-27.512605
  },
  {
    "SiteID":57231,
    "TenantName":"Reece, Khiarna G",
    "Address":"24 Wedgetail Street",
    "City":"Inala",
    "Region":"QLD",
    "PostalCode":"4077",
    "FullAddress":"24 Wedgetail Street, Inala, QLD, 4077, Australia",
    "Longitude":152.985487,
    "Latitude":-27.600379
  },
  {
    "SiteID":57231,
    "TenantName":"Thorpe, Sharon M",
    "Address":"145 Lorikeet Street",
    "City":"Inala",
    "Region":"QLD",
    "PostalCode":"4077",
    "FullAddress":"145 Lorikeet Street, Inala, QLD, 4077, Australia",
    "Longitude":152.985929,
    "Latitude":-27.604331
  },
  {
    "SiteID":57231,
    "TenantName":"Khan, Mubeen",
    "Address":"12 The Avenue",
    "City":"Heathwood",
    "Region":"QLD",
    "PostalCode":"4110",
    "FullAddress":"12 The Avenue, Heathwood, QLD, 4110, Australia",
    "Longitude":152.985906,
    "Latitude":-27.634112
  },
  {
    "SiteID":57231,
    "TenantName":"Coffin Grey, Alwyne C",
    "Address":"33-41 Lucas Road",
    "City":"Tamborine",
    "Region":"QLD",
    "PostalCode":"4270",
    "FullAddress":"33-41 Lucas Road, Tamborine, QLD, 4270, Australia",
    "Longitude":153.159927,
    "Latitude":-27.888601
  },
  {
    "SiteID":57231,
    "TenantName":"Rae, Robbie",
    "Address":"44 Woodlands Drive",
    "City":"Somerville",
    "Region":"VIC",
    "PostalCode":"3912",
    "FullAddress":"44 Woodlands Drive, Somerville, VIC, 3912, Australia",
    "Longitude":145.159136,
    "Latitude":-38.224899
  },
  {
    "SiteID":57231,
    "TenantName":"Winter, William P",
    "Address":"1\/114 Thorn St",
    "City":"IPSWICH",
    "Region":"QLD",
    "PostalCode":"4305",
    "FullAddress":"1\/114 Thorn St, IPSWICH, QLD, 4305, Australia",
    "Longitude":152.761873,
    "Latitude":-27.62992
  },
  {
    "SiteID":57231,
    "TenantName":"Almstetter, John W",
    "Address":"Nottingham Court",
    "City":"BRISBANE",
    "Region":"QLD",
    "PostalCode":"4118",
    "FullAddress":"Nottingham Court, BRISBANE, QLD, 4118, Australia",
    "Longitude":153.009845,
    "Latitude":-27.659143
  },
  {
    "SiteID":57231,
    "TenantName":"Ransley, Duvessa",
    "Address":"21 Agathis Place",
    "City":"FOREST LAKE",
    "Region":"QLD",
    "PostalCode":"4078",
    "FullAddress":"21 Agathis Place, FOREST LAKE, QLD, 4078, Australia",
    "Longitude":152.961229,
    "Latitude":-27.615143
  },
  {
    "SiteID":57231,
    "TenantName":"Dahir mohamed, Mohamed",
    "Address":"Unit 27, 31 Edward Street",
    "City":"Richlands",
    "Region":"QLD",
    "PostalCode":"4077",
    "FullAddress":"Unit 27, 31 Edward Street, Richlands, QLD, 4077, Australia",
    "Longitude":153.111814,
    "Latitude":-26.673879
  },
  {
    "SiteID":57231,
    "TenantName":"Deaves, Brett J",
    "Address":"7 Mitchell Place",
    "City":"Forest Lake",
    "Region":"QLD",
    "PostalCode":"4078",
    "FullAddress":"7 Mitchell Place, Forest Lake, QLD, 4078, Australia",
    "Longitude":152.968554,
    "Latitude":-27.61671
  },
  {
    "SiteID":57231,
    "TenantName":"It Upotopotoivail Motu, Selaginato",
    "Address":"189 Equestrian Drive",
    "City":"New Beith",
    "Region":"QLD",
    "PostalCode":"4124",
    "FullAddress":"189 Equestrian Drive, New Beith, QLD, 4124, Australia",
    "Longitude":152.963936,
    "Latitude":-27.748028
  },
  {
    "SiteID":57231,
    "TenantName":"Parker, Maree J",
    "Address":"9 Lapwing Street",
    "City":"Inala",
    "Region":"QLD",
    "PostalCode":"4077",
    "FullAddress":"9 Lapwing Street, Inala, QLD, 4077, Australia",
    "Longitude":152.97595,
    "Latitude":-27.598495
  },
  {
    "SiteID":57231,
    "TenantName":"Bullerwell, Melissa R",
    "Address":"08 Grebe Street",
    "City":"INALA",
    "Region":"QLD",
    "PostalCode":"4077",
    "FullAddress":"08 Grebe Street, INALA, QLD, 4077, Australia",
    "Longitude":152.981993,
    "Latitude":-27.601035
  },
  {
    "SiteID":57231,
    "TenantName":"Trinder, Holly R",
    "Address":"7 Mitchell Place",
    "City":"Forest Lake",
    "Region":"QLD",
    "PostalCode":"4078",
    "FullAddress":"7 Mitchell Place, Forest Lake, QLD, 4078, Australia",
    "Longitude":152.968554,
    "Latitude":-27.61671
  },
  {
    "SiteID":57231,
    "TenantName":"Negus, Marilyn",
    "Address":"28 Yulan Street",
    "City":"INALA",
    "Region":"QLD",
    "PostalCode":"4077",
    "FullAddress":"28 Yulan Street, INALA, QLD, 4077, Australia",
    "Longitude":152.971359,
    "Latitude":-27.581743
  },
  {
    "SiteID":57231,
    "TenantName":"Levine, Wilawan",
    "Address":"28 Sunset Lane",
    "City":"Loganholme",
    "Region":"QLD",
    "PostalCode":"4129",
    "FullAddress":"28 Sunset Lane, Loganholme, QLD, 4129, Australia",
    "Longitude":153.173886,
    "Latitude":-27.68421
  },
  {
    "SiteID":57231,
    "TenantName":"McInnes, Owen",
    "Address":"12 Wombat Place",
    "City":"Doolandella",
    "Region":"QLD",
    "PostalCode":"4077",
    "FullAddress":"12 Wombat Place, Doolandella, QLD, 4077, Australia",
    "Longitude":152.983654,
    "Latitude":-27.608704
  },
  {
    "SiteID":57231,
    "TenantName":"Lane, Margo",
    "Address":"93 Finnegan Circuit",
    "City":"Oxley",
    "Region":"QLD",
    "PostalCode":"4075",
    "FullAddress":"93 Finnegan Circuit, Oxley, QLD, 4075, Australia",
    "Longitude":152.973085,
    "Latitude":-27.563772
  },
  {
    "SiteID":57231,
    "TenantName":"Blake, John E",
    "Address":"Unit 59, 580 Seventeen Mile Rocks Road",
    "City":"Sinnamon Park",
    "Region":"QLD",
    "PostalCode":"4073",
    "FullAddress":"Unit 59, 580 Seventeen Mile Rocks Road, Sinnamon Park, QLD, 4073, Australia",
    "Longitude":152.951992,
    "Latitude":-27.539446
  },
  {
    "SiteID":57231,
    "TenantName":"Ormsby, Alan",
    "Address":"PO Box 731 New Farm",
    "City":null,
    "Region":"QLD",
    "PostalCode":"4005",
    "FullAddress":"PO Box 731 New Farm, QLD, 4005, Australia",
    "Longitude":149.732189,
    "Latitude":-34.749088
  },
  {
    "SiteID":57231,
    "TenantName":"Hope Enid Bourne, Stefenni",
    "Address":"10 Chiswick Place",
    "City":"Forest Lake",
    "Region":"QLD",
    "PostalCode":"4078",
    "FullAddress":"10 Chiswick Place, Forest Lake, QLD, 4078, Australia",
    "Longitude":152.959543,
    "Latitude":-27.627602
  },
  {
    "SiteID":57231,
    "TenantName":"Meincke, Jena J",
    "Address":"77 Clipper Street",
    "City":"Inala",
    "Region":"QLD",
    "PostalCode":"4077",
    "FullAddress":"77 Clipper Street, Inala, QLD, 4077, Australia",
    "Longitude":152.969596,
    "Latitude":-27.602654
  },
  {
    "SiteID":57231,
    "TenantName":"Jones, Julie L",
    "Address":"12 Lilydale Pl",
    "City":"FOREST LAKE",
    "Region":"QLD",
    "PostalCode":"4078",
    "FullAddress":"12 Lilydale Pl, FOREST LAKE, QLD, 4078, Australia",
    "Longitude":152.947836,
    "Latitude":-27.604687
  },
  {
    "SiteID":57231,
    "TenantName":"Tajik, Ali",
    "Address":"38 Swallow Street",
    "City":"Inala",
    "Region":"QLD",
    "PostalCode":"4077",
    "FullAddress":"38 Swallow Street, Inala, QLD, 4077, Australia",
    "Longitude":152.978339,
    "Latitude":-27.601451
  },
  {
    "SiteID":57231,
    "TenantName":"Mcsweeney, Garry",
    "Address":"111A Ashridge Road",
    "City":"Darra",
    "Region":"QLD",
    "PostalCode":"4076",
    "FullAddress":"111A Ashridge Road, Darra, QLD, 4076, Australia",
    "Longitude":152.956399,
    "Latitude":-27.561181
  },
  {
    "SiteID":57231,
    "TenantName":"Lee Herbert, Felisha L",
    "Address":"48 Freshwater Circuit",
    "City":"Forest Lake",
    "Region":"QLD",
    "PostalCode":"4078",
    "FullAddress":"48 Freshwater Circuit, Forest Lake, QLD, 4078, Australia",
    "Longitude":152.961013,
    "Latitude":-27.620811
  },
  {
    "SiteID":57231,
    "TenantName":"Mohaghegh nahavandi, Atallah",
    "Address":"58 Steelwood Street",
    "City":"Heathwood",
    "Region":"QLD",
    "PostalCode":"4110",
    "FullAddress":"58 Steelwood Street, Heathwood, QLD, 4110, Australia",
    "Longitude":152.993733,
    "Latitude":-27.637887
  },
  {
    "SiteID":57231,
    "TenantName":"Wallace, Robin G",
    "Address":"10 Sandy Creek Ave",
    "City":"CAMIRA",
    "Region":"QLD",
    "PostalCode":"4070",
    "FullAddress":"10 Sandy Creek Ave, CAMIRA, QLD, 4070, Australia",
    "Longitude":152.926112,
    "Latitude":-27.633267
  },
  {
    "SiteID":57231,
    "TenantName":"Machel Miyal Ochola, Samora",
    "Address":"8 Lowry Street",
    "City":"Inala",
    "Region":"QLD",
    "PostalCode":"4077",
    "FullAddress":"8 Lowry Street, Inala, QLD, 4077, Australia",
    "Longitude":152.970958,
    "Latitude":-27.602416
  },
  {
    "SiteID":57231,
    "TenantName":"Ahmed Khan, Zoheib",
    "Address":"4 Tofoni Place",
    "City":"Richlands",
    "Region":"QLD",
    "PostalCode":"4077",
    "FullAddress":"4 Tofoni Place, Richlands, QLD, 4077, Australia",
    "Longitude":152.960302,
    "Latitude":-27.588006
  },
  {
    "SiteID":57231,
    "TenantName":"Glancy, Christy M",
    "Address":"4 Grus Street",
    "City":"Inala",
    "Region":"QLD",
    "PostalCode":"4077",
    "FullAddress":"4 Grus Street, Inala, QLD, 4077, Australia",
    "Longitude":152.962898,
    "Latitude":-27.602291
  },
  {
    "SiteID":57231,
    "TenantName":"Cramer, Damien",
    "Address":"19B Torroodun Street",
    "City":"Mount Waverley",
    "Region":"VIC",
    "PostalCode":"3149",
    "FullAddress":"19B Torroodun Street, Mount Waverley, VIC, 3149, Australia",
    "Longitude":145.137892,
    "Latitude":-37.890561
  },
  {
    "SiteID":57231,
    "TenantName":"Madden, Kelly",
    "Address":"76 Bank Rd",
    "City":"Graceville",
    "Region":"QLD",
    "PostalCode":"4075",
    "FullAddress":"76 Bank Rd, Graceville, QLD, 4075, Australia",
    "Longitude":152.971923,
    "Latitude":-27.521662
  },
  {
    "SiteID":57231,
    "TenantName":"Orlick, Trent D",
    "Address":"3 Glengyle place",
    "City":"Forest Lake",
    "Region":"QLD",
    "PostalCode":"4078",
    "FullAddress":"3 Glengyle place, Forest Lake, QLD, 4078, Australia",
    "Longitude":152.958421,
    "Latitude":-27.608049
  },
  {
    "SiteID":57231,
    "TenantName":"Nguyen, Quang",
    "Address":"Unit 1, 9 Cromwell Court",
    "City":"Doolandella",
    "Region":"QLD",
    "PostalCode":"4077",
    "FullAddress":"Unit 1, 9 Cromwell Court, Doolandella, QLD, 4077, Australia",
    "Longitude":152.985257,
    "Latitude":-27.615655
  },
  {
    "SiteID":57231,
    "TenantName":"Spletter, Jacob N",
    "Address":"32 Kestrel Street",
    "City":"Inala",
    "Region":"QLD",
    "PostalCode":"4077",
    "FullAddress":"32 Kestrel Street, Inala, QLD, 4077, Australia",
    "Longitude":152.973518,
    "Latitude":-27.603139
  },
  {
    "SiteID":57231,
    "TenantName":"Pyle, Scott G",
    "Address":"52 Glasshouse crescent",
    "City":"FOREST LAKE",
    "Region":"QLD",
    "PostalCode":"4078",
    "FullAddress":"52 Glasshouse crescent, FOREST LAKE, QLD, 4078, Australia",
    "Longitude":152.975104,
    "Latitude":-27.619371
  },
  {
    "SiteID":57231,
    "TenantName":"Bart, Adam",
    "Address":"129 Mulgrave Crescent",
    "City":"Forest Lake",
    "Region":"QLD",
    "PostalCode":"4078",
    "FullAddress":"129 Mulgrave Crescent, Forest Lake, QLD, 4078, Australia",
    "Longitude":152.97558,
    "Latitude":-27.612778
  },
  {
    "SiteID":57231,
    "TenantName":"Kylie, Barritt",
    "Address":"15 Bellbird Street",
    "City":"Inala",
    "Region":"QLD",
    "PostalCode":"4077",
    "FullAddress":"15 Bellbird Street, Inala, QLD, 4077, Australia",
    "Longitude":152.980662,
    "Latitude":-27.603892
  },
  {
    "SiteID":57231,
    "TenantName":"Walter, Callam R",
    "Address":"46 Allbutt Street",
    "City":"Kuraby",
    "Region":"QLD",
    "PostalCode":"4112",
    "FullAddress":"46 Allbutt Street, Kuraby, QLD, 4112, Australia",
    "Longitude":153.09231,
    "Latitude":-27.608242
  },
  {
    "SiteID":57231,
    "TenantName":"Spearritt, Janice L",
    "Address":"5 Gemini Street",
    "City":"Inala",
    "Region":"QLD",
    "PostalCode":"4077",
    "FullAddress":"5 Gemini Street, Inala, QLD, 4077, Australia",
    "Longitude":152.969347,
    "Latitude":-27.606676
  },
  {
    "SiteID":57231,
    "TenantName":"Yarnold, Peter G",
    "Address":"30 Booloumba Crescent",
    "City":"Forest Lake",
    "Region":"QLD",
    "PostalCode":"4078",
    "FullAddress":"30 Booloumba Crescent, Forest Lake, QLD, 4078, Australia",
    "Longitude":152.965853,
    "Latitude":-27.630665
  },
  {
    "SiteID":57231,
    "TenantName":"Didcote, Laura M",
    "Address":"20 Wedgetail St",
    "City":"INALA EAST",
    "Region":"QLD",
    "PostalCode":"4077",
    "FullAddress":"20 Wedgetail St, INALA EAST, QLD, 4077, Australia",
    "Longitude":152.985627,
    "Latitude":-27.600191
  },
  {
    "SiteID":57231,
    "TenantName":"Tali Uta, Jordan",
    "Address":"Unit 1, 758 Blunder Road",
    "City":"Durack",
    "Region":"QLD",
    "PostalCode":"4077",
    "FullAddress":"Unit 1, 758 Blunder Road, Durack, QLD, 4077, Australia",
    "Longitude":152.99082,
    "Latitude":-27.599213
  },
  {
    "SiteID":57231,
    "TenantName":"Fisher, Luke S",
    "Address":"31 Bullen Circuit",
    "City":"Forest Lake",
    "Region":"QLD",
    "PostalCode":"4078",
    "FullAddress":"31 Bullen Circuit, Forest Lake, QLD, 4078, Australia",
    "Longitude":152.947188,
    "Latitude":-27.628772
  },
  {
    "SiteID":57231,
    "TenantName":"Vant Hoff, Katrina I",
    "Address":"27 Laricina Circuit",
    "City":"Forest Lake",
    "Region":"QLD",
    "PostalCode":"4078",
    "FullAddress":"27 Laricina Circuit, Forest Lake, QLD, 4078, Australia",
    "Longitude":152.968552,
    "Latitude":-27.610116
  },
  {
    "SiteID":57231,
    "TenantName":"Nun Yan, Willie",
    "Address":"Unit 22, 35 Kathleen Street",
    "City":"Richlands",
    "Region":"QLD",
    "PostalCode":"4077",
    "FullAddress":"Unit 22, 35 Kathleen Street, Richlands, QLD, 4077, Australia",
    "Longitude":152.957693,
    "Latitude":-27.593532
  },
  {
    "SiteID":57231,
    "TenantName":"Hosken, Megan E",
    "Address":"63 Hampstead Street",
    "City":"FOREST LAKE",
    "Region":"QLD",
    "PostalCode":"4078",
    "FullAddress":"63 Hampstead Street, FOREST LAKE, QLD, 4078, Australia",
    "Longitude":152.954996,
    "Latitude":-27.631338
  },
  {
    "SiteID":57231,
    "TenantName":"Coyne, Amanda J",
    "Address":"64 Kokoda St",
    "City":"DARRA",
    "Region":"QLD",
    "PostalCode":"4076",
    "FullAddress":"64 Kokoda St, DARRA, QLD, 4076, Australia",
    "Longitude":152.938817,
    "Latitude":-27.578246
  },
  {
    "SiteID":57231,
    "TenantName":"Tepora Tomui, Hanalei",
    "Address":"79 Partridge Street",
    "City":"Inala",
    "Region":"QLD",
    "PostalCode":"4077",
    "FullAddress":"79 Partridge Street, Inala, QLD, 4077, Australia",
    "Longitude":152.97113,
    "Latitude":-27.605377
  },
  {
    "SiteID":57231,
    "TenantName":"Hong  Wang, Ching",
    "Address":"1\/10 Kaija Street",
    "City":"Mount Gravatt East",
    "Region":"QLD",
    "PostalCode":"4122",
    "FullAddress":"1\/10 Kaija Street, Mount Gravatt East, QLD, 4122, Australia",
    "Longitude":153.094365,
    "Latitude":-27.527464
  },
  {
    "SiteID":57231,
    "TenantName":"Watson, Frances E",
    "Address":"24 Hyacinth Street",
    "City":"Inala",
    "Region":"QLD",
    "PostalCode":"4077",
    "FullAddress":"24 Hyacinth Street, Inala, QLD, 4077, Australia",
    "Longitude":152.974439,
    "Latitude":-27.593178
  },
  {
    "SiteID":57231,
    "TenantName":"Roff, Lauren A",
    "Address":"42 Malmrose Street",
    "City":"Wishart",
    "Region":"QLD",
    "PostalCode":"4122",
    "FullAddress":"42 Malmrose Street, Wishart, QLD, 4122, Australia",
    "Longitude":153.098144,
    "Latitude":-27.552946
  },
  {
    "SiteID":57231,
    "TenantName":"Lewis Manderson, Tyrone",
    "Address":"83 Mortimer Road",
    "City":"Acacia Ridge",
    "Region":"QLD",
    "PostalCode":"4110",
    "FullAddress":"83 Mortimer Road, Acacia Ridge, QLD, 4110, Australia",
    "Longitude":153.012159,
    "Latitude":-27.578057
  },
  {
    "SiteID":57231,
    "TenantName":"Levasa, Lode",
    "Address":"3 Tanzanite Street",
    "City":"Pallara",
    "Region":"QLD",
    "PostalCode":"4110",
    "FullAddress":"3 Tanzanite Street, Pallara, QLD, 4110, Australia",
    "Longitude":153.001979,
    "Latitude":-27.625837
  },
  {
    "SiteID":57231,
    "TenantName":"Fleming, Neil T",
    "Address":"40 Bywood St",
    "City":"SUNNYBANK HILLS",
    "Region":"QLD",
    "PostalCode":"4109",
    "FullAddress":"40 Bywood St, SUNNYBANK HILLS, QLD, 4109, Australia",
    "Longitude":153.0534,
    "Latitude":-27.585624
  },
  {
    "SiteID":57231,
    "TenantName":"Osborne, Tania L",
    "Address":"59 Stanicki Circuit",
    "City":"Bellbird Park",
    "Region":"QLD",
    "PostalCode":"4300",
    "FullAddress":"59 Stanicki Circuit, Bellbird Park, QLD, 4300, Australia",
    "Longitude":152.892,
    "Latitude":-27.640556
  },
  {
    "SiteID":57231,
    "TenantName":"Andrews, Krystal M",
    "Address":"7 Mannix Place",
    "City":"FOREST LAKE",
    "Region":"QLD",
    "PostalCode":"4078",
    "FullAddress":"7 Mannix Place, FOREST LAKE, QLD, 4078, Australia",
    "Longitude":152.944628,
    "Latitude":-27.624304
  },
  {
    "SiteID":57231,
    "TenantName":"Hixon, Lisa M",
    "Address":"182\/758 Blunder Road, Durack QLD, Austra",
    "City":"Inala",
    "Region":"QLD",
    "PostalCode":"4077",
    "FullAddress":"182\/758 Blunder Road, Durack QLD, Austra, Inala, QLD, 4077, Australia",
    "Longitude":152.99082,
    "Latitude":-27.599213
  },
  {
    "SiteID":57231,
    "TenantName":"Rogers, Simon P",
    "Address":"Apartment 4 \/ 34 Huon Place",
    "City":"Forest Lake",
    "Region":"QLD",
    "PostalCode":"4078",
    "FullAddress":"Apartment 4 \/ 34 Huon Place, Forest Lake, QLD, 4078, Australia",
    "Longitude":152.959112,
    "Latitude":-27.614422
  },
  {
    "SiteID":57231,
    "TenantName":"Davis, Rose Marie",
    "Address":"82 Kimberley Street",
    "City":"Inala",
    "Region":"QLD",
    "PostalCode":"4077",
    "FullAddress":"82 Kimberley Street, Inala, QLD, 4077, Australia",
    "Longitude":152.967842,
    "Latitude":-27.574601
  },
  {
    "SiteID":57231,
    "TenantName":"Bessell, Gayle L",
    "Address":"1\/12 Glen St",
    "City":"MOOROOKA",
    "Region":"QLD",
    "PostalCode":"4105",
    "FullAddress":"1\/12 Glen St, MOOROOKA, QLD, 4105, Australia",
    "Longitude":153.018139,
    "Latitude":-27.533315
  },
  {
    "SiteID":57231,
    "TenantName":"Mead, Jackie Ann",
    "Address":"37 Poinsettia Street",
    "City":"Inala",
    "Region":"QLD",
    "PostalCode":"4077",
    "FullAddress":"37 Poinsettia Street, Inala, QLD, 4077, Australia",
    "Longitude":152.962494,
    "Latitude":-27.598106
  },
  {
    "SiteID":57231,
    "TenantName":"Clarke, William J",
    "Address":"17 Macbride Court",
    "City":"Collingwood Park",
    "Region":"QLD",
    "PostalCode":"4301",
    "FullAddress":"17 Macbride Court, Collingwood Park, QLD, 4301, Australia",
    "Longitude":152.849709,
    "Latitude":-27.6196
  },
  {
    "SiteID":57231,
    "TenantName":"Cobbo, Letischa M",
    "Address":"7 Hillingdon Street",
    "City":"Doolandella",
    "Region":"QLD",
    "PostalCode":"4077",
    "FullAddress":"7 Hillingdon Street, Doolandella, QLD, 4077, Australia",
    "Longitude":152.98731,
    "Latitude":-27.614897
  },
  {
    "SiteID":57231,
    "TenantName":"Harden, Glen",
    "Address":"5\/31 Alderwood Street",
    "City":"Acacia Ridge",
    "Region":"QLD",
    "PostalCode":"4110",
    "FullAddress":"5\/31 Alderwood Street, Acacia Ridge, QLD, 4110, Australia",
    "Longitude":153.025065,
    "Latitude":-27.591025
  },
  {
    "SiteID":57231,
    "TenantName":"Australink Alliance, Andrew",
    "Address":"4 Emu Place",
    "City":"DOOLANDELLA",
    "Region":"QLD",
    "PostalCode":"4077",
    "FullAddress":"4 Emu Place, DOOLANDELLA, QLD, 4077, Australia",
    "Longitude":152.977685,
    "Latitude":-27.608307
  },
  {
    "SiteID":57231,
    "TenantName":"Agobi, Emmanuel",
    "Address":"unit 18\/137 Progress Road",
    "City":"Richlands",
    "Region":"QLD",
    "PostalCode":"4077",
    "FullAddress":"unit 18\/137 Progress Road, Richlands, QLD, 4077, Australia",
    "Longitude":152.952478,
    "Latitude":-27.595907
  },
  {
    "SiteID":57231,
    "TenantName":"Lifu, Gwendolyn Empaces",
    "Address":"18 Messara Circuit",
    "City":"DURACK",
    "Region":"QLD",
    "PostalCode":"4077",
    "FullAddress":"18 Messara Circuit, DURACK, QLD, 4077, Australia",
    "Longitude":152.99314,
    "Latitude":-27.596104
  },
  {
    "SiteID":57231,
    "TenantName":"Gilbert, Jordan L",
    "Address":"31 Rosemary Street",
    "City":"Inala",
    "Region":"QLD",
    "PostalCode":"4077",
    "FullAddress":"31 Rosemary Street, Inala, QLD, 4077, Australia",
    "Longitude":152.974392,
    "Latitude":-27.581559
  },
  {
    "SiteID":57231,
    "TenantName":"Edgardo Argueta, Gustavo",
    "Address":"18 Boulia Court",
    "City":"Durack",
    "Region":"QLD",
    "PostalCode":"4077",
    "FullAddress":"18 Boulia Court, Durack, QLD, 4077, Australia",
    "Longitude":152.985439,
    "Latitude":-27.592746
  },
  {
    "SiteID":57231,
    "TenantName":"Bromley, Matthew",
    "Address":"25 Skylark Street",
    "City":"Inala",
    "Region":"QLD",
    "PostalCode":"4077",
    "FullAddress":"25 Skylark Street, Inala, QLD, 4077, Australia",
    "Longitude":152.980979,
    "Latitude":-27.599756
  },
  {
    "SiteID":57231,
    "TenantName":"Sau, Lafoai",
    "Address":"7 Beaufront Place",
    "City":"Forest Lake",
    "Region":"QLD",
    "PostalCode":"4078",
    "FullAddress":"7 Beaufront Place, Forest Lake, QLD, 4078, Australia",
    "Longitude":152.958233,
    "Latitude":-27.602879
  },
  {
    "SiteID":57231,
    "TenantName":"Susanne Elfstrom Millers, Emma",
    "Address":"376 Cliveden Avenue",
    "City":"Corinda",
    "Region":"QLD",
    "PostalCode":"4075",
    "FullAddress":"376 Cliveden Avenue, Corinda, QLD, 4075, Australia",
    "Longitude":152.987784,
    "Latitude":-27.550132
  },
  {
    "SiteID":57231,
    "TenantName":"Kinstler, Kristen M",
    "Address":"9 Zara Street",
    "City":"Robertson",
    "Region":"QLD",
    "PostalCode":"4109",
    "FullAddress":"9 Zara Street, Robertson, QLD, 4109, Australia",
    "Longitude":153.058539,
    "Latitude":-27.563
  },
  {
    "SiteID":57231,
    "TenantName":"wong, Janice",
    "Address":"7\/69 cook st",
    "City":"Oxley",
    "Region":"QLD",
    "PostalCode":"4075",
    "FullAddress":"7\/69 cook st, Oxley, QLD, 4075, Australia",
    "Longitude":152.9756,
    "Latitude":-27.552558
  },
  {
    "SiteID":57231,
    "TenantName":"Dowling, Angela G",
    "Address":"8 Kooralla Court",
    "City":"Karana Downs",
    "Region":"QLD",
    "PostalCode":"4306",
    "FullAddress":"8 Kooralla Court, Karana Downs, QLD, 4306, Australia",
    "Longitude":152.815224,
    "Latitude":-27.553381
  },
  {
    "SiteID":57231,
    "TenantName":"Greig, Beryl A",
    "Address":"12 Lilly Pilly Street",
    "City":"Heathwood",
    "Region":"QLD",
    "PostalCode":"4110",
    "FullAddress":"12 Lilly Pilly Street, Heathwood, QLD, 4110, Australia",
    "Longitude":152.992362,
    "Latitude":-27.636922
  },
  {
    "SiteID":57231,
    "TenantName":"Sindoni, Marcus A",
    "Address":"17 Seven Hill Place",
    "City":"Doolandella",
    "Region":"QLD",
    "PostalCode":"4077",
    "FullAddress":"17 Seven Hill Place, Doolandella, QLD, 4077, Australia",
    "Longitude":152.988046,
    "Latitude":-27.6085
  },
  {
    "SiteID":57231,
    "TenantName":"Savelio, Christian A",
    "Address":"50 Saint James Street",
    "City":"Forest Lake",
    "Region":"QLD",
    "PostalCode":"4078",
    "FullAddress":"50 Saint James Street, Forest Lake, QLD, 4078, Australia",
    "Longitude":152.955853,
    "Latitude":-27.627964
  },
  {
    "SiteID":57231,
    "TenantName":"Mclennan, Helen E",
    "Address":"19 Looranah Street",
    "City":"Jindalee",
    "Region":"QLD",
    "PostalCode":"4074",
    "FullAddress":"19 Looranah Street, Jindalee, QLD, 4074, Australia",
    "Longitude":152.938524,
    "Latitude":-27.532831
  },
  {
    "SiteID":57231,
    "TenantName":"Krause, Peter A",
    "Address":"Unit 39, 9 Springfield College Drive",
    "City":"Springfield",
    "Region":"QLD",
    "PostalCode":"4300",
    "FullAddress":"Unit 39, 9 Springfield College Drive, Springfield, QLD, 4300, Australia",
    "Longitude":152.910714,
    "Latitude":-27.657355
  },
  {
    "SiteID":57231,
    "TenantName":"Mcnab, Alexander D",
    "Address":"57 Twickenham Street",
    "City":"CHELMER",
    "Region":"QLD",
    "PostalCode":"4068",
    "FullAddress":"57 Twickenham Street, CHELMER, QLD, 4068, Australia",
    "Longitude":152.970883,
    "Latitude":-27.516036
  },
  {
    "SiteID":57231,
    "TenantName":"Lovell Why, Sarah Jean K",
    "Address":"39 Poplar Street",
    "City":"INALA",
    "Region":"QLD",
    "PostalCode":"4077",
    "FullAddress":"39 Poplar Street, INALA, QLD, 4077, Australia",
    "Longitude":152.96952,
    "Latitude":-27.584377
  },
  {
    "SiteID":57231,
    "TenantName":"Toavila Vaka, Tevita",
    "Address":"15 Foster Circuit",
    "City":"Hillcrest",
    "Region":"QLD",
    "PostalCode":"4118",
    "FullAddress":"15 Foster Circuit, Hillcrest, QLD, 4118, Australia",
    "Longitude":153.023367,
    "Latitude":-27.671963
  },
  {
    "SiteID":57231,
    "TenantName":"Shadlow, Darrell J",
    "Address":"7 Peppin Street",
    "City":"Durack",
    "Region":"QLD",
    "PostalCode":"4077",
    "FullAddress":"7 Peppin Street, Durack, QLD, 4077, Australia",
    "Longitude":152.983211,
    "Latitude":-27.58903
  },
  {
    "SiteID":57231,
    "TenantName":"Kelly, Ianna J",
    "Address":"18 Samford Place",
    "City":"FOREST LAKE",
    "Region":"QLD",
    "PostalCode":"4078",
    "FullAddress":"18 Samford Place, FOREST LAKE, QLD, 4078, Australia",
    "Longitude":152.946928,
    "Latitude":-27.605646
  },
  {
    "SiteID":57231,
    "TenantName":"Nurgali, Duman",
    "Address":"Unit 53, 12 Dasheng Street",
    "City":"Doolandella",
    "Region":"QLD",
    "PostalCode":"4077",
    "FullAddress":"Unit 53, 12 Dasheng Street, Doolandella, QLD, 4077, Australia",
    "Longitude":152.978862,
    "Latitude":-27.61048
  },
  {
    "SiteID":57231,
    "TenantName":"Tauvaka, Ofa Ki Va`Epopua",
    "Address":"55 Thornlaw Street",
    "City":"DURACK",
    "Region":"QLD",
    "PostalCode":"4077",
    "FullAddress":"55 Thornlaw Street, DURACK, QLD, 4077, Australia",
    "Longitude":152.977801,
    "Latitude":-27.584465
  },
  {
    "SiteID":57231,
    "TenantName":"Maioha Edwards, George",
    "Address":"4\/719 Oxley Rd",
    "City":"Corinda",
    "Region":"QLD",
    "PostalCode":"4075",
    "FullAddress":"4\/719 Oxley Rd, Corinda, QLD, 4075, Australia",
    "Longitude":152.980875,
    "Latitude":-27.542381
  },
  {
    "SiteID":57231,
    "TenantName":"Singh, Lovepreet",
    "Address":"9 Barry Street",
    "City":"Boronia Heights",
    "Region":"QLD",
    "PostalCode":"4124",
    "FullAddress":"9 Barry Street, Boronia Heights, QLD, 4124, Australia",
    "Longitude":153.023849,
    "Latitude":-27.680703
  },
  {
    "SiteID":57231,
    "TenantName":"Taliu, Solomona",
    "Address":"8 Eagle Street",
    "City":"Flagstone",
    "Region":"QLD",
    "PostalCode":"4280",
    "FullAddress":"8 Eagle Street, Flagstone, QLD, 4280, Australia",
    "Longitude":152.950353,
    "Latitude":-27.793209
  },
  {
    "SiteID":57231,
    "TenantName":"Truong, Daniel",
    "Address":"21 Dunleath Street",
    "City":"Durack",
    "Region":"QLD",
    "PostalCode":"4077",
    "FullAddress":"21 Dunleath Street, Durack, QLD, 4077, Australia",
    "Longitude":152.979261,
    "Latitude":-27.591247
  },
  {
    "SiteID":57231,
    "TenantName":"Keselj Davies, Sarah M",
    "Address":"47 Atherton Circuit",
    "City":"Forest Lake",
    "Region":"QLD",
    "PostalCode":"4078",
    "FullAddress":"47 Atherton Circuit, Forest Lake, QLD, 4078, Australia",
    "Longitude":152.958258,
    "Latitude":-27.606991
  },
  {
    "SiteID":57231,
    "TenantName":"Jason, keith M",
    "Address":"5 Cobham Lane",
    "City":"Forest Lake",
    "Region":"QLD",
    "PostalCode":"4078",
    "FullAddress":"5 Cobham Lane, Forest Lake, QLD, 4078, Australia",
    "Longitude":152.961748,
    "Latitude":-27.63227
  },
  {
    "SiteID":57231,
    "TenantName":"WILLEY, NIKOLA S",
    "Address":"Unit 2 323 Tallagandra Road",
    "City":"Holmview",
    "Region":"QLD",
    "PostalCode":"4207",
    "FullAddress":"Unit 2 323 Tallagandra Road, Holmview, QLD, 4207, Australia",
    "Longitude":153.161036,
    "Latitude":-27.721638
  },
  {
    "SiteID":57231,
    "TenantName":"Hall, Joanne R",
    "Address":"4 Bilson Street",
    "City":"Pallara",
    "Region":"QLD",
    "PostalCode":"4110",
    "FullAddress":"4 Bilson Street, Pallara, QLD, 4110, Australia",
    "Longitude":152.990454,
    "Latitude":-27.627073
  },
  {
    "SiteID":57231,
    "TenantName":"Gibbards, Sharyn L",
    "Address":"4 louisa Close",
    "City":"Oxley",
    "Region":"QLD",
    "PostalCode":"4078",
    "FullAddress":"4 louisa Close, Oxley, QLD, 4078, Australia",
    "Longitude":152.964807,
    "Latitude":-27.563268
  },
  {
    "SiteID":57231,
    "TenantName":"Bannan, Anthony S",
    "Address":"Unit 52, 36 Philong Street",
    "City":"Doolandella",
    "Region":"QLD",
    "PostalCode":"4077",
    "FullAddress":"Unit 52, 36 Philong Street, Doolandella, QLD, 4077, Australia",
    "Longitude":152.97804,
    "Latitude":-27.615041
  },
  {
    "SiteID":57231,
    "TenantName":"Khokhar, Debra A",
    "Address":"37 Alexandrina Circuit",
    "City":"Forest Lake",
    "Region":"QLD",
    "PostalCode":"4078",
    "FullAddress":"37 Alexandrina Circuit, Forest Lake, QLD, 4078, Australia",
    "Longitude":152.96345,
    "Latitude":-27.62193
  },
  {
    "SiteID":57231,
    "TenantName":"Antaw, Natasha A",
    "Address":"11 Stephen St",
    "City":"ELLEN GROVE",
    "Region":"QLD",
    "PostalCode":"4078",
    "FullAddress":"11 Stephen St, ELLEN GROVE, QLD, 4078, Australia",
    "Longitude":152.932296,
    "Latitude":-27.61019
  },
  {
    "SiteID":57231,
    "TenantName":"Young, Mark W",
    "Address":"59 Carney Circuit",
    "City":"Redbank Plains",
    "Region":"QLD",
    "PostalCode":"4301",
    "FullAddress":"59 Carney Circuit, Redbank Plains, QLD, 4301, Australia",
    "Longitude":152.863788,
    "Latitude":-27.634983
  },
  {
    "SiteID":57231,
    "TenantName":"Beesley, Lisa G",
    "Address":"25 Penglase Place",
    "City":"Doolandella",
    "Region":"QLD",
    "PostalCode":"4077",
    "FullAddress":"25 Penglase Place, Doolandella, QLD, 4077, Australia",
    "Longitude":152.988157,
    "Latitude":-27.609676
  },
  {
    "SiteID":57231,
    "TenantName":"De Candia, Jacinta",
    "Address":"1\/55 Douglas Street",
    "City":"St Lucia",
    "Region":"QLD",
    "PostalCode":"4067",
    "FullAddress":"1\/55 Douglas Street, St Lucia, QLD, 4067, Australia",
    "Longitude":152.994112,
    "Latitude":-27.494916
  },
  {
    "SiteID":57231,
    "TenantName":"Neal, Colin J",
    "Address":"8 Pallinup Street",
    "City":"Riverhills",
    "Region":"QLD",
    "PostalCode":"4074",
    "FullAddress":"8 Pallinup Street, Riverhills, QLD, 4074, Australia",
    "Longitude":152.91612,
    "Latitude":-27.55806
  },
  {
    "SiteID":57231,
    "TenantName":"Kay, Jakob O",
    "Address":"10 Tenterfield Place",
    "City":"Forest Lake",
    "Region":"QLD",
    "PostalCode":"4078",
    "FullAddress":"10 Tenterfield Place, Forest Lake, QLD, 4078, Australia",
    "Longitude":152.972837,
    "Latitude":-27.60969
  },
  {
    "SiteID":57231,
    "TenantName":"Saffron reihana Stevenson, Kyshanie",
    "Address":"19 Kent Street",
    "City":"Heathwood",
    "Region":"QLD",
    "PostalCode":"4110",
    "FullAddress":"19 Kent Street, Heathwood, QLD, 4110, Australia",
    "Longitude":152.982988,
    "Latitude":-27.630988
  },
  {
    "SiteID":57231,
    "TenantName":"MacKenzie, Ian A",
    "Address":"48 Almeda St",
    "City":"INDOOROOPILLY",
    "Region":"QLD",
    "PostalCode":"4068",
    "FullAddress":"48 Almeda St, INDOOROOPILLY, QLD, 4068, Australia",
    "Longitude":152.95902,
    "Latitude":-27.51196
  },
  {
    "SiteID":57231,
    "TenantName":"Barney, Loreena J",
    "Address":"75 Cascade Drive",
    "City":"Forest Lake",
    "Region":"QLD",
    "PostalCode":"4078",
    "FullAddress":"75 Cascade Drive, Forest Lake, QLD, 4078, Australia",
    "Longitude":152.967124,
    "Latitude":-27.631753
  },
  {
    "SiteID":57231,
    "TenantName":"Groch, Patracia E",
    "Address":"21 Bunya Street",
    "City":"Forest Lake",
    "Region":"QLD",
    "PostalCode":"4078",
    "FullAddress":"21 Bunya Street, Forest Lake, QLD, 4078, Australia",
    "Longitude":152.962091,
    "Latitude":-27.614119
  },
  {
    "SiteID":57231,
    "TenantName":"Gonzales, Edgar",
    "Address":"Willara Avenue",
    "City":"Merrylands",
    "Region":"NSW",
    "PostalCode":"2160",
    "FullAddress":"Willara Avenue, Merrylands, NSW, 2160, Australia",
    "Longitude":150.982297,
    "Latitude":-33.82884
  },
  {
    "SiteID":57231,
    "TenantName":"Rowe, Alexander M",
    "Address":"Unit 1, 4 Aquila Court",
    "City":"MERMAID WATERS",
    "Region":"QLD",
    "PostalCode":"4218",
    "FullAddress":"Unit 1, 4 Aquila Court, MERMAID WATERS, QLD, 4218, Australia",
    "Longitude":153.423348,
    "Latitude":-28.041407
  },
  {
    "SiteID":57231,
    "TenantName":"Turner, Paul R",
    "Address":"21 Cypress Street",
    "City":"Heathwood",
    "Region":"QLD",
    "PostalCode":"4110",
    "FullAddress":"21 Cypress Street, Heathwood, QLD, 4110, Australia",
    "Longitude":152.989428,
    "Latitude":-27.631435
  },
  {
    "SiteID":57231,
    "TenantName":"Willis, Matthew R",
    "Address":"55 Boss Road",
    "City":"Inala",
    "Region":"QLD",
    "PostalCode":"4077",
    "FullAddress":"55 Boss Road, Inala, QLD, 4077, Australia",
    "Longitude":152.964952,
    "Latitude":-27.608327
  },
  {
    "SiteID":57231,
    "TenantName":"Taape Lemana, John",
    "Address":"48 Berkshire Place",
    "City":"Heathwood",
    "Region":"QLD",
    "PostalCode":"4110",
    "FullAddress":"48 Berkshire Place, Heathwood, QLD, 4110, Australia",
    "Longitude":152.986489,
    "Latitude":-27.631166
  },
  {
    "SiteID":57231,
    "TenantName":"Ashbrook, Georgina M",
    "Address":"7 Glenavon Drive",
    "City":"REDBANK PLAINS",
    "Region":"QLD",
    "PostalCode":"4301",
    "FullAddress":"7 Glenavon Drive, REDBANK PLAINS, QLD, 4301, Australia",
    "Longitude":152.860176,
    "Latitude":-27.642567
  },
  {
    "SiteID":57231,
    "TenantName":"Hettige Niroshan Silva, Francisku",
    "Address":"15 Linacre Street",
    "City":"Durack",
    "Region":"QLD",
    "PostalCode":"4077",
    "FullAddress":"15 Linacre Street, Durack, QLD, 4077, Australia",
    "Longitude":152.99205,
    "Latitude":-27.594891
  },
  {
    "SiteID":57231,
    "TenantName":"Lacey, Wendy I",
    "Address":"63\/75 Outlook Place",
    "City":"Durack",
    "Region":"QLD",
    "PostalCode":"4077",
    "FullAddress":"63\/75 Outlook Place, Durack, QLD, 4077, Australia",
    "Longitude":152.985692,
    "Latitude":-27.584568
  },
  {
    "SiteID":57231,
    "TenantName":"Brown, Catherine",
    "Address":"27 Solander Circuit",
    "City":"Forest Lake",
    "Region":"QLD",
    "PostalCode":"4078",
    "FullAddress":"27 Solander Circuit, Forest Lake, QLD, 4078, Australia",
    "Longitude":152.963655,
    "Latitude":-27.609659
  },
  {
    "SiteID":57231,
    "TenantName":"WELFARE, SUSAN E",
    "Address":"30 Pictor Street",
    "City":"Inala",
    "Region":"QLD",
    "PostalCode":"4077",
    "FullAddress":"30 Pictor Street, Inala, QLD, 4077, Australia",
    "Longitude":152.96778,
    "Latitude":-27.602796
  },
  {
    "SiteID":57231,
    "TenantName":"Dennis, Jimel E",
    "Address":"Unit 56, 31 James Edward Street",
    "City":"Richlands",
    "Region":"QLD",
    "PostalCode":"4077",
    "FullAddress":"Unit 56, 31 James Edward Street, Richlands, QLD, 4077, Australia",
    "Longitude":152.959833,
    "Latitude":-27.585988
  },
  {
    "SiteID":57231,
    "TenantName":"Nikles, Catherine Jane J",
    "Address":"221 Upper Brookfield Road",
    "City":"UPPER BROOKFIELD",
    "Region":"QLD",
    "PostalCode":"4069",
    "FullAddress":"221 Upper Brookfield Road, UPPER BROOKFIELD, QLD, 4069, Australia",
    "Longitude":152.890304,
    "Latitude":-27.488478
  },
  {
    "SiteID":57231,
    "TenantName":"Kowalonek, Nicholas Aaron A",
    "Address":"17 Frangipani Street",
    "City":"INALA",
    "Region":"QLD",
    "PostalCode":"4077",
    "FullAddress":"17 Frangipani Street, INALA, QLD, 4077, Australia",
    "Longitude":152.960183,
    "Latitude":-27.593446
  },
  {
    "SiteID":57231,
    "TenantName":"Wright, Paul E",
    "Address":"16 Bloomfield Street",
    "City":"Pallara",
    "Region":"QLD",
    "PostalCode":"4110",
    "FullAddress":"16 Bloomfield Street, Pallara, QLD, 4110, Australia",
    "Longitude":153.001362,
    "Latitude":-27.615369
  },
  {
    "SiteID":57231,
    "TenantName":"Schiro Cook, Raymond N",
    "Address":"Unit 8\/8 skew street",
    "City":"Sherwood",
    "Region":"QLD",
    "PostalCode":"4075",
    "FullAddress":"Unit 8\/8 skew street, Sherwood, QLD, 4075, Australia",
    "Longitude":152.982811,
    "Latitude":-27.531598
  },
  {
    "SiteID":57231,
    "TenantName":"Mills, Baimat A",
    "Address":"17 Buddleia Street",
    "City":"INALA",
    "Region":"QLD",
    "PostalCode":"4077",
    "FullAddress":"17 Buddleia Street, INALA, QLD, 4077, Australia",
    "Longitude":152.9648,
    "Latitude":-27.589773
  },
  {
    "SiteID":57231,
    "TenantName":"Singh, Gurdip",
    "Address":"unit 19\/9 Mayhew Street",
    "City":"Sherwood",
    "Region":"QLD",
    "PostalCode":"4075",
    "FullAddress":"unit 19\/9 Mayhew Street, Sherwood, QLD, 4075, Australia",
    "Longitude":152.983282,
    "Latitude":-27.534509
  },
  {
    "SiteID":57231,
    "TenantName":"Belmiond Mouapi Happi, George",
    "Address":"15 Huxley street",
    "City":"Redbank plains",
    "Region":"QLD",
    "PostalCode":"4301",
    "FullAddress":"15 Huxley street, Redbank plains, QLD, 4301, Australia",
    "Longitude":152.852876,
    "Latitude":-27.658572
  },
  {
    "SiteID":57231,
    "TenantName":"Wilson, Lauren A",
    "Address":"9 Edith Street",
    "City":"Forest Lake",
    "Region":"QLD",
    "PostalCode":"4078",
    "FullAddress":"9 Edith Street, Forest Lake, QLD, 4078, Australia",
    "Longitude":152.966663,
    "Latitude":-27.63253
  },
  {
    "SiteID":57231,
    "TenantName":"Pulou, Paul",
    "Address":"23 Berkeley Circuit",
    "City":"BELLBIRD PARK",
    "Region":"QLD",
    "PostalCode":"4300",
    "FullAddress":"23 Berkeley Circuit, BELLBIRD PARK, QLD, 4300, Australia",
    "Longitude":152.886488,
    "Latitude":-27.646317
  },
  {
    "SiteID":57231,
    "TenantName":"Schuler, Kyle J",
    "Address":"52 Sandpiper Street",
    "City":"Inala",
    "Region":"QLD",
    "PostalCode":"4077",
    "FullAddress":"52 Sandpiper Street, Inala, QLD, 4077, Australia",
    "Longitude":152.986957,
    "Latitude":-27.602974
  },
  {
    "SiteID":57231,
    "TenantName":"Macleod, Pamela F",
    "Address":"60 Hannam Crescent",
    "City":"BRISBANE",
    "Region":"QLD",
    "PostalCode":"4078",
    "FullAddress":"60 Hannam Crescent, BRISBANE, QLD, 4078, Australia",
    "Longitude":152.947859,
    "Latitude":-27.627352
  },
  {
    "SiteID":57231,
    "TenantName":"Gray, Malama",
    "Address":"5\/2 Killara Place",
    "City":"ROCKY POINT",
    "Region":"QLD",
    "PostalCode":"4874",
    "FullAddress":"5\/2 Killara Place, ROCKY POINT, QLD, 4874, Australia",
    "Longitude":141.882551,
    "Latitude":-12.628306
  },
  {
    "SiteID":57231,
    "TenantName":"Clair, Gregory J",
    "Address":"Unit 5, 16 Wyndham Street",
    "City":"Herston",
    "Region":"QLD",
    "PostalCode":"4006",
    "FullAddress":"Unit 5, 16 Wyndham Street, Herston, QLD, 4006, Australia",
    "Longitude":153.022578,
    "Latitude":-27.448214
  },
  {
    "SiteID":57231,
    "TenantName":"Englert, Shane B",
    "Address":"22 newhaven street",
    "City":"Everton park",
    "Region":"QLD",
    "PostalCode":"4053",
    "FullAddress":"22 newhaven street, Everton park, QLD, 4053, Australia",
    "Longitude":152.989717,
    "Latitude":-27.409043
  },
  {
    "SiteID":57231,
    "TenantName":"Brehaut, Kylie",
    "Address":"22 Viewpoint Drive",
    "City":"SPRINGFIELD LAKES",
    "Region":"QLD",
    "PostalCode":"4300",
    "FullAddress":"22 Viewpoint Drive, SPRINGFIELD LAKES, QLD, 4300, Australia",
    "Longitude":152.918733,
    "Latitude":-27.669844
  },
  {
    "SiteID":57231,
    "TenantName":"Simms, Darryl I",
    "Address":"Unit 63, 50 Anderson Street",
    "City":"Fortitude Valley",
    "Region":"QLD",
    "PostalCode":"4006",
    "FullAddress":"Unit 63, 50 Anderson Street, Fortitude Valley, QLD, 4006, Australia",
    "Longitude":153.031076,
    "Latitude":-27.453161
  },
  {
    "SiteID":57231,
    "TenantName":"Haldane, Caitline",
    "Address":"7 Vaucluse Street",
    "City":"Forest Lake",
    "Region":"QLD",
    "PostalCode":"4078",
    "FullAddress":"7 Vaucluse Street, Forest Lake, QLD, 4078, Australia",
    "Longitude":152.972389,
    "Latitude":-27.631231
  },
  {
    "SiteID":57231,
    "TenantName":"Sanchala Perera, Dinithi",
    "Address":"56 Atherton Circuit",
    "City":"Forest Lake",
    "Region":"QLD",
    "PostalCode":"4078",
    "FullAddress":"56 Atherton Circuit, Forest Lake, QLD, 4078, Australia",
    "Longitude":152.95792,
    "Latitude":-27.606492
  },
  {
    "SiteID":57231,
    "TenantName":"Lauhingoa, Tiulipe K",
    "Address":"Unit 50, 11 Oakmont Avenue",
    "City":"Oxley",
    "Region":"QLD",
    "PostalCode":"4075",
    "FullAddress":"Unit 50, 11 Oakmont Avenue, Oxley, QLD, 4075, Australia",
    "Longitude":152.982669,
    "Latitude":-27.574008
  },
  {
    "SiteID":57231,
    "TenantName":"Mcghee, Darren B",
    "Address":"32\/54 Hayward St",
    "City":"Stafford",
    "Region":"QLD",
    "PostalCode":"4053",
    "FullAddress":"32\/54 Hayward St, Stafford, QLD, 4053, Australia",
    "Longitude":153.01302,
    "Latitude":-27.415386
  },
  {
    "SiteID":57231,
    "TenantName":"Maitra, Debjani",
    "Address":"54 Carisbrook Circuit",
    "City":"Forest Lake",
    "Region":"QLD",
    "PostalCode":"4078",
    "FullAddress":"54 Carisbrook Circuit, Forest Lake, QLD, 4078, Australia",
    "Longitude":152.963914,
    "Latitude":-27.62768
  },
  {
    "SiteID":57231,
    "TenantName":"Skelton, Sandra L",
    "Address":"28 Degas Street",
    "City":"Forest Lake",
    "Region":"QLD",
    "PostalCode":"4078",
    "FullAddress":"28 Degas Street, Forest Lake, QLD, 4078, Australia",
    "Longitude":152.954366,
    "Latitude":-27.607226
  },
  {
    "SiteID":57231,
    "TenantName":"Hunter, Ian G",
    "Address":"2 Cambridge Road",
    "City":"Darra",
    "Region":"QLD",
    "PostalCode":"4076",
    "FullAddress":"2 Cambridge Road, Darra, QLD, 4076, Australia",
    "Longitude":152.95483,
    "Latitude":-27.56781
  },
  {
    "SiteID":57231,
    "TenantName":"Sheaffe, Daniel A",
    "Address":"115 Pallert St",
    "City":"MIDDLE PARK",
    "Region":"QLD",
    "PostalCode":"4074",
    "FullAddress":"115 Pallert St, MIDDLE PARK, QLD, 4074, Australia",
    "Longitude":152.921787,
    "Latitude":-27.561115
  },
  {
    "SiteID":57231,
    "TenantName":"Hoai Nguyen, Huong",
    "Address":"Unit 11, 8 Milan Street",
    "City":"Ellen Grove",
    "Region":"QLD",
    "PostalCode":"4078",
    "FullAddress":"Unit 11, 8 Milan Street, Ellen Grove, QLD, 4078, Australia",
    "Longitude":152.954387,
    "Latitude":-27.622225
  },
  {
    "SiteID":57231,
    "TenantName":"Fletcher, Shelby R",
    "Address":"5 Morisot Street",
    "City":"Forest Lake",
    "Region":"QLD",
    "PostalCode":"4078",
    "FullAddress":"5 Morisot Street, Forest Lake, QLD, 4078, Australia",
    "Longitude":152.951481,
    "Latitude":-27.602605
  },
  {
    "SiteID":57231,
    "TenantName":"Bleakley, Sarah G",
    "Address":"230 Freeman Road",
    "City":"Inala",
    "Region":"QLD",
    "PostalCode":"4077",
    "FullAddress":"230 Freeman Road, Inala, QLD, 4077, Australia",
    "Longitude":152.968115,
    "Latitude":-27.579744
  },
  {
    "SiteID":57231,
    "TenantName":"Pan, Ge",
    "Address":"3 Sandalwood Street",
    "City":"Heathwood",
    "Region":"QLD",
    "PostalCode":"4110",
    "FullAddress":"3 Sandalwood Street, Heathwood, QLD, 4110, Australia",
    "Longitude":152.991324,
    "Latitude":-27.634548
  },
  {
    "SiteID":57231,
    "TenantName":"Giebeler, Tom",
    "Address":"22 Sanderling Street",
    "City":"INALA",
    "Region":"QLD",
    "PostalCode":"4077",
    "FullAddress":"22 Sanderling Street, INALA, QLD, 4077, Australia",
    "Longitude":152.980409,
    "Latitude":-27.600353
  },
  {
    "SiteID":57231,
    "TenantName":"Solanke, Tunde",
    "Address":"Unit 1, 240 Brisbane Terrace",
    "City":"Goodna",
    "Region":"QLD",
    "PostalCode":"4300",
    "FullAddress":"Unit 1, 240 Brisbane Terrace, Goodna, QLD, 4300, Australia",
    "Longitude":152.890668,
    "Latitude":-27.598438
  },
  {
    "SiteID":57231,
    "TenantName":"Dean Gower, Tia Lace",
    "Address":"4 Min Min Court",
    "City":"Durack",
    "Region":"QLD",
    "PostalCode":"4077",
    "FullAddress":"4 Min Min Court, Durack, QLD, 4077, Australia",
    "Longitude":152.983812,
    "Latitude":-27.592416
  },
  {
    "SiteID":57231,
    "TenantName":"Barton Hunt, Angus",
    "Address":"16 Walker Avenue",
    "City":"Morningside",
    "Region":"QLD",
    "PostalCode":"4170",
    "FullAddress":"16 Walker Avenue, Morningside, QLD, 4170, Australia",
    "Longitude":153.069491,
    "Latitude":-27.4769
  },
  {
    "SiteID":57231,
    "TenantName":"Kern, Aloucia",
    "Address":"Unit I15, 82 Kimberley Street",
    "City":"Inala",
    "Region":"QLD",
    "PostalCode":"4077",
    "FullAddress":"Unit I15, 82 Kimberley Street, Inala, QLD, 4077, Australia",
    "Longitude":152.967842,
    "Latitude":-27.574601
  },
  {
    "SiteID":57231,
    "TenantName":"Frederick Lui, Bruce",
    "Address":"82 Kimberley Street",
    "City":"Inala",
    "Region":"QLD",
    "PostalCode":"4077",
    "FullAddress":"82 Kimberley Street, Inala, QLD, 4077, Australia",
    "Longitude":152.967842,
    "Latitude":-27.574601
  },
  {
    "SiteID":57231,
    "TenantName":"Hutley, Sue Robyn D",
    "Address":"12 Jetty Walk",
    "City":"FOREST LAKE",
    "Region":"QLD",
    "PostalCode":"4078",
    "FullAddress":"12 Jetty Walk, FOREST LAKE, QLD, 4078, Australia",
    "Longitude":152.967759,
    "Latitude":-27.623094
  },
  {
    "SiteID":57231,
    "TenantName":"Vincent, Christine",
    "Address":"15 Driftwood Place",
    "City":"Springfield Lakes",
    "Region":"QLD",
    "PostalCode":"4300",
    "FullAddress":"15 Driftwood Place, Springfield Lakes, QLD, 4300, Australia",
    "Longitude":152.913177,
    "Latitude":-27.682431
  },
  {
    "SiteID":57231,
    "TenantName":"Hagger, Krstyn G",
    "Address":"146 Russell Terrace",
    "City":"Indooroopilly",
    "Region":"QLD",
    "PostalCode":"4068",
    "FullAddress":"146 Russell Terrace, Indooroopilly, QLD, 4068, Australia",
    "Longitude":152.959874,
    "Latitude":-27.498222
  },
  {
    "SiteID":57231,
    "TenantName":"Bradford, Scott C",
    "Address":"48 Clarendon Crescent",
    "City":"FOREST  LAKE",
    "Region":"QLD",
    "PostalCode":"4078",
    "FullAddress":"48 Clarendon Crescent, FOREST  LAKE, QLD, 4078, Australia",
    "Longitude":152.961732,
    "Latitude":-27.610682
  },
  {
    "SiteID":57231,
    "TenantName":"Cumerford, Breanna",
    "Address":"16 Rachele Close",
    "City":"Forest Lake",
    "Region":"QLD",
    "PostalCode":"4078",
    "FullAddress":"16 Rachele Close, Forest Lake, QLD, 4078, Australia",
    "Longitude":152.953517,
    "Latitude":-27.6309
  },
  {
    "SiteID":57231,
    "TenantName":"Rutty, Martyn R",
    "Address":"119 Brooklands Circuit",
    "City":"Forest Lake",
    "Region":"QLD",
    "PostalCode":"4078",
    "FullAddress":"119 Brooklands Circuit, Forest Lake, QLD, 4078, Australia",
    "Longitude":152.975706,
    "Latitude":-27.610318
  },
  {
    "SiteID":57231,
    "TenantName":"Holland, Andrew J",
    "Address":"50 Pendula Circuit",
    "City":"Forest Lake",
    "Region":"QLD",
    "PostalCode":"4078",
    "FullAddress":"50 Pendula Circuit, Forest Lake, QLD, 4078, Australia",
    "Longitude":152.963331,
    "Latitude":-27.616367
  },
  {
    "SiteID":57231,
    "TenantName":"Allen, Timothy J",
    "Address":"6571 Leyland Park Court",
    "City":null,
    "Region":"CA",
    "PostalCode":"95120",
    "FullAddress":"6571 Leyland Park Court, CA, 95120, Australia",
    "Longitude":153.464481,
    "Latitude":-28.128981
  },
  {
    "SiteID":57231,
    "TenantName":"Brown, Francis F",
    "Address":"26A Shirley Street",
    "City":"REDBANK PLANES",
    "Region":"QLD",
    "PostalCode":"4301",
    "FullAddress":"26A Shirley Street, REDBANK PLANES, QLD, 4301, Australia",
    "Longitude":152.855553,
    "Latitude":-27.647602
  },
  {
    "SiteID":57231,
    "TenantName":"Hudson, Maddison M",
    "Address":"Unit 33, 19 Kathleen Street",
    "City":"Richlands",
    "Region":"QLD",
    "PostalCode":"4077",
    "FullAddress":"Unit 33, 19 Kathleen Street, Richlands, QLD, 4077, Australia",
    "Longitude":152.957704,
    "Latitude":-27.594805
  },
  {
    "SiteID":57231,
    "TenantName":"Baskaran, Sakthivel",
    "Address":"27 Hilton Street",
    "City":"Bellbird Park",
    "Region":"QLD",
    "PostalCode":"4300",
    "FullAddress":"27 Hilton Street, Bellbird Park, QLD, 4300, Australia",
    "Longitude":152.88925,
    "Latitude":-27.638577
  },
  {
    "SiteID":57231,
    "TenantName":"Benn, Gavin D",
    "Address":"3 Odra Street",
    "City":"Camira",
    "Region":"QLD",
    "PostalCode":"4300",
    "FullAddress":"3 Odra Street, Camira, QLD, 4300, Australia",
    "Longitude":152.924777,
    "Latitude":-27.629326
  },
  {
    "SiteID":57231,
    "TenantName":"Hamad Khalid, Yaseer",
    "Address":"24 Bottlebrush Street",
    "City":"Heathwood",
    "Region":"QLD",
    "PostalCode":"4110",
    "FullAddress":"24 Bottlebrush Street, Heathwood, QLD, 4110, Australia",
    "Longitude":152.988959,
    "Latitude":-27.633327
  },
  {
    "SiteID":57231,
    "TenantName":"Senior Campos, Enrique",
    "Address":"6\/332 Hoxton Park Road",
    "City":"PRESTONS",
    "Region":"NSW",
    "PostalCode":"2170",
    "FullAddress":"6\/332 Hoxton Park Road, PRESTONS, NSW, 2170, Australia",
    "Longitude":150.884482,
    "Latitude":-33.928891
  },
  {
    "SiteID":57231,
    "TenantName":"Duffy Jones, Robyn",
    "Address":"41\/48 Berkshire Place",
    "City":"Heathwood",
    "Region":"QLD",
    "PostalCode":"4110",
    "FullAddress":"41\/48 Berkshire Place, Heathwood, QLD, 4110, Australia",
    "Longitude":152.986489,
    "Latitude":-27.631166
  },
  {
    "SiteID":57231,
    "TenantName":"El Botaty, Tarek",
    "Address":"Thns 3 28 Beaumont drive",
    "City":"Pimpama",
    "Region":"QLD",
    "PostalCode":"4209",
    "FullAddress":"Thns 3 28 Beaumont drive, Pimpama, QLD, 4209, Australia",
    "Longitude":153.321896,
    "Latitude":-27.825453
  },
  {
    "SiteID":57231,
    "TenantName":"Amey, Gregory G",
    "Address":"2 Honeysuckle Pl",
    "City":"FOREST LAKE",
    "Region":"QLD",
    "PostalCode":"4078",
    "FullAddress":"2 Honeysuckle Pl, FOREST LAKE, QLD, 4078, Australia",
    "Longitude":152.964883,
    "Latitude":-27.609935
  },
  {
    "SiteID":57231,
    "TenantName":"Inala Youth Service, Darren",
    "Address":"12 Sitella St",
    "City":"INALA",
    "Region":"QLD",
    "PostalCode":"4077",
    "FullAddress":"12 Sitella St, INALA, QLD, 4077, Australia",
    "Longitude":152.977986,
    "Latitude":-27.605086
  },
  {
    "SiteID":57231,
    "TenantName":"Ray, Chelsea",
    "Address":"25 Dongola Street",
    "City":"Durack",
    "Region":"QLD",
    "PostalCode":"4077",
    "FullAddress":"25 Dongola Street, Durack, QLD, 4077, Australia",
    "Longitude":152.990607,
    "Latitude":-27.595011
  },
  {
    "SiteID":57231,
    "TenantName":"Marx Chua, Karl",
    "Address":"71 Finetti Circuit",
    "City":"Durack",
    "Region":"QLD",
    "PostalCode":"4077",
    "FullAddress":"71 Finetti Circuit, Durack, QLD, 4077, Australia",
    "Longitude":152.988907,
    "Latitude":-27.599807
  },
  {
    "SiteID":57231,
    "TenantName":"Prowse, Christopher",
    "Address":"Unit 307, 758 Blunder Road",
    "City":"Durack",
    "Region":"QLD",
    "PostalCode":"4077",
    "FullAddress":"Unit 307, 758 Blunder Road, Durack, QLD, 4077, Australia",
    "Longitude":152.99082,
    "Latitude":-27.599213
  },
  {
    "SiteID":57231,
    "TenantName":"Cross, Ashleigh K",
    "Address":"318 Watson Road",
    "City":"Acacia Ridge",
    "Region":"QLD",
    "PostalCode":"4110",
    "FullAddress":"318 Watson Road, Acacia Ridge, QLD, 4110, Australia",
    "Longitude":153.02033,
    "Latitude":-27.582406
  },
  {
    "SiteID":57231,
    "TenantName":"Smith, Jeffrey A",
    "Address":"18 Landsborough Place",
    "City":"Forest Lake",
    "Region":"QLD",
    "PostalCode":"4078",
    "FullAddress":"18 Landsborough Place, Forest Lake, QLD, 4078, Australia",
    "Longitude":152.971262,
    "Latitude":-27.615805
  },
  {
    "SiteID":57231,
    "TenantName":"Jordan, Peter A",
    "Address":"4 Poinciana Street",
    "City":"Inala",
    "Region":"QLD",
    "PostalCode":"4077",
    "FullAddress":"4 Poinciana Street, Inala, QLD, 4077, Australia",
    "Longitude":152.961479,
    "Latitude":-27.591931
  },
  {
    "SiteID":57231,
    "TenantName":"Stott, Dale L",
    "Address":"19 Montego Way",
    "City":"Forest Lake",
    "Region":"QLD",
    "PostalCode":"4078",
    "FullAddress":"19 Montego Way, Forest Lake, QLD, 4078, Australia",
    "Longitude":152.967184,
    "Latitude":-27.624677
  },
  {
    "SiteID":57231,
    "TenantName":"Satherley, Alan V",
    "Address":"23 Westminster Boulevard",
    "City":"Doolandella",
    "Region":"QLD",
    "PostalCode":"4077",
    "FullAddress":"23 Westminster Boulevard, Doolandella, QLD, 4077, Australia",
    "Longitude":152.988562,
    "Latitude":-27.614259
  },
  {
    "SiteID":57231,
    "TenantName":"Olliver, Richalene",
    "Address":"41 Durella Street",
    "City":"Durack",
    "Region":"QLD",
    "PostalCode":"4077",
    "FullAddress":"41 Durella Street, Durack, QLD, 4077, Australia",
    "Longitude":152.978213,
    "Latitude":-27.591127
  },
  {
    "SiteID":57231,
    "TenantName":"Richlands Pharma, Thomas",
    "Address":"6\/511 Acherfield Road",
    "City":"RICHLANDS",
    "Region":"QLD",
    "PostalCode":"4077",
    "FullAddress":"6\/511 Acherfield Road, RICHLANDS, QLD, 4077, Australia",
    "Longitude":152.958943,
    "Latitude":-27.596286
  },
  {
    "SiteID":57231,
    "TenantName":"Lundy, Elona",
    "Address":"40 Glover Circuit",
    "City":"New Beith",
    "Region":"QLD",
    "PostalCode":"4124",
    "FullAddress":"40 Glover Circuit, New Beith, QLD, 4124, Australia",
    "Longitude":152.948962,
    "Latitude":-27.752546
  },
  {
    "SiteID":57231,
    "TenantName":"Oneill, Adelaide E",
    "Address":"22 Alumuna Street",
    "City":"Sunnybank Hills",
    "Region":"QLD",
    "PostalCode":"4109",
    "FullAddress":"22 Alumuna Street, Sunnybank Hills, QLD, 4109, Australia",
    "Longitude":153.044751,
    "Latitude":-27.584668
  },
  {
    "SiteID":57231,
    "TenantName":"Tu Pham, Thi",
    "Address":"305 Old Logan Road",
    "City":"Camira",
    "Region":"QLD",
    "PostalCode":"4300",
    "FullAddress":"305 Old Logan Road, Camira, QLD, 4300, Australia",
    "Longitude":152.915208,
    "Latitude":-27.63334
  },
  {
    "SiteID":57231,
    "TenantName":"Centre Management, Attn: Marketing",
    "Address":"235 Forest Lake Blvd",
    "City":"Forest Lake",
    "Region":"QLD",
    "PostalCode":"4078",
    "FullAddress":"235 Forest Lake Blvd, Forest Lake, QLD, 4078, Australia",
    "Longitude":152.968381,
    "Latitude":-27.625205
  },
  {
    "SiteID":57231,
    "TenantName":"Millward, Adrian E",
    "Address":"5 Pistacio Court",
    "City":"CAMIRA",
    "Region":"QLD",
    "PostalCode":"3400",
    "FullAddress":"5 Pistacio Court, CAMIRA, QLD, 3400, Australia",
    "Longitude":152.926754,
    "Latitude":-27.646235
  },
  {
    "SiteID":57231,
    "TenantName":"Smith, Rhonda K",
    "Address":"4 Ithaca Way",
    "City":"FOREST  LAKE",
    "Region":"QLD",
    "PostalCode":"4078",
    "FullAddress":"4 Ithaca Way, FOREST  LAKE, QLD, 4078, Australia",
    "Longitude":152.963961,
    "Latitude":-27.630142
  },
  {
    "SiteID":57231,
    "TenantName":"Southam, Claire L",
    "Address":"237 Blunder Road",
    "City":"Durack",
    "Region":"QLD",
    "PostalCode":"4077",
    "FullAddress":"237 Blunder Road, Durack, QLD, 4077, Australia",
    "Longitude":152.983566,
    "Latitude":-27.58268
  },
  {
    "SiteID":57231,
    "TenantName":"Rasey, Carman",
    "Address":"14 Widewood Court",
    "City":"Heritage Park",
    "Region":"QLD",
    "PostalCode":"4118",
    "FullAddress":"14 Widewood Court, Heritage Park, QLD, 4118, Australia",
    "Longitude":153.052508,
    "Latitude":-27.678882
  },
  {
    "SiteID":57231,
    "TenantName":"Selvaraj, Rajeshkumar",
    "Address":"11 Wild Iris Terrace",
    "City":"Springfield Lakes",
    "Region":"QLD",
    "PostalCode":"4300",
    "FullAddress":"11 Wild Iris Terrace, Springfield Lakes, QLD, 4300, Australia",
    "Longitude":152.92246,
    "Latitude":-27.68818
  },
  {
    "SiteID":57231,
    "TenantName":"English, Lawrence",
    "Address":"158 Windsor Road",
    "City":"Kelvin Grove",
    "Region":"QLD",
    "PostalCode":"4059",
    "FullAddress":"158 Windsor Road, Kelvin Grove, QLD, 4059, Australia",
    "Longitude":153.006508,
    "Latitude":-27.446058
  },
  {
    "SiteID":57231,
    "TenantName":"Osborne, Scott",
    "Address":"15 Apricot Street",
    "City":"Inala",
    "Region":"QLD",
    "PostalCode":"4077",
    "FullAddress":"15 Apricot Street, Inala, QLD, 4077, Australia",
    "Longitude":152.968265,
    "Latitude":-27.581975
  },
  {
    "SiteID":57231,
    "TenantName":"Symonds, Tamara A",
    "Address":"12 33-39 Hamilton Street",
    "City":"Rose Bay",
    "Region":"NSW",
    "PostalCode":"2029",
    "FullAddress":"12 33-39 Hamilton Street, Rose Bay, NSW, 2029, Australia",
    "Longitude":151.273757,
    "Latitude":-33.872532
  },
  {
    "SiteID":57231,
    "TenantName":"Whitfield, Mark S",
    "Address":"36 Mayfair Street",
    "City":"Doolandella",
    "Region":"QLD",
    "PostalCode":"4077",
    "FullAddress":"36 Mayfair Street, Doolandella, QLD, 4077, Australia",
    "Longitude":152.986904,
    "Latitude":-27.615558
  },
  {
    "SiteID":57231,
    "TenantName":"Morbe, Richard J",
    "Address":"51 Reardon St",
    "City":"CALAMVALE",
    "Region":"QLD",
    "PostalCode":"4116",
    "FullAddress":"51 Reardon St, CALAMVALE, QLD, 4116, Australia",
    "Longitude":153.044522,
    "Latitude":-27.615997
  },
  {
    "SiteID":57231,
    "TenantName":"Kongpan, Sithichai",
    "Address":"6 Bimbah Street",
    "City":"Forest Lake",
    "Region":"QLD",
    "PostalCode":"4078",
    "FullAddress":"6 Bimbah Street, Forest Lake, QLD, 4078, Australia",
    "Longitude":152.957018,
    "Latitude":-27.603661
  },
  {
    "SiteID":57231,
    "TenantName":"Browne, Tina",
    "Address":"PO BOX 23132",
    "City":"Docklands",
    "Region":"VIC",
    "PostalCode":"3008",
    "FullAddress":"PO BOX 23132, Docklands, VIC, 3008, Australia",
    "Longitude":144.944747,
    "Latitude":-37.82219
  },
  {
    "SiteID":57231,
    "TenantName":"Young, Karen",
    "Address":"50 Botticelli Street",
    "City":"Fig Tree Pocket",
    "Region":"QLD",
    "PostalCode":"4069",
    "FullAddress":"50 Botticelli Street, Fig Tree Pocket, QLD, 4069, Australia",
    "Longitude":152.967134,
    "Latitude":-27.542896
  },
  {
    "SiteID":57231,
    "TenantName":"Wing, Sean",
    "Address":"PO Box 5090",
    "City":"Mount Gravatt East",
    "Region":"QLD",
    "PostalCode":"4122",
    "FullAddress":"PO Box 5090, Mount Gravatt East, QLD, 4122, Australia",
    "Longitude":143.735625,
    "Latitude":-37.034317
  },
  {
    "SiteID":57231,
    "TenantName":"Armitage, Kelly David",
    "Address":"10\/461 Adelaide Street",
    "City":"Brisbane City",
    "Region":"QLD",
    "PostalCode":"4000",
    "FullAddress":"10\/461 Adelaide Street, Brisbane City, QLD, 4000, Australia",
    "Longitude":153.032011,
    "Latitude":-27.463179
  },
  {
    "SiteID":57231,
    "TenantName":"Eystathios Kambouris, Andreas",
    "Address":"7 Muirfield Crescent",
    "City":"Oxley",
    "Region":"QLD",
    "PostalCode":"4075",
    "FullAddress":"7 Muirfield Crescent, Oxley, QLD, 4075, Australia",
    "Longitude":152.984012,
    "Latitude":-27.57322
  },
  {
    "SiteID":57231,
    "TenantName":"Ganson, Timothy J",
    "Address":"5\/39 Rowe Terrace",
    "City":"Darra",
    "Region":"QLD",
    "PostalCode":"4076",
    "FullAddress":"5\/39 Rowe Terrace, Darra, QLD, 4076, Australia",
    "Longitude":152.958047,
    "Latitude":-27.570564
  },
  {
    "SiteID":57231,
    "TenantName":"Robb, Charles A",
    "Address":"35 Octans St",
    "City":"INALA",
    "Region":"QLD",
    "PostalCode":"4077",
    "FullAddress":"35 Octans St, INALA, QLD, 4077, Australia",
    "Longitude":152.96885,
    "Latitude":-27.602892
  },
  {
    "SiteID":57231,
    "TenantName":"Zirkler, Warren",
    "Address":"9\/11 Damalis Street",
    "City":"Woodridge",
    "Region":"QLD",
    "PostalCode":"4114",
    "FullAddress":"9\/11 Damalis Street, Woodridge, QLD, 4114, Australia",
    "Longitude":153.102658,
    "Latitude":-27.62233
  },
  {
    "SiteID":57231,
    "TenantName":"Bates, Victoria",
    "Address":"77 Effingham Street",
    "City":"Tarragindi",
    "Region":"QLD",
    "PostalCode":"4121",
    "FullAddress":"77 Effingham Street, Tarragindi, QLD, 4121, Australia",
    "Longitude":153.043373,
    "Latitude":-27.522132
  },
  {
    "SiteID":57231,
    "TenantName":"Dargusch, Kevin J",
    "Address":"H45A Blunder Road",
    "City":"Durack",
    "Region":"QLD",
    "PostalCode":"4077",
    "FullAddress":"H45A Blunder Road, Durack, QLD, 4077, Australia",
    "Longitude":152.98406,
    "Latitude":-27.583541
  },
  {
    "SiteID":57231,
    "TenantName":"Ghebray, Bahram Ezra",
    "Address":"13 Murfield Crescent",
    "City":"OXLEY",
    "Region":"QLD",
    "PostalCode":"4075",
    "FullAddress":"13 Murfield Crescent, OXLEY, QLD, 4075, Australia",
    "Longitude":152.983977,
    "Latitude":-27.573654
  },
  {
    "SiteID":57231,
    "TenantName":"Brennan, Kevin J",
    "Address":"23 Beamont Place",
    "City":"Forest Lake",
    "Region":"QLD",
    "PostalCode":"4078",
    "FullAddress":"23 Beamont Place, Forest Lake, QLD, 4078, Australia",
    "Longitude":152.972961,
    "Latitude":-27.614545
  },
  {
    "SiteID":57231,
    "TenantName":"Moeakitama Tagamotu, Martin S",
    "Address":"Unit 28 6 Cloverdale Road",
    "City":"Doolandella",
    "Region":"QLD",
    "PostalCode":"4077",
    "FullAddress":"Unit 28 6 Cloverdale Road, Doolandella, QLD, 4077, Australia",
    "Longitude":152.984864,
    "Latitude":-27.620075
  },
  {
    "SiteID":57231,
    "TenantName":"Belcher, Thomas P",
    "Address":"23 Glenwood Street",
    "City":"Chelmer",
    "Region":"QLD",
    "PostalCode":"4068",
    "FullAddress":"23 Glenwood Street, Chelmer, QLD, 4068, Australia",
    "Longitude":152.977619,
    "Latitude":-27.512761
  },
  {
    "SiteID":57231,
    "TenantName":"Tusagi, Linda",
    "Address":"25 rivergum pl",
    "City":"Calamvale",
    "Region":"QLD",
    "PostalCode":"4116",
    "FullAddress":"25 rivergum pl, Calamvale, QLD, 4116, Australia",
    "Longitude":153.051142,
    "Latitude":-27.621185
  },
  {
    "SiteID":57231,
    "TenantName":"Deen Paint  Panel, Mohammed",
    "Address":"12\/86 Wilkie Street",
    "City":"YERONGPILLY",
    "Region":"QLD",
    "PostalCode":"4105",
    "FullAddress":"12\/86 Wilkie Street, YERONGPILLY, QLD, 4105, Australia",
    "Longitude":153.014795,
    "Latitude":-27.526611
  },
  {
    "SiteID":57231,
    "TenantName":"Brockhall, Terrence J",
    "Address":"5 Kilkenny Close",
    "City":"Armidale",
    "Region":"NSW",
    "PostalCode":"2350",
    "FullAddress":"5 Kilkenny Close, Armidale, NSW, 2350, Australia",
    "Longitude":151.653242,
    "Latitude":-30.534209
  },
  {
    "SiteID":57231,
    "TenantName":"Spezza, Paul S",
    "Address":"31 Leslie St",
    "City":"Bardon",
    "Region":"QLD",
    "PostalCode":"4065",
    "FullAddress":"31 Leslie St, Bardon, QLD, 4065, Australia",
    "Longitude":152.987457,
    "Latitude":-27.449441
  },
  {
    "SiteID":57231,
    "TenantName":"Mundy, Neil W",
    "Address":"16 Pinaster Street",
    "City":"Forest Lake",
    "Region":"QLD",
    "PostalCode":"4078",
    "FullAddress":"16 Pinaster Street, Forest Lake, QLD, 4078, Australia",
    "Longitude":152.958185,
    "Latitude":-27.617865
  },
  {
    "SiteID":57231,
    "TenantName":"Yao, Peiqing",
    "Address":"20 Juniper Street",
    "City":"Heathwood",
    "Region":"QLD",
    "PostalCode":"4110",
    "FullAddress":"20 Juniper Street, Heathwood, QLD, 4110, Australia",
    "Longitude":152.987977,
    "Latitude":-27.633225
  },
  {
    "SiteID":57231,
    "TenantName":"Thi Sharp, Ngoc",
    "Address":"51 Cairns Road",
    "City":"Camira",
    "Region":"QLD",
    "PostalCode":"4300",
    "FullAddress":"51 Cairns Road, Camira, QLD, 4300, Australia",
    "Longitude":152.91039,
    "Latitude":-27.632139
  },
  {
    "SiteID":57231,
    "TenantName":"Feltoe, Mason J",
    "Address":"3 Arosa Street",
    "City":"Jamboree Heights",
    "Region":"QLD",
    "PostalCode":"4074",
    "FullAddress":"3 Arosa Street, Jamboree Heights, QLD, 4074, Australia",
    "Longitude":152.940138,
    "Latitude":-27.552815
  },
  {
    "SiteID":57231,
    "TenantName":"Kumaran Selvaraja, Senthilumaran",
    "Address":"11 Kittyhawk Avenue",
    "City":"Inala",
    "Region":"QLD",
    "PostalCode":"4077",
    "FullAddress":"11 Kittyhawk Avenue, Inala, QLD, 4077, Australia",
    "Longitude":152.97248,
    "Latitude":-27.597837
  },
  {
    "SiteID":57231,
    "TenantName":"Solomua faatoese, Allan alama",
    "Address":"70A Julie Road",
    "City":"Ellen Grove",
    "Region":"QLD",
    "PostalCode":"4078",
    "FullAddress":"70A Julie Road, Ellen Grove, QLD, 4078, Australia",
    "Longitude":152.938897,
    "Latitude":-27.61777
  },
  {
    "SiteID":57231,
    "TenantName":"Bailey, Tahnee R",
    "Address":"14 Edith Street",
    "City":"Forest Lake",
    "Region":"QLD",
    "PostalCode":"4078",
    "FullAddress":"14 Edith Street, Forest Lake, QLD, 4078, Australia",
    "Longitude":152.967082,
    "Latitude":-27.632706
  },
  {
    "SiteID":57231,
    "TenantName":"Xu, Leo",
    "Address":"21\/163 Douglas Street",
    "City":"Oxley",
    "Region":"QLD",
    "PostalCode":"4075",
    "FullAddress":"21\/163 Douglas Street, Oxley, QLD, 4075, Australia",
    "Longitude":152.969842,
    "Latitude":-27.564591
  },
  {
    "SiteID":57231,
    "TenantName":"Thurlow, Kay",
    "Address":"Unit 29, 16 Thanbarran Place",
    "City":"Inala",
    "Region":"QLD",
    "PostalCode":"4077",
    "FullAddress":"Unit 29, 16 Thanbarran Place, Inala, QLD, 4077, Australia",
    "Longitude":152.965033,
    "Latitude":-27.600002
  },
  {
    "SiteID":57231,
    "TenantName":"Caric, Mirjana",
    "Address":"10 Baker Street",
    "City":"Gailes",
    "Region":"QLD",
    "PostalCode":"4300",
    "FullAddress":"10 Baker Street, Gailes, QLD, 4300, Australia",
    "Longitude":152.917607,
    "Latitude":-27.612678
  },
  {
    "SiteID":57231,
    "TenantName":"Kim thu Lam, Thi",
    "Address":"33 Laurel Street",
    "City":"Redbank Plains",
    "Region":"QLD",
    "PostalCode":"4301",
    "FullAddress":"33 Laurel Street, Redbank Plains, QLD, 4301, Australia",
    "Longitude":152.868665,
    "Latitude":-27.635827
  },
  {
    "SiteID":57231,
    "TenantName":"Manufelavei, Divinity",
    "Address":"106 Biota Street",
    "City":"Inala",
    "Region":"QLD",
    "PostalCode":"4077",
    "FullAddress":"106 Biota Street, Inala, QLD, 4077, Australia",
    "Longitude":152.970188,
    "Latitude":-27.587695
  },
  {
    "SiteID":57231,
    "TenantName":"Gaskell, Anthony P",
    "Address":"81 Highfield Street",
    "City":"Durack",
    "Region":"QLD",
    "PostalCode":"4077",
    "FullAddress":"81 Highfield Street, Durack, QLD, 4077, Australia",
    "Longitude":152.979012,
    "Latitude":-27.580341
  },
  {
    "SiteID":57231,
    "TenantName":"Weller, Anthony B",
    "Address":"1 Baway Close",
    "City":"Caravonica",
    "Region":"QLD",
    "PostalCode":"4878",
    "FullAddress":"1 Baway Close, Caravonica, QLD, 4878, Australia",
    "Longitude":145.682744,
    "Latitude":-16.864933
  },
  {
    "SiteID":57231,
    "TenantName":"The Long Weekend Fabric H, Angela",
    "Address":"02 Berry Street",
    "City":"SHERWOOD",
    "Region":"QLD",
    "PostalCode":"4075",
    "FullAddress":"02 Berry Street, SHERWOOD, QLD, 4075, Australia",
    "Longitude":152.976406,
    "Latitude":-27.528818
  },
  {
    "SiteID":57231,
    "TenantName":"Tauvao, Jan Sinafatuimoa",
    "Address":"69 Whitmore Crescent",
    "City":"Goodna",
    "Region":"QLD",
    "PostalCode":"4300",
    "FullAddress":"69 Whitmore Crescent, Goodna, QLD, 4300, Australia",
    "Longitude":152.883183,
    "Latitude":-27.605097
  },
  {
    "SiteID":57231,
    "TenantName":"Okeibunor, Ifeanyi T",
    "Address":"165 Falkland Street East",
    "City":"Pallara",
    "Region":"QLD",
    "PostalCode":"4110",
    "FullAddress":"165 Falkland Street East, Pallara, QLD, 4110, Australia",
    "Longitude":152.992312,
    "Latitude":-27.627395
  },
  {
    "SiteID":57231,
    "TenantName":"Hansen, Karen L",
    "Address":"Unit J13, 356 Blunder Road",
    "City":"Durack",
    "Region":"QLD",
    "PostalCode":"4077",
    "FullAddress":"Unit J13, 356 Blunder Road, Durack, QLD, 4077, Australia",
    "Longitude":152.988117,
    "Latitude":-27.579845
  },
  {
    "SiteID":57231,
    "TenantName":"Charlton, Geoffrey",
    "Address":"32 Ironbark Place",
    "City":"Heathwood",
    "Region":"QLD",
    "PostalCode":"4110",
    "FullAddress":"32 Ironbark Place, Heathwood, QLD, 4110, Australia",
    "Longitude":152.992964,
    "Latitude":-27.634486
  },
  {
    "SiteID":57231,
    "TenantName":"Toavalu, Tasi",
    "Address":"15 Summit Tce",
    "City":"Forest Lake",
    "Region":"QLD",
    "PostalCode":"4077",
    "FullAddress":"15 Summit Tce, Forest Lake, QLD, 4077, Australia",
    "Longitude":152.96807,
    "Latitude":-27.632655
  },
  {
    "SiteID":57231,
    "TenantName":"Holt, Yvette R",
    "Address":"9 Canary Street",
    "City":"Inala",
    "Region":"QLD",
    "PostalCode":"4077",
    "FullAddress":"9 Canary Street, Inala, QLD, 4077, Australia",
    "Longitude":152.983684,
    "Latitude":-27.601944
  },
  {
    "SiteID":57231,
    "TenantName":"Makatule, Vicktoria K",
    "Address":"26 Glendale Crescent",
    "City":"Heathwood",
    "Region":"QLD",
    "PostalCode":"4110",
    "FullAddress":"26 Glendale Crescent, Heathwood, QLD, 4110, Australia",
    "Longitude":152.985418,
    "Latitude":-27.624908
  },
  {
    "SiteID":57231,
    "TenantName":"Hassen, Aweys",
    "Address":"16 North Place",
    "City":"Acacia Ridge",
    "Region":"QLD",
    "PostalCode":"4110",
    "FullAddress":"16 North Place, Acacia Ridge, QLD, 4110, Australia",
    "Longitude":153.026308,
    "Latitude":-27.594666
  },
  {
    "SiteID":57231,
    "TenantName":"Harrison, Janice G",
    "Address":"10 Oreilly Street",
    "City":"Sinnamon Park",
    "Region":"QLD",
    "PostalCode":"4073",
    "FullAddress":"10 Oreilly Street, Sinnamon Park, QLD, 4073, Australia",
    "Longitude":152.943677,
    "Latitude":-27.544077
  },
  {
    "SiteID":57231,
    "TenantName":"Ahmat, Doris",
    "Address":"2 Majestic Street",
    "City":"Kamerunga",
    "Region":"QLD",
    "PostalCode":"4870",
    "FullAddress":"2 Majestic Street, Kamerunga, QLD, 4870, Australia",
    "Longitude":145.694378,
    "Latitude":-16.881859
  },
  {
    "SiteID":57231,
    "TenantName":"Seymour Skott, Jane N",
    "Address":"21 Parakeet St",
    "City":"INALA",
    "Region":"QLD",
    "PostalCode":"4077",
    "FullAddress":"21 Parakeet St, INALA, QLD, 4077, Australia",
    "Longitude":152.972042,
    "Latitude":-27.60214
  },
  {
    "SiteID":57231,
    "TenantName":"Mackie, Jason A",
    "Address":"17 Mapleton Crescent",
    "City":"Forest Lake",
    "Region":"QLD",
    "PostalCode":"4078",
    "FullAddress":"17 Mapleton Crescent, Forest Lake, QLD, 4078, Australia",
    "Longitude":152.966165,
    "Latitude":-27.628577
  },
  {
    "SiteID":57231,
    "TenantName":"Reddy, Christine A",
    "Address":"67 steelwood Street",
    "City":"HEATHWOOD",
    "Region":"QLD",
    "PostalCode":"4110",
    "FullAddress":"67 steelwood Street, HEATHWOOD, QLD, 4110, Australia",
    "Longitude":152.99287,
    "Latitude":-27.638811
  },
  {
    "SiteID":57231,
    "TenantName":"Moore, Tina",
    "Address":"32 the Esplanard",
    "City":"Tin can Bay",
    "Region":"QLD",
    "PostalCode":"4580",
    "FullAddress":"32 the Esplanard, Tin can Bay, QLD, 4580, Australia",
    "Longitude":152.980337,
    "Latitude":-25.943203
  },
  {
    "SiteID":57231,
    "TenantName":"Carter, Kerri Ann",
    "Address":"194 Graceville Avenue",
    "City":"Graceville",
    "Region":"QLD",
    "PostalCode":"4075",
    "FullAddress":"194 Graceville Avenue, Graceville, QLD, 4075, Australia",
    "Longitude":152.990503,
    "Latitude":-27.523059
  },
  {
    "SiteID":57231,
    "TenantName":"Mollee, Erika L",
    "Address":"20 Balsa Street",
    "City":"Inala",
    "Region":"QLD",
    "PostalCode":"4077",
    "FullAddress":"20 Balsa Street, Inala, QLD, 4077, Australia",
    "Longitude":152.971186,
    "Latitude":-27.58951
  },
  {
    "SiteID":57231,
    "TenantName":"Tschumy, Christopher P",
    "Address":"4 Tinaroo St",
    "City":"DURACK",
    "Region":"QLD",
    "PostalCode":"4077",
    "FullAddress":"4 Tinaroo St, DURACK, QLD, 4077, Australia",
    "Longitude":152.981208,
    "Latitude":-27.586603
  },
  {
    "SiteID":57231,
    "TenantName":"Li, Mei",
    "Address":"level 5\/352 Hunter Street",
    "City":"Newcastle",
    "Region":"NSW",
    "PostalCode":"2300",
    "FullAddress":"level 5\/352 Hunter Street, Newcastle, NSW, 2300, Australia",
    "Longitude":151.774923,
    "Latitude":-32.926409
  },
  {
    "SiteID":57231,
    "TenantName":"Mill, Cody D",
    "Address":"535 stanmore road",
    "City":"Luscombe",
    "Region":"QLD",
    "PostalCode":"4207",
    "FullAddress":"535 stanmore road, Luscombe, QLD, 4207, Australia",
    "Longitude":153.198858,
    "Latitude":-27.775037
  },
  {
    "SiteID":57231,
    "TenantName":"Halvorsen, Bailey M",
    "Address":"8 Benarkin Close",
    "City":"Waterford",
    "Region":"QLD",
    "PostalCode":"4133",
    "FullAddress":"8 Benarkin Close, Waterford, QLD, 4133, Australia",
    "Longitude":153.152379,
    "Latitude":-27.712944
  },
  {
    "SiteID":57231,
    "TenantName":"Morrow, Eric J",
    "Address":"14 Aspen Street",
    "City":"Inala",
    "Region":"QLD",
    "PostalCode":"4077",
    "FullAddress":"14 Aspen Street, Inala, QLD, 4077, Australia",
    "Longitude":152.973423,
    "Latitude":-27.585882
  },
  {
    "SiteID":57231,
    "TenantName":"Amratlal Daya, Pravesh",
    "Address":"26 Verday Crescent",
    "City":"Pallara",
    "Region":"QLD",
    "PostalCode":"4110",
    "FullAddress":"26 Verday Crescent, Pallara, QLD, 4110, Australia",
    "Longitude":153.015746,
    "Latitude":-27.611704
  },
  {
    "SiteID":57231,
    "TenantName":"Fagu, Margaret",
    "Address":"31 wedgetail St Inala",
    "City":"Inala",
    "Region":"QLD",
    "PostalCode":"4077",
    "FullAddress":"31 wedgetail St Inala, Inala, QLD, 4077, Australia",
    "Longitude":152.984464,
    "Latitude":-27.601422
  },
  {
    "SiteID":57231,
    "TenantName":"OLeary, Megan",
    "Address":"P.O. Box 3123",
    "City":"Darra",
    "Region":"QLD",
    "PostalCode":"4076",
    "FullAddress":"P.O. Box 3123, Darra, QLD, 4076, Australia",
    "Longitude":152.959673,
    "Latitude":-27.562393
  },
  {
    "SiteID":57231,
    "TenantName":"Hall, Dahlia J",
    "Address":"61 Switchback Road",
    "City":"Churchill",
    "Region":"VIC",
    "PostalCode":"3842",
    "FullAddress":"61 Switchback Road, Churchill, VIC, 3842, Australia",
    "Longitude":146.410778,
    "Latitude":-38.307397
  },
  {
    "SiteID":57231,
    "TenantName":"Berry, Ruth",
    "Address":"253 Stanhill Drive",
    "City":"Surfers Paradise",
    "Region":"QLD",
    "PostalCode":"4217",
    "FullAddress":"253 Stanhill Drive, Surfers Paradise, QLD, 4217, Australia",
    "Longitude":153.420642,
    "Latitude":-27.999739
  },
  {
    "SiteID":57231,
    "TenantName":"Gillatt, Beryl",
    "Address":"U 44 High View Village 41 High Street",
    "City":"Forest Lake",
    "Region":"QLD",
    "PostalCode":"4078",
    "FullAddress":"U 44 High View Village 41 High Street, Forest Lake, QLD, 4078, Australia",
    "Longitude":152.971596,
    "Latitude":-27.6266
  },
  {
    "SiteID":57231,
    "TenantName":"Jakins, Natalie E",
    "Address":"52\/280 Grand Avenue",
    "City":"FOREST LAKE",
    "Region":"QLD",
    "PostalCode":"4078",
    "FullAddress":"52\/280 Grand Avenue, FOREST LAKE, QLD, 4078, Australia",
    "Longitude":152.968751,
    "Latitude":-27.626886
  },
  {
    "SiteID":57231,
    "TenantName":"Parker, Scott G",
    "Address":"17 Fairway Drive",
    "City":"Tewantin",
    "Region":"QLD",
    "PostalCode":"4565",
    "FullAddress":"17 Fairway Drive, Tewantin, QLD, 4565, Australia",
    "Longitude":153.022063,
    "Latitude":-26.398151
  },
  {
    "SiteID":57231,
    "TenantName":"Anderson, Kerrod S",
    "Address":"9 Honeysuckle Place",
    "City":"Forest Lake",
    "Region":"QLD",
    "PostalCode":"4078",
    "FullAddress":"9 Honeysuckle Place, Forest Lake, QLD, 4078, Australia",
    "Longitude":152.96528,
    "Latitude":-27.609405
  },
  {
    "SiteID":57231,
    "TenantName":"Mortimer, Ellouise",
    "Address":"145 Mortimer Road",
    "City":"Acacia Ridge",
    "Region":"QLD",
    "PostalCode":"4110",
    "FullAddress":"145 Mortimer Road, Acacia Ridge, QLD, 4110, Australia",
    "Longitude":153.01658,
    "Latitude":-27.578684
  },
  {
    "SiteID":57231,
    "TenantName":"Fox, Amber C",
    "Address":"Townhouse 40, 19 Flower Place",
    "City":"Richlands",
    "Region":"QLD",
    "PostalCode":"4077",
    "FullAddress":"Townhouse 40, 19 Flower Place, Richlands, QLD, 4077, Australia",
    "Longitude":152.954288,
    "Latitude":-27.601027
  },
  {
    "SiteID":57231,
    "TenantName":"Bayne, Derrick R",
    "Address":"PO BOX 761",
    "City":"INDOOROOPILLY",
    "Region":"QLD",
    "PostalCode":"4068",
    "FullAddress":"PO BOX 761, INDOOROOPILLY, QLD, 4068, Australia",
    "Longitude":152.991205,
    "Latitude":-27.501446
  },
  {
    "SiteID":57231,
    "TenantName":"McCrystal, Mary J",
    "Address":"13 Banksia Circuit",
    "City":"Forest Lake",
    "Region":"QLD",
    "PostalCode":"4078",
    "FullAddress":"13 Banksia Circuit, Forest Lake, QLD, 4078, Australia",
    "Longitude":152.965281,
    "Latitude":-27.612923
  },
  {
    "SiteID":57231,
    "TenantName":"Alana, Ogeno C",
    "Address":"9 Toorwood Street",
    "City":"Heathwood",
    "Region":"QLD",
    "PostalCode":"4110",
    "FullAddress":"9 Toorwood Street, Heathwood, QLD, 4110, Australia",
    "Longitude":152.994868,
    "Latitude":-27.63281
  },
  {
    "SiteID":57231,
    "TenantName":"Narayanasamy, Vignesh",
    "Address":"61 Wenden Road",
    "City":"Mill Park",
    "Region":"VIC",
    "PostalCode":"3082",
    "FullAddress":"61 Wenden Road, Mill Park, VIC, 3082, Australia",
    "Longitude":145.059049,
    "Latitude":-37.667755
  },
  {
    "SiteID":57231,
    "TenantName":"Greensill, Luke",
    "Address":"7\/36 Philong Street",
    "City":"Doolandella",
    "Region":"QLD",
    "PostalCode":"4077",
    "FullAddress":"7\/36 Philong Street, Doolandella, QLD, 4077, Australia",
    "Longitude":152.97804,
    "Latitude":-27.615041
  },
  {
    "SiteID":57231,
    "TenantName":"Poynter, Allan P",
    "Address":"4\/41 Denman Street",
    "City":"Alderley",
    "Region":"QLD",
    "PostalCode":"4051",
    "FullAddress":"4\/41 Denman Street, Alderley, QLD, 4051, Australia",
    "Longitude":153.002452,
    "Latitude":-27.422614
  },
  {
    "SiteID":57231,
    "TenantName":"Denheld, Paula J",
    "Address":"38 Fiona St Bellbird Park",
    "City":null,
    "Region":"QLD",
    "PostalCode":"4300",
    "FullAddress":"38 Fiona St Bellbird Park, QLD, 4300, Australia",
    "Longitude":152.897925,
    "Latitude":-27.627902
  },
  {
    "SiteID":57231,
    "TenantName":"Grayson, Gabriel D",
    "Address":"173 Fernvale Road",
    "City":"Fernvale",
    "Region":"NSW",
    "PostalCode":"2484",
    "FullAddress":"173 Fernvale Road, Fernvale, NSW, 2484, Australia",
    "Longitude":153.4265,
    "Latitude":-28.363783
  },
  {
    "SiteID":57231,
    "TenantName":"Campbell, Alexander B",
    "Address":"2\/29 Bristol Street",
    "City":"West End",
    "Region":"QLD",
    "PostalCode":"4101",
    "FullAddress":"2\/29 Bristol Street, West End, QLD, 4101, Australia",
    "Longitude":153.008101,
    "Latitude":-27.48591
  },
  {
    "SiteID":57231,
    "TenantName":"Iuli, Wesley",
    "Address":"7 Mcguigan Court",
    "City":"GOODNA",
    "Region":"QLD",
    "PostalCode":"4300",
    "FullAddress":"7 Mcguigan Court, GOODNA, QLD, 4300, Australia",
    "Longitude":152.883601,
    "Latitude":-27.604921
  },
  {
    "SiteID":57231,
    "TenantName":"Vaivai, Mina",
    "Address":"142 Durrang Street",
    "City":"Durack",
    "Region":"QLD",
    "PostalCode":"4077",
    "FullAddress":"142 Durrang Street, Durack, QLD, 4077, Australia",
    "Longitude":152.980465,
    "Latitude":-27.593898
  },
  {
    "SiteID":57231,
    "TenantName":"Quynh Nguyen, Nhu",
    "Address":"5\/255 Forest Lake Boulevard",
    "City":"Forest Lake",
    "Region":"QLD",
    "PostalCode":"4078",
    "FullAddress":"5\/255 Forest Lake Boulevard, Forest Lake, QLD, 4078, Australia",
    "Longitude":152.970024,
    "Latitude":-27.626548
  },
  {
    "SiteID":57231,
    "TenantName":"Junior Tonga, Luseane",
    "Address":"21 Virgo Street",
    "City":"Inala",
    "Region":"QLD",
    "PostalCode":"4077",
    "FullAddress":"21 Virgo Street, Inala, QLD, 4077, Australia",
    "Longitude":152.964101,
    "Latitude":-27.601037
  },
  {
    "SiteID":57231,
    "TenantName":"Amethyst Training Pty Ltd, Amethyst Training Pty Ltd",
    "Address":"36 Serrata Cct",
    "City":"FOREST LAKE",
    "Region":"QLD",
    "PostalCode":"4078",
    "FullAddress":"36 Serrata Cct, FOREST LAKE, QLD, 4078, Australia",
    "Longitude":152.969803,
    "Latitude":-27.612289
  },
  {
    "SiteID":57231,
    "TenantName":"Vakatini Tekeu, Tutai",
    "Address":"8 Habitat Way",
    "City":"Pimpama",
    "Region":"QLD",
    "PostalCode":"4209",
    "FullAddress":"8 Habitat Way, Pimpama, QLD, 4209, Australia",
    "Longitude":153.299567,
    "Latitude":-27.839764
  },
  {
    "SiteID":57231,
    "TenantName":"Nawaz, Usman",
    "Address":"34 Kincraig Circuit",
    "City":"Spring Mountain",
    "Region":"QLD",
    "PostalCode":"4300",
    "FullAddress":"34 Kincraig Circuit, Spring Mountain, QLD, 4300, Australia",
    "Longitude":152.896049,
    "Latitude":-27.693162
  },
  {
    "SiteID":57231,
    "TenantName":"MOIRA KARAITIANA, ERIN",
    "Address":"23 Beamont Place",
    "City":"Forest Lake",
    "Region":"QLD",
    "PostalCode":"4078",
    "FullAddress":"23 Beamont Place, Forest Lake, QLD, 4078, Australia",
    "Longitude":152.972961,
    "Latitude":-27.614545
  },
  {
    "SiteID":57231,
    "TenantName":"Cooper, Donna M",
    "Address":"4 Rosella Street",
    "City":"Redbank Plains",
    "Region":"QLD",
    "PostalCode":"4301",
    "FullAddress":"4 Rosella Street, Redbank Plains, QLD, 4301, Australia",
    "Longitude":152.842696,
    "Latitude":-27.660192
  },
  {
    "SiteID":57231,
    "TenantName":"Potter, Ruth A",
    "Address":"1 Banksia Circuit",
    "City":"Forest Lake",
    "Region":"QLD",
    "PostalCode":"4078",
    "FullAddress":"1 Banksia Circuit, Forest Lake, QLD, 4078, Australia",
    "Longitude":152.964605,
    "Latitude":-27.613344
  },
  {
    "SiteID":57231,
    "TenantName":"Rosemai Rutledge, Patricia",
    "Address":"101a 758 Blunder Road",
    "City":"Durack",
    "Region":"QLD",
    "PostalCode":"4077",
    "FullAddress":"101a 758 Blunder Road, Durack, QLD, 4077, Australia",
    "Longitude":152.99082,
    "Latitude":-27.599213
  },
  {
    "SiteID":57231,
    "TenantName":"Delacruz, Hospicia Cuaresma",
    "Address":"35 Bronte Place",
    "City":"PARKINSON",
    "Region":"QLD",
    "PostalCode":"4115",
    "FullAddress":"35 Bronte Place, PARKINSON, QLD, 4115, Australia",
    "Longitude":153.026935,
    "Latitude":-27.635747
  },
  {
    "SiteID":57231,
    "TenantName":"Apenisa, Rabai",
    "Address":"197 Blunder Road",
    "City":"DURACK",
    "Region":"QLD",
    "PostalCode":"4077",
    "FullAddress":"197 Blunder Road, DURACK, QLD, 4077, Australia",
    "Longitude":152.982731,
    "Latitude":-27.580656
  },
  {
    "SiteID":57231,
    "TenantName":"Aumann, Wayne A",
    "Address":"30 Colebrook Crescent",
    "City":"Doolandella",
    "Region":"QLD",
    "PostalCode":"4077",
    "FullAddress":"30 Colebrook Crescent, Doolandella, QLD, 4077, Australia",
    "Longitude":152.990357,
    "Latitude":-27.608987
  },
  {
    "SiteID":57231,
    "TenantName":"Shirmaine Johnson Reid, Digger",
    "Address":"4 Marnham Street",
    "City":"Acacia Ridge",
    "Region":"QLD",
    "PostalCode":"4110",
    "FullAddress":"4 Marnham Street, Acacia Ridge, QLD, 4110, Australia",
    "Longitude":153.023802,
    "Latitude":-27.592887
  },
  {
    "SiteID":57231,
    "TenantName":"Bambrick, Geoffray R",
    "Address":"PO Box 3009 Darra",
    "City":"Durack",
    "Region":"QLD",
    "PostalCode":"4076",
    "FullAddress":"PO Box 3009 Darra, Durack, QLD, 4076, Australia",
    "Longitude":138.60286,
    "Latitude":-34.908654
  },
  {
    "SiteID":57231,
    "TenantName":"Browne, Lorpu",
    "Address":"unit 2\/6 Bexhill Street",
    "City":"Acacia Ridge",
    "Region":"QLD",
    "PostalCode":"4110",
    "FullAddress":"unit 2\/6 Bexhill Street, Acacia Ridge, QLD, 4110, Australia",
    "Longitude":153.021395,
    "Latitude":-27.584749
  },
  {
    "SiteID":57231,
    "TenantName":"Smith, Peter Dhann",
    "Address":"38 Lavender Street",
    "City":"BRISBANE",
    "Region":"QLD",
    "PostalCode":"4077",
    "FullAddress":"38 Lavender Street, BRISBANE, QLD, 4077, Australia",
    "Longitude":152.966229,
    "Latitude":-27.592239
  },
  {
    "SiteID":57231,
    "TenantName":"Fenton, Skye",
    "Address":"1 Cotton Cl",
    "City":"Forest lake",
    "Region":"QLD",
    "PostalCode":"4078",
    "FullAddress":"1 Cotton Cl, Forest lake, QLD, 4078, Australia",
    "Longitude":152.980581,
    "Latitude":-27.622231
  },
  {
    "SiteID":57231,
    "TenantName":"Radan Auto Electrical Imp, Radan",
    "Address":"122 Durrang Street",
    "City":"DURACK",
    "Region":"QLD",
    "PostalCode":"4077",
    "FullAddress":"122 Durrang Street, DURACK, QLD, 4077, Australia",
    "Longitude":152.98028,
    "Latitude":-27.594796
  },
  {
    "SiteID":57231,
    "TenantName":"Meurig faenor Evans, David",
    "Address":"21 Maculata Drive",
    "City":"Chapel Hill",
    "Region":"QLD",
    "PostalCode":"4069",
    "FullAddress":"21 Maculata Drive, Chapel Hill, QLD, 4069, Australia",
    "Longitude":152.941827,
    "Latitude":-27.505181
  },
  {
    "SiteID":57231,
    "TenantName":"Bijedic, Ismet",
    "Address":"5 Tewantin Way",
    "City":"Waterford",
    "Region":"QLD",
    "PostalCode":"4133",
    "FullAddress":"5 Tewantin Way, Waterford, QLD, 4133, Australia",
    "Longitude":153.146679,
    "Latitude":-27.712986
  },
  {
    "SiteID":57231,
    "TenantName":"Sartori, Dana",
    "Address":"8 Viewbrook Close",
    "City":"Seven Hills",
    "Region":"NSW",
    "PostalCode":"2147",
    "FullAddress":"8 Viewbrook Close, Seven Hills, NSW, 2147, Australia",
    "Longitude":150.962595,
    "Latitude":-33.778249
  },
  {
    "SiteID":57231,
    "TenantName":"Cullen, Josh",
    "Address":"38 Sittella Street",
    "City":"Inala",
    "Region":"QLD",
    "PostalCode":"4077",
    "FullAddress":"38 Sittella Street, Inala, QLD, 4077, Australia",
    "Longitude":152.97538,
    "Latitude":-27.605574
  },
  {
    "SiteID":57231,
    "TenantName":"Donnelly, Nanette",
    "Address":"8 Acorn Circuit",
    "City":"Forest Lake",
    "Region":"QLD",
    "PostalCode":"4078",
    "FullAddress":"8 Acorn Circuit, Forest Lake, QLD, 4078, Australia",
    "Longitude":152.966915,
    "Latitude":-27.610333
  },
  {
    "SiteID":57231,
    "TenantName":"White, Donald",
    "Address":"10 Cardwell St",
    "City":"Forest Lake",
    "Region":"QLD",
    "PostalCode":"4078",
    "FullAddress":"10 Cardwell St, Forest Lake, QLD, 4078, Australia",
    "Longitude":152.948254,
    "Latitude":-27.606113
  },
  {
    "SiteID":57231,
    "TenantName":"Richards, Robert F",
    "Address":"37 Wallaroo Way",
    "City":"Doolandella",
    "Region":"QLD",
    "PostalCode":"4077",
    "FullAddress":"37 Wallaroo Way, Doolandella, QLD, 4077, Australia",
    "Longitude":152.983886,
    "Latitude":-27.606494
  },
  {
    "SiteID":57231,
    "TenantName":"Meen, Melita A",
    "Address":"7 Wivenhoe cct",
    "City":"FOREST LAKE",
    "Region":"QLD",
    "PostalCode":"4078",
    "FullAddress":"7 Wivenhoe cct, FOREST LAKE, QLD, 4078, Australia",
    "Longitude":152.963394,
    "Latitude":-27.619643
  },
  {
    "SiteID":57231,
    "TenantName":"Black, Stephen",
    "Address":"260H Wacol Station Road",
    "City":"Wacol",
    "Region":"QLD",
    "PostalCode":"4076",
    "FullAddress":"260H Wacol Station Road, Wacol, QLD, 4076, Australia",
    "Longitude":152.91438,
    "Latitude":-27.571186
  },
  {
    "SiteID":57231,
    "TenantName":"Cassells, Benjamin J",
    "Address":"37 Westminster Boulevard",
    "City":"Doolandella",
    "Region":"QLD",
    "PostalCode":"4077",
    "FullAddress":"37 Westminster Boulevard, Doolandella, QLD, 4077, Australia",
    "Longitude":152.989326,
    "Latitude":-27.614611
  },
  {
    "SiteID":57231,
    "TenantName":"Lockwood, Graham O",
    "Address":"438 Bowhill Road",
    "City":"Durack",
    "Region":"QLD",
    "PostalCode":"4077",
    "FullAddress":"438 Bowhill Road, Durack, QLD, 4077, Australia",
    "Longitude":152.991656,
    "Latitude":-27.587324
  },
  {
    "SiteID":57231,
    "TenantName":"Lane, Keith A",
    "Address":"15 Randwick Street",
    "City":"Durack",
    "Region":"QLD",
    "PostalCode":"4077",
    "FullAddress":"15 Randwick Street, Durack, QLD, 4077, Australia",
    "Longitude":152.981714,
    "Latitude":-27.580827
  },
  {
    "SiteID":57231,
    "TenantName":"Rasmussen, Sean R",
    "Address":"129 Highbury Drive",
    "City":"Redbank Plains",
    "Region":"QLD",
    "PostalCode":"4301",
    "FullAddress":"129 Highbury Drive, Redbank Plains, QLD, 4301, Australia",
    "Longitude":152.862663,
    "Latitude":-27.636387
  },
  {
    "SiteID":57231,
    "TenantName":"Arawattigi, Jerrin R",
    "Address":"7 Templestowe Close",
    "City":"Forest Lake",
    "Region":"QLD",
    "PostalCode":"4078",
    "FullAddress":"7 Templestowe Close, Forest Lake, QLD, 4078, Australia",
    "Longitude":152.971649,
    "Latitude":-27.630922
  },
  {
    "SiteID":57231,
    "TenantName":"MACKIE, MARY F",
    "Address":"6 Malvern Place",
    "City":"Forest Lake",
    "Region":"QLD",
    "PostalCode":"4078",
    "FullAddress":"6 Malvern Place, Forest Lake, QLD, 4078, Australia",
    "Longitude":152.974278,
    "Latitude":-27.632189
  },
  {
    "SiteID":57231,
    "TenantName":"Shadford, Leah K",
    "Address":"77 Jindabyne Circuit",
    "City":"Forest Lake",
    "Region":"QLD",
    "PostalCode":"4078",
    "FullAddress":"77 Jindabyne Circuit, Forest Lake, QLD, 4078, Australia",
    "Longitude":152.957348,
    "Latitude":-27.621187
  },
  {
    "SiteID":57231,
    "TenantName":"Chetcuti, Christopher J",
    "Address":"10 Griffith Court",
    "City":"Forest Lake",
    "Region":"QLD",
    "PostalCode":"4078",
    "FullAddress":"10 Griffith Court, Forest Lake, QLD, 4078, Australia",
    "Longitude":152.974434,
    "Latitude":-27.628613
  },
  {
    "SiteID":57231,
    "TenantName":"Nash, Michele",
    "Address":"65 Oxford Parade",
    "City":"Forest Lake",
    "Region":"QLD",
    "PostalCode":"4078",
    "FullAddress":"65 Oxford Parade, Forest Lake, QLD, 4078, Australia",
    "Longitude":152.973913,
    "Latitude":-27.625696
  },
  {
    "SiteID":57231,
    "TenantName":"Scott, Mark T",
    "Address":"186 La Perouse Street",
    "City":"Red Hill",
    "Region":"ACT",
    "PostalCode":"2603",
    "FullAddress":"186 La Perouse Street, Red Hill, ACT, 2603, Australia",
    "Longitude":149.130874,
    "Latitude":-35.340547
  },
  {
    "SiteID":57231,
    "TenantName":"Miller, Aaron R",
    "Address":"28 Waratah Place",
    "City":"Cedar Vale",
    "Region":"QLD",
    "PostalCode":"4285",
    "FullAddress":"28 Waratah Place, Cedar Vale, QLD, 4285, Australia",
    "Longitude":153.00342,
    "Latitude":-27.879633
  },
  {
    "SiteID":57231,
    "TenantName":"Davern, Lee ann P",
    "Address":"10 Hillingdon Street",
    "City":"Doolandella",
    "Region":"QLD",
    "PostalCode":"4077",
    "FullAddress":"10 Hillingdon Street, Doolandella, QLD, 4077, Australia",
    "Longitude":152.9875,
    "Latitude":-27.614511
  },
  {
    "SiteID":57231,
    "TenantName":"Jensen, Nicholas V",
    "Address":"123 Clarendon Circuit",
    "City":"Forest Lake",
    "Region":"QLD",
    "PostalCode":"4078",
    "FullAddress":"123 Clarendon Circuit, Forest Lake, QLD, 4078, Australia",
    "Longitude":152.959273,
    "Latitude":-27.609165
  },
  {
    "SiteID":57231,
    "TenantName":"Taylor, Mackenzie E",
    "Address":"98 Treasure Island Avenue",
    "City":"Karragarra Island",
    "Region":"QLD",
    "PostalCode":"4184",
    "FullAddress":"98 Treasure Island Avenue, Karragarra Island, QLD, 4184, Australia",
    "Longitude":153.371612,
    "Latitude":-27.637498
  },
  {
    "SiteID":57231,
    "TenantName":"Timmins, Kylie L",
    "Address":"2 Mira Street",
    "City":"Inala",
    "Region":"QLD",
    "PostalCode":"4077",
    "FullAddress":"2 Mira Street, Inala, QLD, 4077, Australia",
    "Longitude":152.963002,
    "Latitude":-27.598335
  },
  {
    "SiteID":57231,
    "TenantName":"Wildman, Margaret A",
    "Address":"11 Sugarloaf Street",
    "City":"FOREST LAKE",
    "Region":"QLD",
    "PostalCode":"4078",
    "FullAddress":"11 Sugarloaf Street, FOREST LAKE, QLD, 4078, Australia",
    "Longitude":152.974929,
    "Latitude":-27.613918
  },
  {
    "SiteID":57231,
    "TenantName":"Ali adow, Ramadan",
    "Address":"169 Gregory Street",
    "City":"Acacia Ridge",
    "Region":"QLD",
    "PostalCode":"4110",
    "FullAddress":"169 Gregory Street, Acacia Ridge, QLD, 4110, Australia",
    "Longitude":153.017953,
    "Latitude":-27.590931
  },
  {
    "SiteID":57231,
    "TenantName":"Taggart, Natalie K",
    "Address":"23 Esperance Crescent",
    "City":"Springfield Lakes",
    "Region":"QLD",
    "PostalCode":"4300",
    "FullAddress":"23 Esperance Crescent, Springfield Lakes, QLD, 4300, Australia",
    "Longitude":152.911959,
    "Latitude":-27.681502
  },
  {
    "SiteID":57231,
    "TenantName":"Binogcal Ordiales, Gillbert",
    "Address":"3 Dily Street",
    "City":"Hillcrest",
    "Region":"QLD",
    "PostalCode":"4118",
    "FullAddress":"3 Dily Street, Hillcrest, QLD, 4118, Australia",
    "Longitude":153.022247,
    "Latitude":-27.670646
  },
  {
    "SiteID":57231,
    "TenantName":"Arthur, Ryan J",
    "Address":"5 Tia Lane",
    "City":"FOREST LAKE",
    "Region":"QLD",
    "PostalCode":"4078",
    "FullAddress":"5 Tia Lane, FOREST LAKE, QLD, 4078, Australia",
    "Longitude":152.962854,
    "Latitude":-27.627729
  },
  {
    "SiteID":57231,
    "TenantName":"Singh, Amanjot",
    "Address":"18 Nunderi Crescent",
    "City":"Doolandella",
    "Region":"QLD",
    "PostalCode":"4077",
    "FullAddress":"18 Nunderi Crescent, Doolandella, QLD, 4077, Australia",
    "Longitude":152.981062,
    "Latitude":-27.620129
  },
  {
    "SiteID":57231,
    "TenantName":"Mailath, Maryrose",
    "Address":"15 Marnham Street",
    "City":"Acacia Ridge",
    "Region":"QLD",
    "PostalCode":"4110",
    "FullAddress":"15 Marnham Street, Acacia Ridge, QLD, 4110, Australia",
    "Longitude":153.024457,
    "Latitude":-27.59231
  },
  {
    "SiteID":57231,
    "TenantName":"Kynoch, David A",
    "Address":"371 Blunder Road",
    "City":"Durack",
    "Region":"QLD",
    "PostalCode":"4077",
    "FullAddress":"371 Blunder Road, Durack, QLD, 4077, Australia",
    "Longitude":152.98617,
    "Latitude":-27.593878
  },
  {
    "SiteID":57231,
    "TenantName":"Wilhelmina Kerle, Caroline",
    "Address":"70 Settlers Circuit",
    "City":"Forest Lake",
    "Region":"QLD",
    "PostalCode":"4078",
    "FullAddress":"70 Settlers Circuit, Forest Lake, QLD, 4078, Australia",
    "Longitude":152.969547,
    "Latitude":-27.618103
  },
  {
    "SiteID":57231,
    "TenantName":"Zawislak, Paul Piotr",
    "Address":"104 King Avenue",
    "City":"WILLAWONG",
    "Region":"QLD",
    "PostalCode":"4110",
    "FullAddress":"104 King Avenue, WILLAWONG, QLD, 4110, Australia",
    "Longitude":152.999497,
    "Latitude":-27.594844
  },
  {
    "SiteID":57231,
    "TenantName":"Eze, Susan K",
    "Address":"Unit 53, 9 Milan Street",
    "City":"Ellen Grove",
    "Region":"QLD",
    "PostalCode":"4078",
    "FullAddress":"Unit 53, 9 Milan Street, Ellen Grove, QLD, 4078, Australia",
    "Longitude":152.954631,
    "Latitude":-27.621164
  },
  {
    "SiteID":57231,
    "TenantName":"Reber, Kyl David",
    "Address":"101 Lynne Grover Avenue",
    "City":"Corinda",
    "Region":"Qld",
    "PostalCode":"4075",
    "FullAddress":"101 Lynne Grover Avenue, Corinda, Qld, 4075, Australia",
    "Longitude":152.984836,
    "Latitude":-27.544569
  },
  {
    "SiteID":57231,
    "TenantName":"Garth, Jasmine A",
    "Address":"unit 1\/42 Reedy Crescent",
    "City":"Redbank Plains",
    "Region":"QLD",
    "PostalCode":"4301",
    "FullAddress":"unit 1\/42 Reedy Crescent, Redbank Plains, QLD, 4301, Australia",
    "Longitude":152.843465,
    "Latitude":-27.668337
  },
  {
    "SiteID":57231,
    "TenantName":"Langley, Alwyn N",
    "Address":"14 Maitland Street",
    "City":"Forest Lake",
    "Region":"QLD",
    "PostalCode":"4078",
    "FullAddress":"14 Maitland Street, Forest Lake, QLD, 4078, Australia",
    "Longitude":152.961223,
    "Latitude":-27.624083
  },
  {
    "SiteID":57231,
    "TenantName":"Ross, Ricky C",
    "Address":"5 Ascot Ave",
    "City":"FOREST LAKE",
    "Region":"QLD",
    "PostalCode":"4078",
    "FullAddress":"5 Ascot Ave, FOREST LAKE, QLD, 4078, Australia",
    "Longitude":152.968959,
    "Latitude":-27.628223
  },
  {
    "SiteID":57231,
    "TenantName":"Patterson, Jasmine",
    "Address":"16 Capricorn Street",
    "City":"Inala",
    "Region":"QLD",
    "PostalCode":"4077",
    "FullAddress":"16 Capricorn Street, Inala, QLD, 4077, Australia",
    "Longitude":152.967765,
    "Latitude":-27.604322
  },
  {
    "SiteID":57231,
    "TenantName":"Attilio Calvisi, Travis",
    "Address":"17 Totara Place",
    "City":"Forest Lake",
    "Region":"QLD",
    "PostalCode":"4078",
    "FullAddress":"17 Totara Place, Forest Lake, QLD, 4078, Australia",
    "Longitude":152.964402,
    "Latitude":-27.618281
  },
  {
    "SiteID":57231,
    "TenantName":"Kelly, ANGEL L",
    "Address":"3 Hart Street",
    "City":"Mossman",
    "Region":"QLD",
    "PostalCode":"4873",
    "FullAddress":"3 Hart Street, Mossman, QLD, 4873, Australia",
    "Longitude":145.372891,
    "Latitude":-16.45667
  },
  {
    "SiteID":57231,
    "TenantName":"Cosgrove, Shaun D",
    "Address":"558\/26 Blunder Road",
    "City":"DURACK",
    "Region":"QLD",
    "PostalCode":null,
    "FullAddress":"558\/26 Blunder Road, DURACK, QLD, Australia",
    "Longitude":152.98406,
    "Latitude":-27.583541
  },
  {
    "SiteID":57231,
    "TenantName":"Dahir mohamed, Iglan",
    "Address":"36 Sycamore Street",
    "City":"Inala",
    "Region":"QLD",
    "PostalCode":"4077",
    "FullAddress":"36 Sycamore Street, Inala, QLD, 4077, Australia",
    "Longitude":152.97777,
    "Latitude":-27.594504
  },
  {
    "SiteID":57231,
    "TenantName":"Dunshea, Amanda G",
    "Address":"13 Coolibah Street",
    "City":"Heathwood",
    "Region":"QLD",
    "PostalCode":"4110",
    "FullAddress":"13 Coolibah Street, Heathwood, QLD, 4110, Australia",
    "Longitude":152.993059,
    "Latitude":-27.635271
  },
  {
    "SiteID":57231,
    "TenantName":"Arinze Ben Anyakora, Ifeanyi",
    "Address":"81 Armisfield Street",
    "City":"Doolandella",
    "Region":"QLD",
    "PostalCode":"4077",
    "FullAddress":"81 Armisfield Street, Doolandella, QLD, 4077, Australia",
    "Longitude":152.991485,
    "Latitude":-27.607831
  },
  {
    "SiteID":57231,
    "TenantName":"Mckay, Kathryn E",
    "Address":"17 Durundur Court",
    "City":"Durack",
    "Region":"QLD",
    "PostalCode":"4077",
    "FullAddress":"17 Durundur Court, Durack, QLD, 4077, Australia",
    "Longitude":152.985524,
    "Latitude":-27.59586
  },
  {
    "SiteID":57231,
    "TenantName":"Harder, Laura H",
    "Address":"45 Central Street",
    "City":"Forest Lake",
    "Region":"QLD",
    "PostalCode":"4078",
    "FullAddress":"45 Central Street, Forest Lake, QLD, 4078, Australia",
    "Longitude":152.961841,
    "Latitude":-27.632494
  },
  {
    "SiteID":57231,
    "TenantName":"Richardson, Karen L",
    "Address":"12 Salisbury Street",
    "City":"Woolloongabba",
    "Region":"QLD",
    "PostalCode":"4102",
    "FullAddress":"12 Salisbury Street, Woolloongabba, QLD, 4102, Australia",
    "Longitude":153.04494,
    "Latitude":-27.495378
  },
  {
    "SiteID":57231,
    "TenantName":"Anthony, Karen L",
    "Address":"86 Invergarry circuit",
    "City":"Heathwood",
    "Region":"QLD",
    "PostalCode":"4110",
    "FullAddress":"86 Invergarry circuit, Heathwood, QLD, 4110, Australia",
    "Longitude":152.979872,
    "Latitude":-27.628965
  },
  {
    "SiteID":57231,
    "TenantName":"Brown, Jeffrey",
    "Address":"53 Jordan Street",
    "City":"Richlands",
    "Region":"QLD",
    "PostalCode":"4077",
    "FullAddress":"53 Jordan Street, Richlands, QLD, 4077, Australia",
    "Longitude":152.962978,
    "Latitude":-27.588956
  },
  {
    "SiteID":57231,
    "TenantName":"Cartes, Tamara",
    "Address":"4\/500 Milton Rd",
    "City":"Toowong",
    "Region":"QLD",
    "PostalCode":"4066",
    "FullAddress":"4\/500 Milton Rd, Toowong, QLD, 4066, Australia",
    "Longitude":152.991334,
    "Latitude":-27.477548
  },
  {
    "SiteID":57231,
    "TenantName":"Eteru, Loleta",
    "Address":"1\/18 robert road",
    "City":"Bentley Park",
    "Region":"QLD",
    "PostalCode":"4870",
    "FullAddress":"1\/18 robert road, Bentley Park, QLD, 4870, Australia",
    "Longitude":153.069681,
    "Latitude":-28.741862
  },
  {
    "SiteID":57231,
    "TenantName":"Pinkney, Kerry A",
    "Address":"15 Jorgenson Close",
    "City":"Forest Lake",
    "Region":"QLD",
    "PostalCode":"4078",
    "FullAddress":"15 Jorgenson Close, Forest Lake, QLD, 4078, Australia",
    "Longitude":152.971954,
    "Latitude":-27.616167
  },
  {
    "SiteID":57231,
    "TenantName":"Johansen, Michael H",
    "Address":"u29 210 Government Road",
    "City":"FOREST LAKE",
    "Region":"QLD",
    "PostalCode":"4078",
    "FullAddress":"u29 210 Government Road, FOREST LAKE, QLD, 4078, Australia",
    "Longitude":152.949974,
    "Latitude":-27.601615
  },
  {
    "SiteID":57231,
    "TenantName":"Johnson, Dorothy M",
    "Address":"3 Janice Street",
    "City":"Gailes",
    "Region":"QLD",
    "PostalCode":"4300",
    "FullAddress":"3 Janice Street, Gailes, QLD, 4300, Australia",
    "Longitude":152.917256,
    "Latitude":-27.609664
  },
  {
    "SiteID":57231,
    "TenantName":"Thomsen, Sonia M",
    "Address":"49 Bolinda Street",
    "City":"Eight Mile Plains",
    "Region":"QLD",
    "PostalCode":"4113",
    "FullAddress":"49 Bolinda Street, Eight Mile Plains, QLD, 4113, Australia",
    "Longitude":153.078709,
    "Latitude":-27.581118
  },
  {
    "SiteID":57231,
    "TenantName":"Yaqeen Nihardeen, Ahkam",
    "Address":"12 Rothburn Street",
    "City":"Doolandella",
    "Region":"QLD",
    "PostalCode":"4077",
    "FullAddress":"12 Rothburn Street, Doolandella, QLD, 4077, Australia",
    "Longitude":152.976449,
    "Latitude":-27.619008
  },
  {
    "SiteID":57231,
    "TenantName":"Masum Billah, Mohammad",
    "Address":"185 Fox Valley Road",
    "City":"Wahroonga",
    "Region":"NSW",
    "PostalCode":"2076",
    "FullAddress":"185 Fox Valley Road, Wahroonga, NSW, 2076, Australia",
    "Longitude":151.098523,
    "Latitude":-33.733407
  },
  {
    "SiteID":57231,
    "TenantName":"Sesay, Sao",
    "Address":"Chester Street",
    "City":"Moorooka",
    "Region":"QLD",
    "PostalCode":"4105",
    "FullAddress":"Chester Street, Moorooka, QLD, 4105, Australia",
    "Longitude":153.415887,
    "Latitude":-29.018385
  },
  {
    "SiteID":57231,
    "TenantName":"Shuster, Michael",
    "Address":"14 Beccarria Place",
    "City":"Doolandella",
    "Region":null,
    "PostalCode":"4077",
    "FullAddress":"14 Beccarria Place, Doolandella, 4077, Australia",
    "Longitude":152.985662,
    "Latitude":-27.60707
  },
  {
    "SiteID":57231,
    "TenantName":"Bridgwood, Mudenda",
    "Address":"6 honey Place",
    "City":"FOREST LAKE",
    "Region":"QLD",
    "PostalCode":"4078",
    "FullAddress":"6 honey Place, FOREST LAKE, QLD, 4078, Australia",
    "Longitude":115.950175,
    "Latitude":-32.030294
  },
  {
    "SiteID":57231,
    "TenantName":"Flett, Jai",
    "Address":"25\/353 King Avenue",
    "City":"Durack",
    "Region":null,
    "PostalCode":"4077",
    "FullAddress":"25\/353 King Avenue, Durack, 4077, Australia",
    "Longitude":152.987042,
    "Latitude":-27.591227
  },
  {
    "SiteID":57231,
    "TenantName":"Morgan, Charmarie",
    "Address":"44 Lorikeet Street",
    "City":"Inala",
    "Region":"QLD",
    "PostalCode":"4077",
    "FullAddress":"44 Lorikeet Street, Inala, QLD, 4077, Australia",
    "Longitude":152.975048,
    "Latitude":-27.605918
  },
  {
    "SiteID":57231,
    "TenantName":"Patterson, Adrian",
    "Address":"63 finetti circuit",
    "City":"Durack",
    "Region":"Queensland",
    "PostalCode":"4077",
    "FullAddress":"63 finetti circuit, Durack, Queensland, 4077, Australia",
    "Longitude":152.989549,
    "Latitude":-27.5999
  },
  {
    "SiteID":57231,
    "TenantName":"Ansari, Heidar",
    "Address":"15\/45 blaxlan crescent",
    "City":"Redbank Plains",
    "Region":"QLD",
    "PostalCode":"4301",
    "FullAddress":"15\/45 blaxlan crescent, Redbank Plains, QLD, 4301, Australia",
    "Longitude":152.871044,
    "Latitude":-27.628714
  },
  {
    "SiteID":57231,
    "TenantName":"Hickey, Elizabeth",
    "Address":"17 Pictor Street",
    "City":"Inala",
    "Region":"QLD",
    "PostalCode":"4077",
    "FullAddress":"17 Pictor Street, Inala, QLD, 4077, Australia",
    "Longitude":152.966972,
    "Latitude":-27.60132
  },
  {
    "SiteID":57231,
    "TenantName":"Keefer, Annett",
    "Address":"8\/51 Hampton street Durack",
    "City":"Brisbane",
    "Region":"Queensland",
    "PostalCode":"4077",
    "FullAddress":"8\/51 Hampton street Durack, Brisbane, Queensland, 4077, Australia",
    "Longitude":152.97667,
    "Latitude":-27.580221
  },
  {
    "SiteID":57231,
    "TenantName":"Schiro, Carmen",
    "Address":"7 Adonis Street",
    "City":"Inala",
    "Region":"QLD",
    "PostalCode":"4077",
    "FullAddress":"7 Adonis Street, Inala, QLD, 4077, Australia",
    "Longitude":152.976477,
    "Latitude":-27.593659
  },
  {
    "SiteID":57231,
    "TenantName":"Forest Lake, One Agency",
    "Address":"255 Forest Lake Boulevard",
    "City":"FOREST  LAKE",
    "Region":"qld",
    "PostalCode":"4078",
    "FullAddress":"255 Forest Lake Boulevard, FOREST  LAKE, qld, 4078, Australia",
    "Longitude":152.970024,
    "Latitude":-27.626548
  },
  {
    "SiteID":57231,
    "TenantName":"Sabumei, Ajay",
    "Address":"17B Mulgrave Crescent",
    "City":"Forest Lake",
    "Region":"QLD",
    "PostalCode":"4078",
    "FullAddress":"17B Mulgrave Crescent, Forest Lake, QLD, 4078, Australia",
    "Longitude":152.972691,
    "Latitude":-27.612212
  }
]